{
"type": "FeatureCollection",
"name": "conservacion_suelo",
"crs": { "type": "name", "properties": { "name": "urn:ogc:def:crs:OGC:1.3:CRS84" } },
"features": [
{ "type": "Feature", "properties": { "CODIGO": null, "NOMBRE": "Cienaga de Baño", "NOMENCLAT": null, "REGLAME": null, "NUM_RES_VI": null, "AREA_RES": 618.64412970700005, "SUEL_PROT": null, "TERRIT_PNN": null, "OBSERV": "CVS", "SHAPE_Leng": 10794.524619, "SHAPE_Area": 6186441.2970700003 }, "geometry": { "type": "Polygon", "coordinates": [ [ [ -75.83795445825011, 9.132921719410394 ], [ -75.833758075823212, 9.130042026216465 ], [ -75.832808933135382, 9.128669209723324 ], [ -75.832258991375298, 9.126677649294232 ], [ -75.832514622870889, 9.124967088318886 ], [ -75.833444180434924, 9.124089504934595 ], [ -75.835672865452807, 9.123319831508162 ], [ -75.836762391946436, 9.121410211080205 ], [ -75.837463055647689, 9.117678661359353 ], [ -75.834896172624369, 9.113549216904534 ], [ -75.834812845462622, 9.111835645106281 ], [ -75.839811456121083, 9.109521999816774 ], [ -75.841731093663881, 9.106689966155965 ], [ -75.842389076262521, 9.104695854338566 ], [ -75.854899917893022, 9.105831971736412 ], [ -75.856953797547618, 9.110536552215866 ], [ -75.856461345831633, 9.11382347943629 ], [ -75.8565044415665, 9.118846179414181 ], [ -75.85942599991256, 9.126628984349711 ], [ -75.851527983750131, 9.125946137260488 ], [ -75.846579477914403, 9.130930772833031 ], [ -75.838361731097208, 9.134311843302713 ], [ -75.83795445825011, 9.132921719410394 ] ] ] } },
{ "type": "Feature", "properties": { "CODIGO": null, "NOMBRE": "corralito", "NOMENCLAT": null, "REGLAME": null, "NUM_RES_VI": null, "AREA_RES": 1266.16120677, "SUEL_PROT": null, "TERRIT_PNN": null, "OBSERV": null, "SHAPE_Leng": 14759.308899199999, "SHAPE_Area": 12661612.0677 }, "geometry": { "type": "Polygon", "coordinates": [ [ [ -75.840935810219193, 8.867479964257264 ], [ -75.846370730168715, 8.865218714898687 ], [ -75.850301881639993, 8.865356015798556 ], [ -75.855161371372887, 8.863443054028505 ], [ -75.856479118854082, 8.862540976927566 ], [ -75.858003852757619, 8.860160320410413 ], [ -75.872859943301307, 8.86823192480467 ], [ -75.87322549920151, 8.869015276869099 ], [ -75.872552299812497, 8.869787797575967 ], [ -75.872241532192206, 8.872105068373612 ], [ -75.873927389544377, 8.874973059619887 ], [ -75.872352763983912, 8.884374775089961 ], [ -75.874207973286829, 8.890751751406773 ], [ -75.871892690249155, 8.89488497146364 ], [ -75.868856135519266, 8.894587776205764 ], [ -75.867679155860827, 8.894899559176444 ], [ -75.863310062502364, 8.89621959276659 ], [ -75.8577873220611, 8.89881595033037 ], [ -75.857012325099461, 8.895926598376153 ], [ -75.855361520516709, 8.893381441019907 ], [ -75.854735741267731, 8.892812814051934 ], [ -75.851898511960982, 8.892391393019082 ], [ -75.850078338021206, 8.891348325607577 ], [ -75.848791502918687, 8.891258411624278 ], [ -75.847371188749833, 8.893417154345354 ], [ -75.84571590008845, 8.894189781515058 ], [ -75.842321056174967, 8.893201576726375 ], [ -75.839689170656399, 8.893442204305492 ], [ -75.838364378060533, 8.892898307378807 ], [ -75.836568840846567, 8.88951098967166 ], [ -75.837070573735446, 8.886221290481975 ], [ -75.836403368106104, 8.879923137771685 ], [ -75.83952461860541, 8.876561232582546 ], [ -75.839791724463609, 8.869086092239558 ], [ -75.840935810219193, 8.867479964257264 ] ] ] } },
{ "type": "Feature", "properties": { "CODIGO": null, "NOMBRE": "Cienaga de Betanci", "NOMENCLAT": null, "REGLAME": null, "NUM_RES_VI": "351", "AREA_RES": 13435.769661099999, "SUEL_PROT": null, "TERRIT_PNN": null, "OBSERV": "http://runap.parquesnacionales.gov.co/area-protegidas/1289", "SHAPE_Leng": 56904.968015899998, "SHAPE_Area": 134357696.611 }, "geometry": { "type": "Polygon", "coordinates": [ [ [ -75.887141798864164, 8.353084193752263 ], [ -75.893842639870854, 8.36600244371747 ], [ -75.894389887775901, 8.368703232425197 ], [ -75.896793194707627, 8.370663547927952 ], [ -75.897881837543707, 8.363987329285099 ], [ -75.895193793977228, 8.361635022232266 ], [ -75.894170326806503, 8.35841200800709 ], [ -75.894524864563948, 8.354436024477252 ], [ -75.896111983376372, 8.351683863393202 ], [ -75.899047557239811, 8.349987034593813 ], [ -75.911834303360607, 8.347479569043978 ], [ -75.914589948652278, 8.347752235233287 ], [ -75.917121194698865, 8.349315440498007 ], [ -75.918346181849003, 8.351059590230482 ], [ -75.923156444174055, 8.361513895514118 ], [ -75.923761808038876, 8.365384064900649 ], [ -75.925126369012645, 8.368339623276825 ], [ -75.925019133410956, 8.372349409025402 ], [ -75.926260001012935, 8.373916394169417 ], [ -75.92697309546287, 8.375922912143022 ], [ -75.926853607766006, 8.38050949577933 ], [ -75.925630327713037, 8.386931054060708 ], [ -75.925086259157396, 8.394853850429056 ], [ -75.923664921873495, 8.400342528067231 ], [ -75.920280742202323, 8.404526351592297 ], [ -75.915350669161271, 8.415856389242569 ], [ -75.913956458065883, 8.418045535660999 ], [ -75.910906784465226, 8.42619511722817 ], [ -75.909360887802279, 8.42766515933242 ], [ -75.907413060810185, 8.428541964102099 ], [ -75.89862103413212, 8.429555555002574 ], [ -75.89631396812662, 8.432844139770447 ], [ -75.89381332081112, 8.435275607083359 ], [ -75.887254989769843, 8.440785110932666 ], [ -75.885065905968517, 8.441815855037154 ], [ -75.883988667647699, 8.443423276426723 ], [ -75.881676468148171, 8.449309450393521 ], [ -75.880233561807728, 8.45087996801478 ], [ -75.878398144665283, 8.451868424810955 ], [ -75.878200331164393, 8.459813568987444 ], [ -75.87721928262954, 8.462614422649418 ], [ -75.87535122639747, 8.464485950544338 ], [ -75.874075944541957, 8.467415689885978 ], [ -75.872519733789076, 8.469167927037281 ], [ -75.870015111940077, 8.470346113645657 ], [ -75.867245002090399, 8.470352272409363 ], [ -75.855425874818664, 8.465084223146105 ], [ -75.8529599320931, 8.462760646987729 ], [ -75.852061815697738, 8.459932328227289 ], [ -75.852458435530764, 8.457001229015921 ], [ -75.851111960126332, 8.455519291577529 ], [ -75.849203120350097, 8.451871106020397 ], [ -75.848713877728173, 8.448724689700278 ], [ -75.846302930157151, 8.446998291098744 ], [ -75.844940178640087, 8.444360498947326 ], [ -75.844933727563713, 8.441394191079763 ], [ -75.846737128371643, 8.436850837674593 ], [ -75.844272005546813, 8.434883701040365 ], [ -75.840402885866908, 8.428703771810172 ], [ -75.839267874494254, 8.425410084512842 ], [ -75.838936781601973, 8.422519667058609 ], [ -75.836442449783576, 8.422259006197153 ], [ -75.831367756762134, 8.415553421607433 ], [ -75.82642801920602, 8.415142019061413 ], [ -75.826458193251227, 8.414555526623248 ], [ -75.825752887705903, 8.414511211700647 ], [ -75.825635489064453, 8.415152055410998 ], [ -75.811788571878751, 8.413387337617412 ], [ -75.810038889038537, 8.412467115686578 ], [ -75.808537058160709, 8.410952441623218 ], [ -75.80768548679896, 8.409232718022379 ], [ -75.80668636364085, 8.402381153729714 ], [ -75.805098860472711, 8.399736928386384 ], [ -75.804700629648721, 8.396249744412048 ], [ -75.798837680020213, 8.392354813791316 ], [ -75.795581877772975, 8.392181530045628 ], [ -75.793575946804623, 8.391446316164561 ], [ -75.791790630225321, 8.389926300074842 ], [ -75.790500226849389, 8.387554555456132 ], [ -75.787439699162249, 8.386794651962738 ], [ -75.785208667163275, 8.384829146869821 ], [ -75.782708164090664, 8.380729330187203 ], [ -75.782006964086719, 8.377312379125732 ], [ -75.782679848944042, 8.374244186367411 ], [ -75.782732626123831, 8.367621375761198 ], [ -75.784495586419752, 8.364379692562181 ], [ -75.784642843139068, 8.356376977349463 ], [ -75.786040624088614, 8.353524694948851 ], [ -75.788855100052487, 8.35163509372949 ], [ -75.791395973580961, 8.351329362484861 ], [ -75.795542905059975, 8.352252947017035 ], [ -75.799335530642594, 8.349767839434236 ], [ -75.803966486593993, 8.349629061397749 ], [ -75.803099680971386, 8.345929452996923 ], [ -75.803213863237787, 8.343593156306023 ], [ -75.804297270415262, 8.341283900028619 ], [ -75.806394770170954, 8.339483134440236 ], [ -75.808634183089538, 8.338778345033688 ], [ -75.81866816036721, 8.338088536625124 ], [ -75.820769376062344, 8.338477392549809 ], [ -75.82263095447334, 8.339500573742686 ], [ -75.833721065599519, 8.34060122732541 ], [ -75.836303415904666, 8.34159720698668 ], [ -75.837855557706149, 8.343060421716917 ], [ -75.838833079943356, 8.344953258835739 ], [ -75.839728080353012, 8.352606482271035 ], [ -75.849836210177145, 8.352094104579056 ], [ -75.852897603430065, 8.352349498669778 ], [ -75.85484901569744, 8.35321760499977 ], [ -75.856374356340254, 8.354646262669011 ], [ -75.859474130409069, 8.355175954206439 ], [ -75.864800841486925, 8.357757490847817 ], [ -75.866704370319027, 8.359575465694901 ], [ -75.870295402539497, 8.360824860825774 ], [ -75.872423266502068, 8.356667794808816 ], [ -75.873865898769154, 8.355097332269722 ], [ -75.880049589617926, 8.35152447289699 ], [ -75.883206347466285, 8.351089900554612 ], [ -75.885257418100011, 8.351688127370695 ], [ -75.887141798864164, 8.353084193752263 ] ] ] } }
]
}
