{
"type": "FeatureCollection",
"name": "distrito_manejo_integrado",
"crs": { "type": "name", "properties": { "name": "urn:ogc:def:crs:OGC:1.3:CRS84" } },
"features": [
{ "type": "Feature", "properties": { "CODIGO": null, "NOMBRE": "DRMI Cispatá", "NOMENCLAT": null, "REGLAME": null, "NUM_RES_VI": "Acuerdo 56 del 7 de julio de 2010", "AREA_RES": 26333.9668934, "SUEL_PROT": null, "TERRIT_PNN": null, "OBSERV": "CVS", "SHAPE_Leng": 122014.33321500001, "SHAPE_Area": 263339668.93399999, "ORDEN": 0.0 }, "geometry": { "type": "Polygon", "coordinates": [ [ [ -75.923299191870285, 9.447718489268079 ], [ -75.922769020025569, 9.446987346718839 ], [ -75.919257850111762, 9.445992514187392 ], [ -75.918028940032599, 9.444588048434383 ], [ -75.917677824441029, 9.441310954508815 ], [ -75.91673611021146, 9.440181976922283 ], [ -75.914388443270894, 9.435112644242926 ], [ -75.901959548154338, 9.429357217628045 ], [ -75.89025077859479, 9.425070598372994 ], [ -75.886372713887013, 9.42411365861798 ], [ -75.875857875303197, 9.423509436112816 ], [ -75.860745964637218, 9.424887636242433 ], [ -75.850101049581653, 9.42710869515281 ], [ -75.849783358229487, 9.426672940850944 ], [ -75.850787082179849, 9.424437376454954 ], [ -75.8537982523182, 9.424072384999613 ], [ -75.853387638042804, 9.423524900521709 ], [ -75.850923952713117, 9.423524900233927 ], [ -75.850969576861431, 9.422110561438513 ], [ -75.849463991977942, 9.420650599176463 ], [ -75.84887088317565, 9.421973690948597 ], [ -75.848551517023651, 9.421563075931688 ], [ -75.847137177639937, 9.42192806739936 ], [ -75.847639040283653, 9.422612425108312 ], [ -75.846270327101308, 9.423707395117058 ], [ -75.846817812108895, 9.424574247807877 ], [ -75.846954682821831, 9.425714841479186 ], [ -75.846544069402285, 9.425988583465729 ], [ -75.842985412924961, 9.426672940633553 ], [ -75.842985413226984, 9.423479277747465 ], [ -75.842437926783802, 9.424026760967282 ], [ -75.842118562079804, 9.425988583658855 ], [ -75.837282439263873, 9.427448545416292 ], [ -75.837738676946969, 9.427859161986126 ], [ -75.839791747724647, 9.427448545367882 ], [ -75.839746124207508, 9.428087279666986 ], [ -75.832263820881039, 9.4299122309368 ], [ -75.83208132637624, 9.428999754165158 ], [ -75.830712611717559, 9.429820983189796 ], [ -75.829435145204883, 9.428680390122212 ], [ -75.82729082779646, 9.428999754690892 ], [ -75.826788965976178, 9.424939236102528 ], [ -75.824827142890953, 9.423524900541764 ], [ -75.821998467361198, 9.422612425099633 ], [ -75.819854147971355, 9.423159908618691 ], [ -75.819032920752974, 9.42411800855383 ], [ -75.81866792956103, 9.42644482169581 ], [ -75.816249868704062, 9.429455995378174 ], [ -75.816432364295451, 9.43032284750115 ], [ -75.818546548276444, 9.430389390780142 ], [ -75.816551352118466, 9.431123899876257 ], [ -75.813397682349631, 9.431789077227576 ], [ -75.812699834581025, 9.431493299917701 ], [ -75.812338433741459, 9.432077165160198 ], [ -75.811604420187464, 9.43142269221668 ], [ -75.800531129770732, 9.432827379405991 ], [ -75.79658575415273, 9.431302271735895 ], [ -75.793918108755548, 9.429343172511244 ], [ -75.792968448027821, 9.427341588795551 ], [ -75.793346272364843, 9.424711300824503 ], [ -75.791226039912175, 9.418049541731104 ], [ -75.790957982412408, 9.411024144192897 ], [ -75.79150581222008, 9.409866329783148 ], [ -75.79231680646383, 9.41111058599979 ], [ -75.792515902723977, 9.41035592269748 ], [ -75.793076299725882, 9.410467562695738 ], [ -75.793220052088614, 9.412380975861772 ], [ -75.792650857210162, 9.414260367845305 ], [ -75.793235274091259, 9.415196475809063 ], [ -75.796680800826479, 9.412174251636534 ], [ -75.797777697889146, 9.410009354705414 ], [ -75.797887674142004, 9.410960261521042 ], [ -75.79972081383309, 9.412940664248712 ], [ -75.80290959967401, 9.414657921798192 ], [ -75.805161719794128, 9.414787890231407 ], [ -75.80594830061932, 9.414425214959087 ], [ -75.806879529921801, 9.414769717484312 ], [ -75.806600161590794, 9.417351659708546 ], [ -75.807312952146191, 9.417037449246569 ], [ -75.810948595730096, 9.418235058727289 ], [ -75.813798401702556, 9.418432042304071 ], [ -75.814222847661753, 9.417597006306694 ], [ -75.816581789321816, 9.416728219175175 ], [ -75.820998127008735, 9.416938925498599 ], [ -75.823977423254689, 9.416429687830348 ], [ -75.827190183287343, 9.414686624403803 ], [ -75.827557955384478, 9.413549790738029 ], [ -75.826998076067767, 9.413516297637875 ], [ -75.826673460271664, 9.412800365449764 ], [ -75.827068535054266, 9.412119470709055 ], [ -75.827755624367882, 9.412121905364245 ], [ -75.827976157652557, 9.413012961517621 ], [ -75.828800867817407, 9.412612963772618 ], [ -75.828872743632942, 9.411587806252841 ], [ -75.82942543539032, 9.41180291513049 ], [ -75.830936273090657, 9.409902181683343 ], [ -75.831560342407514, 9.409519901636243 ], [ -75.83208259459829, 9.409868307992108 ], [ -75.833878166004695, 9.407925224823437 ], [ -75.834356949137586, 9.408230155595643 ], [ -75.834269973569832, 9.407199299170362 ], [ -75.832412287292968, 9.406882063340218 ], [ -75.832084481795121, 9.40591228961874 ], [ -75.832454454693419, 9.405383598731124 ], [ -75.834351226431238, 9.405061317581982 ], [ -75.834846565371379, 9.405501679929619 ], [ -75.836558514643784, 9.405398047142308 ], [ -75.836682362563849, 9.404569534785574 ], [ -75.835584869788988, 9.404901176507336 ], [ -75.833878797890947, 9.403360006800536 ], [ -75.83380289926825, 9.403999391971647 ], [ -75.833250262714216, 9.404143649533871 ], [ -75.830871893596779, 9.403483283127315 ], [ -75.832489131557239, 9.402537186333568 ], [ -75.833592635993497, 9.402433679783982 ], [ -75.834877453569732, 9.400011021942182 ], [ -75.837191905827751, 9.399997675132955 ], [ -75.837951621208262, 9.39924856333313 ], [ -75.837370374020466, 9.398473259765115 ], [ -75.833026127665036, 9.397534365587616 ], [ -75.83299127898735, 9.396465556499052 ], [ -75.834113198780315, 9.395970190195367 ], [ -75.834160444714527, 9.39539623790132 ], [ -75.832079882151902, 9.396005989642633 ], [ -75.829868301304018, 9.397501749169455 ], [ -75.82876643006189, 9.39715418793439 ], [ -75.82814264185798, 9.396185404672366 ], [ -75.829746447226796, 9.395288934435015 ], [ -75.828872699618657, 9.39512596356685 ], [ -75.828259643127339, 9.393715685744139 ], [ -75.827932817928158, 9.394380392542207 ], [ -75.826589876912195, 9.394912625209578 ], [ -75.825232711916783, 9.393382781364741 ], [ -75.82456213019843, 9.393401884347277 ], [ -75.824297637728804, 9.394775627945769 ], [ -75.822784363961517, 9.394555464883243 ], [ -75.823558455566783, 9.395825495887093 ], [ -75.822710813891064, 9.396960894428984 ], [ -75.823207593079545, 9.397155973003366 ], [ -75.822333828448848, 9.399537080427775 ], [ -75.820602612990427, 9.399767197254814 ], [ -75.817778933074138, 9.397050744230894 ], [ -75.815573753251584, 9.396763640675429 ], [ -75.81381944324778, 9.397401751816096 ], [ -75.812955438622012, 9.397076469735984 ], [ -75.810204379048457, 9.398205013871758 ], [ -75.809963017364538, 9.399149237291033 ], [ -75.808233683103126, 9.398863795281249 ], [ -75.806924949778406, 9.401866186876907 ], [ -75.805126166655384, 9.402826275517416 ], [ -75.80461059029345, 9.401857854242266 ], [ -75.805174292232124, 9.401494736482514 ], [ -75.804808945988782, 9.400849042462612 ], [ -75.805373743382532, 9.400185221241761 ], [ -75.804293214213729, 9.399923575289661 ], [ -75.802145843230377, 9.395662946743764 ], [ -75.801214373661537, 9.396046209881055 ], [ -75.800388294975903, 9.397181621483897 ], [ -75.799914737131033, 9.396557012183992 ], [ -75.798141382931036, 9.396486158995319 ], [ -75.797538528937523, 9.395732204929921 ], [ -75.79487506897307, 9.396560232298972 ], [ -75.794206465315114, 9.396042303671624 ], [ -75.795199337435349, 9.393930817669803 ], [ -75.795016067765317, 9.393510702787788 ], [ -75.791205812693605, 9.394463415814087 ], [ -75.790580873067441, 9.39383824749331 ], [ -75.784203382060738, 9.392998761341252 ], [ -75.782165644075832, 9.394237088179814 ], [ -75.781727716342658, 9.395674578335335 ], [ -75.780821139387626, 9.395177234170932 ], [ -75.778852028834251, 9.39540627131904 ], [ -75.777580300260638, 9.396481869301505 ], [ -75.777883758978518, 9.397598495126013 ], [ -75.77753436464242, 9.398758476347345 ], [ -75.776786587686487, 9.398793795398731 ], [ -75.776410211033166, 9.399477745416416 ], [ -75.776375233268155, 9.401143360353801 ], [ -75.779394318080818, 9.401501896470011 ], [ -75.779221897182723, 9.402042763375558 ], [ -75.779935067190848, 9.4027222607266 ], [ -75.779728249201995, 9.40334761144654 ], [ -75.776612165882668, 9.404176537112992 ], [ -75.776637499748659, 9.405062266415349 ], [ -75.776141682711156, 9.405500404108549 ], [ -75.775805611211013, 9.401962944588909 ], [ -75.773993321597359, 9.401218932878137 ], [ -75.771847977934669, 9.401292983904648 ], [ -75.765993898059591, 9.403263015856936 ], [ -75.759571783557789, 9.407198789983061 ], [ -75.759560531317391, 9.406683871906736 ], [ -75.75804722802944, 9.406307564122546 ], [ -75.756842535753506, 9.404897187249416 ], [ -75.758566775026011, 9.401364224776961 ], [ -75.761363846505745, 9.398575539659671 ], [ -75.763573995132589, 9.398154343986219 ], [ -75.767304808564504, 9.394867528527062 ], [ -75.77183334024383, 9.393293926443105 ], [ -75.775010258368056, 9.392946805193651 ], [ -75.779673800672782, 9.391446493769283 ], [ -75.778431330157218, 9.387533027924139 ], [ -75.779370051914782, 9.381105104154249 ], [ -75.779941974528199, 9.380723769378365 ], [ -75.780470207590753, 9.378055539031417 ], [ -75.782437745636045, 9.375117079637896 ], [ -75.785654167189662, 9.373096798942278 ], [ -75.78618687879738, 9.371495310024512 ], [ -75.787798948565737, 9.369313151207709 ], [ -75.790748900305957, 9.367346069646594 ], [ -75.792693355000594, 9.3668381774017 ], [ -75.795203130754388, 9.364588530746392 ], [ -75.800277347640957, 9.361313770159471 ], [ -75.805678341181135, 9.359514974857056 ], [ -75.80887449250946, 9.357685689328664 ], [ -75.812270132624974, 9.356993540243147 ], [ -75.812618975015113, 9.356472428193337 ], [ -75.813842882264765, 9.353642305292619 ], [ -75.816762269582696, 9.349772309036695 ], [ -75.817499771044766, 9.346932621923703 ], [ -75.817375195294403, 9.344567917666151 ], [ -75.81542219761603, 9.343101674466748 ], [ -75.814710827157953, 9.341181748996615 ], [ -75.814962331927404, 9.337338056807521 ], [ -75.814249777081145, 9.334900788546191 ], [ -75.817801273909907, 9.326245629371069 ], [ -75.819606924412383, 9.318813918064505 ], [ -75.821612078853477, 9.317183366041833 ], [ -75.822610585168945, 9.31463130443438 ], [ -75.824353294320417, 9.312151425343268 ], [ -75.827663587833214, 9.311848129967846 ], [ -75.828220052004895, 9.311181684516994 ], [ -75.828727040008246, 9.305304983072833 ], [ -75.83076448228995, 9.30164190070437 ], [ -75.832285878675236, 9.300012424462878 ], [ -75.832432409504392, 9.299051306030341 ], [ -75.831460830895722, 9.297205922490299 ], [ -75.831755991620398, 9.296170550841087 ], [ -75.834917847156731, 9.296089265289591 ], [ -75.835952135644533, 9.295535870976332 ], [ -75.837998619234909, 9.293199719809364 ], [ -75.838846480814297, 9.289945873041468 ], [ -75.840071576027668, 9.289841739473276 ], [ -75.844048944017274, 9.28764254164618 ], [ -75.845906345359822, 9.285779690432395 ], [ -75.846210715239181, 9.283369538004528 ], [ -75.844394875928174, 9.280639152989911 ], [ -75.844436512166595, 9.278606645743423 ], [ -75.845082728711958, 9.276618901170364 ], [ -75.846058960611984, 9.276524212016296 ], [ -75.848991202427129, 9.277718234121249 ], [ -75.85029213997845, 9.277299423758141 ], [ -75.851544906208971, 9.27618785945414 ], [ -75.851535327808037, 9.272215452002229 ], [ -75.851956843271921, 9.269989083101285 ], [ -75.852637336066579, 9.269691395324203 ], [ -75.852503407173472, 9.268748819144566 ], [ -75.851482499912365, 9.267494774268974 ], [ -75.851288152598656, 9.266118819672533 ], [ -75.853049514463819, 9.264065104157188 ], [ -75.852705039763975, 9.262458692699491 ], [ -75.852022012354894, 9.261698998166333 ], [ -75.852233151855273, 9.260979470195647 ], [ -75.851679480899008, 9.260896196402184 ], [ -75.85203576261955, 9.25866786261121 ], [ -75.855182974122172, 9.260016817953693 ], [ -75.862485823442583, 9.260852606727662 ], [ -75.866720996814209, 9.262890281795991 ], [ -75.873131657710715, 9.274145695962854 ], [ -75.874692553810277, 9.275337434663964 ], [ -75.9058052395647, 9.289322072696203 ], [ -75.918877913287858, 9.302121963826465 ], [ -75.928564852326787, 9.307626097599067 ], [ -75.938815859978519, 9.317236425990417 ], [ -75.942853997839052, 9.325012369805183 ], [ -75.946146060290729, 9.32889453813959 ], [ -75.951421127545316, 9.338267501738214 ], [ -75.948707056921577, 9.339456050921903 ], [ -75.95136570130299, 9.343103834617477 ], [ -75.951707735520884, 9.346394708237799 ], [ -75.949914847533989, 9.34854992388855 ], [ -75.947587551191504, 9.349237055886594 ], [ -75.947022747139727, 9.352265091585808 ], [ -75.947233464272557, 9.353135410922203 ], [ -75.949152104991043, 9.353121662389684 ], [ -75.949997507947941, 9.354326561982504 ], [ -75.950293042285494, 9.357654086172447 ], [ -75.949247873152615, 9.359622833293255 ], [ -75.949761603173485, 9.36017330317649 ], [ -75.950134128059489, 9.359879137369472 ], [ -75.950987978199223, 9.3609891620863 ], [ -75.952592583714704, 9.360415765356201 ], [ -75.954214874496415, 9.363144757961532 ], [ -75.956943182654456, 9.363930681107256 ], [ -75.958036747928432, 9.360625287635598 ], [ -75.96118799060622, 9.360513290605972 ], [ -75.963251168661145, 9.359378139731916 ], [ -75.963197107540665, 9.358662615372268 ], [ -75.964083105477584, 9.358824036048086 ], [ -75.964044885938222, 9.357556626444863 ], [ -75.963357765501954, 9.3571014974749 ], [ -75.96719029267453, 9.358626710019276 ], [ -75.971423470663282, 9.358862065859091 ], [ -75.977528956684637, 9.358081221470343 ], [ -75.980003805735407, 9.359081921900096 ], [ -75.988526833399405, 9.357365235704171 ], [ -75.990844470828861, 9.356480156642194 ], [ -75.993765387878284, 9.356438832097982 ], [ -75.99699781926671, 9.354423874870754 ], [ -76.001511733438321, 9.353440558586282 ], [ -76.005653134245264, 9.351904851564464 ], [ -76.007661970189517, 9.359683603119151 ], [ -75.988726898742314, 9.369653802558483 ], [ -75.978079006691416, 9.376413758306523 ], [ -75.970082043947812, 9.383098818365932 ], [ -75.963328792825067, 9.38998938943741 ], [ -75.959705170885044, 9.395174385899459 ], [ -75.957403143888385, 9.400111271623574 ], [ -75.956497431881559, 9.405279596341778 ], [ -75.958263866931375, 9.411669479617675 ], [ -75.961015550336867, 9.415239207676283 ], [ -75.960133152930041, 9.415411555882137 ], [ -75.962806010952121, 9.41784832062274 ], [ -75.963417897045716, 9.417757011967645 ], [ -75.963950535444241, 9.416649505904655 ], [ -75.962447830978888, 9.415899925945924 ], [ -75.960962811875618, 9.414247170154928 ], [ -75.961607720416907, 9.413898371954955 ], [ -75.964246898266538, 9.415891519965712 ], [ -75.965050710390813, 9.417522571719571 ], [ -75.96635680671794, 9.417941364824619 ], [ -75.966652056877408, 9.417533648780129 ], [ -75.965594151409832, 9.41705341321912 ], [ -75.964110833054818, 9.41486252812768 ], [ -75.963709125897154, 9.413381371333958 ], [ -75.965698666570603, 9.41614562533473 ], [ -75.968297230587311, 9.417830685269381 ], [ -75.968171876880234, 9.415951612923804 ], [ -75.966183067682778, 9.412951931488212 ], [ -75.967704554930521, 9.41379756941174 ], [ -75.967674118920229, 9.41272119055137 ], [ -75.963581506328353, 9.410925694882833 ], [ -75.964158915049893, 9.410423007948507 ], [ -75.967171429939611, 9.411037911350965 ], [ -75.962986275909145, 9.40641687387269 ], [ -75.966001010343263, 9.406325481833946 ], [ -75.967657735858211, 9.407238807181093 ], [ -75.969377497684235, 9.409632220364987 ], [ -75.969973348085773, 9.413972871691593 ], [ -75.971385857188082, 9.417138895123133 ], [ -75.969345561239834, 9.419655034802226 ], [ -75.967546630686527, 9.420826561113429 ], [ -75.96749005531079, 9.422810754249225 ], [ -75.966633668947225, 9.423932271164064 ], [ -75.95447300115228, 9.434554430563326 ], [ -75.953873532031167, 9.438415866182849 ], [ -75.952390983350767, 9.441211134409732 ], [ -75.948944761170978, 9.443820855193481 ], [ -75.947556104713513, 9.4436424833941 ], [ -75.932719245635425, 9.446645138230927 ], [ -75.923299191870285, 9.447718489268079 ] ], [ [ -75.876818785931405, 9.40087055639853 ], [ -75.876800085794429, 9.400870061567963 ], [ -75.876799905674531, 9.400870602899785 ], [ -75.876818785931405, 9.40087055639853 ] ] ] } },
{ "type": "Feature", "properties": { "CODIGO": null, "NOMBRE": "DRMI Complejo Cenagoso Del Bajo Sinu", "NOMENCLAT": null, "REGLAME": null, "NUM_RES_VI": "Acuerdo 76 del 25 de octubre de 2007", "AREA_RES": 79092.055043999993, "SUEL_PROT": null, "TERRIT_PNN": null, "OBSERV": "CVS", "SHAPE_Leng": 148333.29521700001, "SHAPE_Area": 790920550.44000006, "ORDEN": 0.0 }, "geometry": { "type": "Polygon", "coordinates": [ [ [ -75.842389076262521, 9.104695854338566 ], [ -75.839505510556805, 9.10923180466451 ], [ -75.835808406147692, 9.110706918439899 ], [ -75.834265806605131, 9.112672073405884 ], [ -75.834499418034625, 9.114705794746 ], [ -75.836358818843095, 9.116326523101646 ], [ -75.837254420268707, 9.11830271035897 ], [ -75.837023151139235, 9.119763338630218 ], [ -75.835093882768888, 9.122445488626596 ], [ -75.832055890254253, 9.125400170245042 ], [ -75.832703780783888, 9.129408439186417 ], [ -75.838045685601529, 9.133074007923939 ], [ -75.837739699850303, 9.134567760275361 ], [ -75.838361731097208, 9.134311843302713 ], [ -75.838090229030612, 9.135470050676577 ], [ -75.838560795819006, 9.137001776880821 ], [ -75.840806440625897, 9.13852491333418 ], [ -75.845211560280234, 9.139730756918404 ], [ -75.845755571555401, 9.140495113460638 ], [ -75.845530826439187, 9.141876799114771 ], [ -75.842758454078165, 9.143117446594944 ], [ -75.842159854662071, 9.146955340364727 ], [ -75.839859533881977, 9.150034482874029 ], [ -75.839266264217628, 9.152289447363081 ], [ -75.840122690331199, 9.156475997706195 ], [ -75.842447545222129, 9.158382212710558 ], [ -75.843233320639172, 9.161216286637609 ], [ -75.842305415819482, 9.161963596343325 ], [ -75.842311339397241, 9.16316778051754 ], [ -75.838832173716938, 9.163859069991002 ], [ -75.837930901029722, 9.164595457469822 ], [ -75.836779007354821, 9.170092305491561 ], [ -75.834871824932662, 9.170838080264742 ], [ -75.833111983645651, 9.170163151098047 ], [ -75.831236803128974, 9.170463794772514 ], [ -75.829484463349701, 9.172270549183358 ], [ -75.827572162032723, 9.176893319153578 ], [ -75.82391032507887, 9.180027710064396 ], [ -75.819987708559935, 9.181897847640265 ], [ -75.81897327843933, 9.183104026683125 ], [ -75.818884960226086, 9.185775900095136 ], [ -75.820670580515952, 9.188704509655663 ], [ -75.820167186572604, 9.193056877546351 ], [ -75.821525809946223, 9.199274002247069 ], [ -75.821487156783633, 9.201202363282476 ], [ -75.820492496471402, 9.203498280500485 ], [ -75.820276532739129, 9.205605986960533 ], [ -75.823380664814295, 9.208456004688959 ], [ -75.823910300271308, 9.210510328216328 ], [ -75.822609541205139, 9.214198945327945 ], [ -75.82286264979841, 9.217725135241674 ], [ -75.819037811884527, 9.221024200133623 ], [ -75.818401502192941, 9.223733890140494 ], [ -75.819601253925001, 9.225022319044065 ], [ -75.821656697718979, 9.225055433245899 ], [ -75.83021527825403, 9.223206789607508 ], [ -75.833645195169424, 9.223739135214622 ], [ -75.838231738398889, 9.223707676991218 ], [ -75.842606444035169, 9.222954379717681 ], [ -75.842611216246553, 9.223917949229071 ], [ -75.843034819020957, 9.22387883077241 ], [ -75.844771805516686, 9.222645138012702 ], [ -75.851330324646071, 9.221999381733102 ], [ -75.85566125878222, 9.223588756176651 ], [ -75.858139158918462, 9.225110520453276 ], [ -75.854748693006826, 9.226354415605844 ], [ -75.85398056282358, 9.22712518696053 ], [ -75.853138292057054, 9.228509915917432 ], [ -75.853763128065864, 9.229964122499167 ], [ -75.860724229478848, 9.232614236006098 ], [ -75.86350638375788, 9.233214058563597 ], [ -75.867365440189175, 9.2330415282076 ], [ -75.868526086560692, 9.233572655475957 ], [ -75.868533420119562, 9.235029889149478 ], [ -75.867225701753782, 9.235956764898223 ], [ -75.866767533621996, 9.236956119411399 ], [ -75.866939673804723, 9.240483394483661 ], [ -75.867642563664461, 9.242090570828649 ], [ -75.866955497095475, 9.243627953836185 ], [ -75.86564774697213, 9.244554829299469 ], [ -75.858387567974148, 9.243900508528235 ], [ -75.856763697769182, 9.243371641557252 ], [ -75.852673671475074, 9.243698614851207 ], [ -75.851367786101022, 9.245008931875054 ], [ -75.847518489759395, 9.247175447056383 ], [ -75.845987459336257, 9.249790744467539 ], [ -75.842915043421883, 9.252950498066642 ], [ -75.842843560238421, 9.254101338933092 ], [ -75.835802215357006, 9.250914427489027 ], [ -75.813046384172409, 9.239059566896557 ], [ -75.812951305735368, 9.244889268598723 ], [ -75.806304963003797, 9.243235810354516 ], [ -75.801053721147952, 9.243182266515282 ], [ -75.787145621963575, 9.240794078237931 ], [ -75.782049217507165, 9.240588112235907 ], [ -75.774423880709094, 9.241084306325231 ], [ -75.767088217114861, 9.240811961266116 ], [ -75.753503103578851, 9.241412309044078 ], [ -75.725501047340273, 9.241464730934025 ], [ -75.717936805545619, 9.241882757829528 ], [ -75.695724493797272, 9.246968988717553 ], [ -75.672251997824972, 9.245380535560436 ], [ -75.667539343037078, 9.24433307272551 ], [ -75.627602245799864, 9.227324602553324 ], [ -75.607515541610553, 9.21168510703961 ], [ -75.601770510307503, 9.204191943235411 ], [ -75.591396076395043, 9.19967208968488 ], [ -75.574961213024253, 9.191345797947074 ], [ -75.565302272913002, 9.187040101323475 ], [ -75.616969924285698, 9.151073853772456 ], [ -75.619946575572271, 9.14997490876565 ], [ -75.608644697348012, 9.133036065823982 ], [ -75.608240073431219, 9.131358859865372 ], [ -75.618767004290774, 9.083219008348753 ], [ -75.624409752135278, 9.055049009570965 ], [ -75.625387270753436, 9.051292063182563 ], [ -75.627461393108319, 9.048419328366899 ], [ -75.627651249495244, 9.046344596301013 ], [ -75.621095124330338, 9.046569668524425 ], [ -75.617820397352659, 9.047472220335557 ], [ -75.614252194913675, 9.049462322127351 ], [ -75.61384186253747, 9.046402498317606 ], [ -75.610434471118637, 9.039404783630209 ], [ -75.60803727859026, 9.036353204753246 ], [ -75.605747761594159, 9.035276351276563 ], [ -75.603660257861449, 9.034988722627059 ], [ -75.601875339607787, 9.035786188880344 ], [ -75.597995890626152, 9.034617096844222 ], [ -75.597281928481692, 9.030175837229891 ], [ -75.598369774837892, 9.028986230530647 ], [ -75.600434963442765, 9.023940949286668 ], [ -75.605856350710312, 9.017946937913514 ], [ -75.603844762823385, 9.014645165766597 ], [ -75.598528520881743, 9.017315179317846 ], [ -75.594005242346128, 9.018525424067791 ], [ -75.592936472463393, 9.017735386678748 ], [ -75.590536422314614, 9.017083206404688 ], [ -75.590395554504184, 9.015230119850445 ], [ -75.590914564380952, 9.011917879934423 ], [ -75.593295346026338, 9.007935986990466 ], [ -75.594474725220735, 9.003296993720811 ], [ -75.596321067632829, 8.998920072622168 ], [ -75.597760146150293, 8.9926911609521 ], [ -75.595872091899111, 8.98700552009981 ], [ -75.595999224459391, 8.985548549934625 ], [ -75.603318687625816, 8.984326841971212 ], [ -75.605851692191067, 8.984978422118516 ], [ -75.600481382739062, 8.974540602084392 ], [ -75.60206342926223, 8.970694382095171 ], [ -75.605522429231058, 8.969885731101931 ], [ -75.611914355158447, 8.969859357543431 ], [ -75.612854267779511, 8.971709119772656 ], [ -75.616984062996934, 8.972089217482059 ], [ -75.618314048184772, 8.971686486686849 ], [ -75.628179444770481, 8.974293437455092 ], [ -75.630975919216596, 8.974281735349551 ], [ -75.63217160022819, 8.973614713967198 ], [ -75.63135970868187, 8.970572859878716 ], [ -75.631620986959803, 8.969380144046452 ], [ -75.630418592311869, 8.968458359444819 ], [ -75.62866844233686, 8.963963989303322 ], [ -75.641074499367519, 8.953452202013017 ], [ -75.641734649693149, 8.952125405213845 ], [ -75.643061704851334, 8.951060604453495 ], [ -75.645724260783723, 8.950916982469368 ], [ -75.649190839220623, 8.951961558060711 ], [ -75.650645356152282, 8.949572181208531 ], [ -75.65237126874878, 8.948373263758855 ], [ -75.653969121793168, 8.948366494828052 ], [ -75.65503776563996, 8.949156369294894 ], [ -75.656513839875586, 8.95179812703609 ], [ -75.664516306353747, 8.954809265659696 ], [ -75.669312214389919, 8.955318356971018 ], [ -75.672386295893787, 8.95795317722428 ], [ -75.674114454683419, 8.957283754587063 ], [ -75.67477390310782, 8.95582452157247 ], [ -75.678361031397984, 8.953955489509942 ], [ -75.681522662101983, 8.946130286165364 ], [ -75.684052545554664, 8.946119368545709 ], [ -75.688050570822057, 8.94689647450708 ], [ -75.690185061004883, 8.947814019008023 ], [ -75.695377977449937, 8.94779146522399 ], [ -75.696871512365405, 8.945269391682501 ], [ -75.699530433296502, 8.944331017826563 ], [ -75.718937974262673, 8.945967060907208 ], [ -75.720936396134547, 8.946223029422056 ], [ -75.72854075355383, 8.949499267399338 ], [ -75.739208882010431, 8.953026429320131 ], [ -75.744781976298938, 8.948764811812236 ], [ -75.745848366268589, 8.949024819432751 ], [ -75.746653870540442, 8.950477553348897 ], [ -75.745594686642804, 8.951806263220597 ], [ -75.746265244640838, 8.952862417099412 ], [ -75.753067355080844, 8.955347316215418 ], [ -75.757029165707834, 8.955659162815421 ], [ -75.761286143129865, 8.956867152196612 ], [ -75.760059998534004, 8.958645415811841 ], [ -75.759934731119955, 8.961236864167567 ], [ -75.760783855947892, 8.966960221729401 ], [ -75.764367171229097, 8.970762078680805 ], [ -75.76573862672673, 8.970755838753178 ], [ -75.765883936404862, 8.972527878763238 ], [ -75.769033263089739, 8.971422635736454 ], [ -75.77671340140094, 8.971387528705524 ], [ -75.795928949724953, 8.974571621804085 ], [ -75.800588023235946, 8.973731841130329 ], [ -75.810342646585013, 8.977368060947713 ], [ -75.811728296615215, 8.980361466090953 ], [ -75.813934268516334, 8.982805582685838 ], [ -75.81654847351021, 8.984565973869538 ], [ -75.831645051059439, 8.986676482296053 ], [ -75.832605077972346, 8.986671933088523 ], [ -75.83369505309274, 8.985166837733734 ], [ -75.836576430113453, 8.985425873402715 ], [ -75.841248587557004, 8.987312636469474 ], [ -75.842344442181499, 8.987034702029964 ], [ -75.844253609492341, 8.990630510581466 ], [ -75.843568929898723, 8.99262798862574 ], [ -75.84226485392702, 8.99416821899562 ], [ -75.840418521588177, 8.995250829413223 ], [ -75.839885151368051, 8.996633979737959 ], [ -75.841141339866851, 9.001153316019245 ], [ -75.841002225872401, 9.004298697327375 ], [ -75.843023288124115, 9.007433759850203 ], [ -75.844381988032666, 9.017168193774685 ], [ -75.845552270244028, 9.01984709441872 ], [ -75.846190696889991, 9.024215942423863 ], [ -75.847357669702049, 9.02620454440205 ], [ -75.847164975320567, 9.034182276170935 ], [ -75.845097449413913, 9.037413609516618 ], [ -75.844800006410878, 9.039716041044302 ], [ -75.844884988857231, 9.04132633605983 ], [ -75.845661771431764, 9.042396406764352 ], [ -75.843594942222268, 9.04578113802722 ], [ -75.84430352375874, 9.048692340374247 ], [ -75.846785641280988, 9.051364907105901 ], [ -75.847029446528495, 9.053894832561262 ], [ -75.844182408686194, 9.055519231612434 ], [ -75.843187544748602, 9.05721141491702 ], [ -75.842819279251231, 9.060818091183068 ], [ -75.83806771491281, 9.067513824382557 ], [ -75.832898225816365, 9.067615286433627 ], [ -75.831593146721914, 9.069002136020456 ], [ -75.830075483670697, 9.074301727285565 ], [ -75.830239829543714, 9.076371856560769 ], [ -75.832577797990979, 9.081116101286161 ], [ -75.837134635492916, 9.08193795427197 ], [ -75.839211374351663, 9.080547373140647 ], [ -75.842219675174036, 9.080302799882427 ], [ -75.843612002468547, 9.080986394068175 ], [ -75.844701667559661, 9.082898639948649 ], [ -75.84463461217176, 9.084969862402783 ], [ -75.842715577504492, 9.087050015601779 ], [ -75.840497574335714, 9.091125804799519 ], [ -75.839279345113297, 9.094506475192484 ], [ -75.839364363207693, 9.096116768238931 ], [ -75.84278373366736, 9.10100908533717 ], [ -75.842389076262521, 9.104695854338566 ] ] ] } }
]
}
