{
"type": "FeatureCollection",
"name": "infra_vias",
"crs": { "type": "name", "properties": { "name": "urn:ogc:def:crs:OGC:1.3:CRS84" } },
"features": [
{ "type": "Feature", "properties": { "objectid": 147.0, "categoria": "2", "codigotram": "74CR02", "posterefer": 0, "distanciai": 0.0, "posteref_1": 55, "distanciaf": 0.0, "nombreruta": "Transversal del Caribe", "sector": "Santa Lucía - Moñitos", "administra": "1", "grupoadmin": "1", "superficie": "3", "calzada": "1", "ruta": "74", "fuente": "IGAC (Contrato 2932/2008)", "globalid": "{43B816D2-2081-4F49-9BA9-B663A0EA7007}", "nombretram": "Por Defnir", "created_us": "SIG_INVIAS", "created_da": "2026/08/09 05:01:08.000", "last_edite": "SIG_INVIAS", "last_edi_1": "2026/08/09 05:01:08.000", "territoria": "11", "revisiones": "No Revisado", "SHAPE_Leng": 54927.298609120582 }, "geometry": { "type": "LineString", "coordinates": [ [ -76.039911647556139, 8.829507067490615 ], [ -76.032663716944171, 8.861375935636199 ], [ -76.030982628199794, 8.895623482996657 ], [ -76.035001098601654, 8.902986319761244 ], [ -76.035930701174777, 8.905862654417829 ], [ -76.037078381382017, 8.907203546645546 ], [ -76.037204601762411, 8.913494709569505 ], [ -76.036307538122685, 8.916012929945399 ], [ -76.036673096077607, 8.918494477143863 ], [ -76.036424633346101, 8.920607113581896 ], [ -76.037029895942382, 8.921272331565808 ], [ -76.038185273220634, 8.920831876948251 ], [ -76.038978266186348, 8.922359833560064 ], [ -76.042219998845823, 8.921784651985101 ], [ -76.042908975913889, 8.924023373948746 ], [ -76.04498744912614, 8.924441283926219 ], [ -76.046765566283753, 8.926955675916886 ], [ -76.047957280897947, 8.929384468271712 ], [ -76.047141367058884, 8.932424215467467 ], [ -76.04882175172969, 8.936173166568986 ], [ -76.048310758231978, 8.938417853455126 ] ] } },
{ "type": "Feature", "properties": { "objectid": 149.0, "categoria": "2", "codigotram": "9003", "posterefer": 0, "distanciai": 0.0, "posteref_1": 28, "distanciaf": 0.0, "nombreruta": "Transversal del Caribe", "sector": "Moñitos - San Bernardo del Viento", "administra": "1", "grupoadmin": "1", "superficie": "3", "calzada": "1", "ruta": "90", "fuente": "IGAC (Contrato 2932/2008)", "globalid": "{0090A879-7DFE-44D5-A7B2-4476780DBC64}", "nombretram": "Por Defnir", "created_us": "SIG_INVIAS", "created_da": "2026/08/09 05:01:08.000", "last_edite": "SIG_INVIAS", "last_edi_1": "2026/08/09 05:01:08.000", "territoria": "11", "revisiones": "No Revisado", "SHAPE_Leng": 27468.197466742218 }, "geometry": { "type": "LineString", "coordinates": [ [ -76.038846693331678, 9.340969328103174 ], [ -76.027731584208723, 9.343430581841977 ], [ -76.017157391634314, 9.348239906126775 ], [ -76.015016795649274, 9.348098144569457 ], [ -76.012962766267847, 9.348676464950236 ], [ -76.004299861787118, 9.352531358862516 ], [ -75.996915956599949, 9.354455290479448 ], [ -75.994021061612244, 9.356390223554877 ], [ -75.990630491121863, 9.356515264069074 ], [ -75.979973608370699, 9.359170650826819 ], [ -75.977810490202501, 9.358346350183528 ], [ -75.971545734947355, 9.358888287552977 ], [ -75.967196171357671, 9.358600123001649 ], [ -75.95788056197361, 9.355730046900559 ] ] } },
{ "type": "Feature", "properties": { "objectid": 150.0, "categoria": "1", "codigotram": "9004", "posterefer": 5, "distanciai": 850.0, "posteref_1": 23, "distanciaf": 300.0, "nombreruta": "Transversal del Caribe", "sector": "Lorica - Coveñas", "administra": "2", "grupoadmin": null, "superficie": "3", "calzada": "1", "ruta": "90", "fuente": "IGAC (Contrato 2932/2008)", "globalid": "{BD738802-D1C4-45A7-B7E8-FA360BECDFA5}", "nombretram": "Por Defnir", "created_us": "SIG_INVIAS", "created_da": "2026/08/09 05:01:08.000", "last_edite": "SIG_INVIAS", "last_edi_1": "2026/08/09 05:01:08.000", "territoria": "11", "revisiones": "No Revisado", "SHAPE_Leng": 16999.6033690164 }, "geometry": { "type": "LineString", "coordinates": [ [ -75.814476604614896, 9.281536565408624 ], [ -75.811053093075856, 9.28495991296974 ], [ -75.80777728007719, 9.289543754083338 ], [ -75.805357916837252, 9.294922093846427 ], [ -75.804724165104076, 9.300186965293554 ], [ -75.805709048155776, 9.305342105966448 ], [ -75.804274015207753, 9.310469462854051 ], [ -75.800608252908432, 9.314992985850896 ], [ -75.794793197412858, 9.325982653964141 ], [ -75.790202803070343, 9.344360322140725 ], [ -75.789405641292277, 9.346127374270798 ], [ -75.77008537994179, 9.366180834811727 ], [ -75.762786978648833, 9.36691338926836 ], [ -75.759681733322083, 9.368759799274786 ], [ -75.756766525403592, 9.368763685686284 ], [ -75.755092613242837, 9.370039905855428 ] ] } },
{ "type": "Feature", "properties": { "objectid": 154.0, "categoria": "1", "codigotram": "2310", "posterefer": 0, "distanciai": 0.0, "posteref_1": 49, "distanciaf": 0.0, "nombreruta": "Acceso a Monteria", "sector": "Planeta Rica - Montería", "administra": "2", "grupoadmin": null, "superficie": "3", "calzada": "1", "ruta": "23", "fuente": "IGAC (Contrato 2932/2008)", "globalid": "{CA3D56A3-0FE6-4A6B-865C-97F4B10866A6}", "nombretram": "Por Defnir", "created_us": "SIG_INVIAS", "created_da": "2026/08/09 05:01:08.000", "last_edite": "SIG_INVIAS", "last_edi_1": "2026/08/09 05:01:08.000", "territoria": "11", "revisiones": "No Revisado", "SHAPE_Leng": 49584.124518916906 }, "geometry": { "type": "MultiLineString", "coordinates": [ [ [ -75.667904305766285, 8.519387941478584 ], [ -75.668311321497043, 8.520546053748165 ] ], [ [ -75.675440050126653, 8.531284379028774 ], [ -75.677933039459603, 8.531865334820216 ], [ -75.6817298522774, 8.5314714005483 ], [ -75.684573341135263, 8.53329465306061 ], [ -75.687373842734729, 8.533845324558813 ], [ -75.686314257133702, 8.540435229134511 ], [ -75.687735092465417, 8.543666952417846 ], [ -75.690915146955021, 8.546982050040022 ], [ -75.700075913350759, 8.558353109759587 ], [ -75.702240026614305, 8.563783928230322 ], [ -75.705413483794501, 8.565287512401289 ], [ -75.706936353937309, 8.567758722340079 ], [ -75.738822534850826, 8.601284134482846 ], [ -75.853087588684929, 8.736425147999224 ], [ -75.85742022200067, 8.739403524302924 ], [ -75.861172182339061, 8.740588867738282 ] ] ] } },
{ "type": "Feature", "properties": { "objectid": 158.0, "categoria": "1", "codigotram": "2514", "posterefer": 0, "distanciai": 0.0, "posteref_1": 52, "distanciaf": 0.0, "nombreruta": "Troncal de Occidente", "sector": "Planeta Rica - La Ye", "administra": "1", "grupoadmin": "2", "superficie": "3", "calzada": "1", "ruta": "25", "fuente": "IGAC (Contrato 2932/2008)", "globalid": "{4E1AECE0-C85A-4556-B67E-A7EE6FDF14AA}", "nombretram": "Por Defnir", "created_us": "SIG_INVIAS", "created_da": "2026/08/09 05:01:08.000", "last_edite": "SIG_INVIAS", "last_edi_1": "2026/08/09 05:01:08.000", "territoria": "11", "revisiones": "No Revisado", "SHAPE_Leng": 51824.820348506626 }, "geometry": { "type": "MultiLineString", "coordinates": [ [ [ -75.498106711216295, 8.703929927833737 ], [ -75.496039689656797, 8.707833670340319 ], [ -75.495807283466505, 8.709699083388662 ] ], [ [ -75.496039904784908, 8.721704508561949 ], [ -75.497014872075084, 8.724465121656802 ] ], [ [ -75.496433898327155, 8.726759315908396 ], [ -75.495376576492689, 8.730450419192932 ] ], [ [ -75.493831346210413, 8.763433315219281 ], [ -75.495643207696986, 8.766006741253905 ] ], [ [ -75.498604588147444, 8.772425113870863 ], [ -75.499559320060456, 8.776416357086477 ] ] ] } },
{ "type": "Feature", "properties": { "objectid": 223.0, "categoria": "2", "codigotram": "7801", "posterefer": 0, "distanciai": 0.0, "posteref_1": 52, "distanciaf": 0.0, "nombreruta": "Conexión Transversal del Caribe - Troncal de Occidente", "sector": "Lorica - Chinú", "administra": "1", "grupoadmin": "1", "superficie": "3", "calzada": "2", "ruta": "78", "fuente": "IGAC (Contrato 2932/2008)", "globalid": "{EC66E9F0-1956-458B-89B5-47A959508669}", "nombretram": "Por Defnir", "created_us": "SIG_INVIAS", "created_da": "2026/08/09 05:01:08.000", "last_edite": "SIG_INVIAS", "last_edi_1": "2026/08/09 05:01:08.000", "territoria": "11", "revisiones": "No Revisado", "SHAPE_Leng": 51237.805979455981 }, "geometry": { "type": "MultiLineString", "coordinates": [ [ [ -75.81293685775772, 9.243060564363891 ], [ -75.812466678426006, 9.243656940490999 ] ], [ [ -75.812466678426006, 9.243656940490999 ], [ -75.812872428464772, 9.243622731064566 ] ], [ [ -75.812466678426006, 9.243656940490999 ], [ -75.810941352599656, 9.244032773710279 ], [ -75.783863171178325, 9.240238764014411 ], [ -75.720857649700093, 9.241329933066458 ], [ -75.696748931193127, 9.246991945494626 ], [ -75.669246489826946, 9.244960269006581 ], [ -75.627418027253157, 9.227122622522852 ], [ -75.60781746142365, 9.21199119020056 ], [ -75.602857231129164, 9.205369343669794 ], [ -75.601027383196325, 9.20398331623479 ], [ -75.567116881144756, 9.187915638063805 ], [ -75.556447779979621, 9.185680078677418 ], [ -75.552391011766701, 9.186529584030641 ], [ -75.551308673420365, 9.186280393140473 ], [ -75.543117328683053, 9.180790875946698 ], [ -75.541461034943438, 9.179203962045314 ], [ -75.540850495341019, 9.177993625387657 ], [ -75.540564392410204, 9.174704560710961 ], [ -75.539303440650443, 9.172942856564905 ], [ -75.538593847029546, 9.170141660975204 ], [ -75.527894546160852, 9.159269064074387 ], [ -75.520696440751578, 9.155362836057874 ], [ -75.518114705845065, 9.152419284822841 ], [ -75.512804920192181, 9.149972574058458 ], [ -75.508589152786158, 9.149217164390334 ], [ -75.507453755455487, 9.148558585796815 ], [ -75.504473586588617, 9.13937695655919 ], [ -75.493826033789077, 9.13736783587655 ], [ -75.492224299767798, 9.134418801853764 ], [ -75.485735159344074, 9.130624851728985 ], [ -75.482445877142354, 9.129223130207135 ], [ -75.47553038569346, 9.129577024283837 ], [ -75.473115155428999, 9.12910815849559 ], [ -75.470118910699426, 9.127044444254041 ], [ -75.468104400881757, 9.124916823401492 ], [ -75.466250002989739, 9.119926603528929 ], [ -75.463327215472731, 9.118200007839651 ], [ -75.456748297016702, 9.117498538900366 ], [ -75.453418391678824, 9.118502402195181 ], [ -75.449702940588409, 9.11800815009537 ], [ -75.438606357930539, 9.117812832423619 ] ] ] } },
{ "type": "Feature", "properties": { "objectid": 385.0, "categoria": "2", "codigotram": "90SC02", "posterefer": 0, "distanciai": 0.0, "posteref_1": 16, "distanciaf": 0.0, "nombreruta": "Alternas a la Transversal del Caribe", "sector": "Coveñas - Sabaneta", "administra": "1", "grupoadmin": "1", "superficie": "3", "calzada": "1", "ruta": "90", "fuente": "IGAC (Contrato 2932/2008)", "globalid": "{312AD50A-62E9-4D63-9901-EFB6F8CA3F9B}", "nombretram": "Por Defnir", "created_us": "SIG_INVIAS", "created_da": "2026/08/09 05:01:08.000", "last_edite": "SIG_INVIAS", "last_edi_1": "2026/08/09 05:01:08.000", "territoria": "23", "revisiones": "No Revisado", "SHAPE_Leng": 15721.560057154515 }, "geometry": { "type": "MultiLineString", "coordinates": [ [ [ -75.67196344208385, 9.334644555415217 ], [ -75.670942453358492, 9.334216697003658 ], [ -75.666866682994268, 9.334086943097512 ] ], [ [ -75.641025339975727, 9.324268943237788 ], [ -75.639871402398839, 9.323648120688045 ], [ -75.639049582424576, 9.321377402176081 ], [ -75.638810886101012, 9.318442448530456 ], [ -75.637357840224666, 9.316075172220145 ] ], [ [ -75.634179657471037, 9.309633997722948 ], [ -75.633299391016791, 9.308536554826663 ], [ -75.630788945976789, 9.307603078437618 ], [ -75.629459375293209, 9.305810076938153 ], [ -75.629382806393465, 9.303639109627523 ], [ -75.630420501369613, 9.300602532334182 ], [ -75.630147759969859, 9.297031226889729 ] ] ] } },
{ "type": "Feature", "properties": { "objectid": 394.0, "categoria": "1", "codigotram": "2103", "posterefer": 10, "distanciai": 764.0, "posteref_1": 48, "distanciaf": 222.0, "nombreruta": "Alternas a la Transversal del Caribe", "sector": "Cereté - Lorica", "administra": "2", "grupoadmin": null, "superficie": "3", "calzada": "1", "ruta": "21", "fuente": "IGAC (Contrato 2932/2008)", "globalid": "{69AF1854-2288-4AF5-9F52-BAC2CBB04B3E}", "nombretram": "Por Defnir", "created_us": "SIG_INVIAS", "created_da": "2026/08/09 05:01:08.000", "last_edite": "SIG_INVIAS", "last_edi_1": "2026/08/09 05:01:08.000", "territoria": "11", "revisiones": "No Revisado", "SHAPE_Leng": 36749.810857736549 }, "geometry": { "type": "MultiLineString", "coordinates": [ [ [ -75.805844731570218, 8.907051226733959 ], [ -75.835202535410858, 8.956505014590924 ], [ -75.835990191020016, 8.959123664182684 ], [ -75.823654972855877, 9.07001591711137 ], [ -75.819254062980733, 9.095503639790493 ], [ -75.827110270270879, 9.122810666290803 ], [ -75.837145669495499, 9.149434687276132 ], [ -75.837438891428121, 9.151595376773653 ], [ -75.836390239812118, 9.154318802016411 ], [ -75.815897401676125, 9.180132550409715 ], [ -75.815593705489718, 9.181991459198334 ], [ -75.816373567162884, 9.20296013999034 ], [ -75.813231947010408, 9.218569386860334 ] ], [ [ -75.80607816709184, 8.907796843260382 ], [ -75.805696264866654, 8.907125256821663 ] ] ] } },
{ "type": "Feature", "properties": { "objectid": 400.0, "categoria": "1", "codigotram": "9004", "posterefer": 0, "distanciai": 0.0, "posteref_1": 5, "distanciaf": 850.0, "nombreruta": "Transversal del Caribe", "sector": "Paso Nacional por Loríca", "administra": "1", "grupoadmin": "1", "superficie": "3", "calzada": "1", "ruta": "90", "fuente": "IGAC (Contrato 2932/2008)", "globalid": "{39A6996B-C01B-47D3-9643-9F1AE265CE42}", "nombretram": "Por Defnir", "created_us": "SIG_INVIAS", "created_da": "2026/08/09 05:01:08.000", "last_edite": "SIG_INVIAS", "last_edi_1": "2026/08/09 05:01:08.000", "territoria": "11", "revisiones": "No Revisado", "SHAPE_Leng": 5762.0217213805154 }, "geometry": { "type": "LineString", "coordinates": [ [ -75.813622097841346, 9.237539832103783 ], [ -75.812440212398059, 9.250123504519703 ], [ -75.816204218053784, 9.259626259364854 ], [ -75.822760922123052, 9.265496516667223 ], [ -75.823490214807677, 9.272079561155579 ], [ -75.82285056371316, 9.275133436488833 ], [ -75.817677146232455, 9.278417780347871 ], [ -75.814476604614896, 9.281536565408624 ] ] } },
{ "type": "Feature", "properties": { "objectid": 404.0, "categoria": "1", "codigotram": "2103", "posterefer": 48, "distanciai": 222.0, "posteref_1": 49, "distanciaf": 1360.0, "nombreruta": "Alternas a la Transversal del Caribe", "sector": "Paso Nacional por Loríca", "administra": "1", "grupoadmin": "1", "superficie": "3", "calzada": "2", "ruta": "21", "fuente": "IGAC (Contrato 2130/2014)", "globalid": "{BBC30513-B3C1-4E0C-A087-00174518A810}", "nombretram": "Por Defnir", "created_us": "SIG_INVIAS", "created_da": "2026/08/09 05:01:08.000", "last_edite": "SIG_INVIAS", "last_edi_1": "2026/08/09 05:01:08.000", "territoria": "11", "revisiones": "No Revisado", "SHAPE_Leng": 2178.2866665711026 }, "geometry": { "type": "MultiLineString", "coordinates": [ [ [ -75.813231947010408, 9.218569386860334 ], [ -75.814599749842998, 9.227226197564045 ] ], [ [ -75.814599749842998, 9.227226197564045 ], [ -75.814602299291437, 9.227445919123753 ] ], [ [ -75.814602299291437, 9.227445919123753 ], [ -75.81463692915537, 9.22739073282928 ], [ -75.814599749842998, 9.227226197564045 ] ], [ [ -75.814602299291437, 9.227445919123753 ], [ -75.814619874495094, 9.227629451629218 ] ], [ [ -75.814619874495094, 9.227629451629218 ], [ -75.814637502472166, 9.227849205101251 ] ], [ [ -75.814637502472166, 9.227849205101251 ], [ -75.814651588455391, 9.227665589998802 ], [ -75.814619874495094, 9.227629451629218 ] ], [ [ -75.814637502472166, 9.227849205101251 ], [ -75.813622097841346, 9.237539832103783 ] ] ] } },
{ "type": "Feature", "properties": { "objectid": 412.0, "categoria": "1", "codigotram": "21CRA", "posterefer": 0, "distanciai": 0.0, "posteref_1": 6, "distanciaf": 780.0, "nombreruta": "Acceso a Monteria", "sector": "Variante Oriental de Montería (1)", "administra": "6", "grupoadmin": null, "superficie": "1", "calzada": "2", "ruta": "21", "fuente": "WFS ANI", "globalid": "{8966BDBB-4316-4BE0-A812-349F9255D6F4}", "nombretram": "Por Defnir", "created_us": "SIG_INVIAS", "created_da": "2026/08/09 05:01:08.000", "last_edite": "SIG_INVIAS", "last_edi_1": "2026/08/09 05:01:08.000", "territoria": "11", "revisiones": "No Revisado", "SHAPE_Leng": 13476.633124293541 }, "geometry": { "type": "MultiLineString", "coordinates": [ [ [ -75.867059897755695, 8.7464811715669 ], [ -75.864927404722707, 8.748496411474514 ], [ -75.862467805160065, 8.750108210405104 ], [ -75.856301405673094, 8.755778610680434 ], [ -75.84939940397193, 8.774635130654525 ], [ -75.846263793297879, 8.777994439438197 ], [ -75.850470985816344, 8.799366778566959 ] ], [ [ -75.85010546897162, 8.79956107082899 ], [ -75.847035959487343, 8.783647020005477 ], [ -75.846273119842593, 8.781605008370359 ], [ -75.846125880020907, 8.777901960368164 ], [ -75.849360120573579, 8.774189999938251 ], [ -75.850450919502805, 8.770372020350575 ], [ -75.856195079457066, 8.755749989823132 ], [ -75.862274039922312, 8.750123009525334 ], [ -75.86494595953566, 8.748342000881909 ], [ -75.866823540918261, 8.746303828097421 ] ] ] } },
{ "type": "Feature", "properties": { "objectid": 426.0, "categoria": "1", "codigotram": "2103", "posterefer": 6, "distanciai": 942.0, "posteref_1": 10, "distanciaf": 764.0, "nombreruta": "Alternas a la Transversal del Caribe", "sector": "Paso Nacional por Cereté", "administra": "1", "grupoadmin": "1", "superficie": "3", "calzada": "2", "ruta": "21", "fuente": "IGAC (Contrato 2130/2014)", "globalid": "{237D77D2-77C0-4513-BB5E-EF5162398F3D}", "nombretram": "Por Defnir", "created_us": "SIG_INVIAS", "created_da": "2026/08/09 05:01:08.000", "last_edite": "SIG_INVIAS", "last_edi_1": "2026/08/09 05:01:08.000", "territoria": "11", "revisiones": "No Revisado", "SHAPE_Leng": 4276.8014665488545 }, "geometry": { "type": "MultiLineString", "coordinates": [ [ [ -75.791717578697103, 8.8789058473272 ], [ -75.79103388458492, 8.880626281467054 ] ], [ [ -75.79103388458492, 8.880626281467054 ], [ -75.790655915446862, 8.881954261030312 ] ], [ [ -75.790882101901104, 8.881926171997979 ], [ -75.79103388458492, 8.880626281467054 ] ], [ [ -75.790882101901104, 8.881926171997979 ], [ -75.790767502351457, 8.881876878905572 ], [ -75.790655915446862, 8.881954261030312 ] ], [ [ -75.790882101901104, 8.881926171997979 ], [ -75.790942423334769, 8.882029079077213 ] ], [ [ -75.790942423334769, 8.882029079077213 ], [ -75.790655915446862, 8.881954261030312 ] ], [ [ -75.790942423334769, 8.882029079077213 ], [ -75.792216391497803, 8.882378844751152 ], [ -75.794046398991711, 8.884474676536191 ], [ -75.795741290903564, 8.885114540449155 ], [ -75.801603797581748, 8.899744900951477 ], [ -75.805019565886894, 8.905658632790725 ] ], [ [ -75.805019565886894, 8.905658632790725 ], [ -75.805375669787381, 8.905925894447144 ] ], [ [ -75.805019565886894, 8.905658632790725 ], [ -75.80497775979471, 8.906058647283778 ] ], [ [ -75.805589104565215, 8.906272660630792 ], [ -75.805589321562053, 8.90627072478417 ] ], [ [ -75.805589104565215, 8.906272660630792 ], [ -75.805589101233267, 8.906272700424724 ] ], [ [ -75.805589101233267, 8.906272700424724 ], [ -75.805209199706766, 8.90656235297639 ], [ -75.804926523542264, 8.906222196164579 ], [ -75.805284151032751, 8.905905739684867 ], [ -75.805589104565215, 8.906272660630792 ] ], [ [ -75.805589101233267, 8.906272700424724 ], [ -75.805844731570218, 8.907051226733959 ] ], [ [ -75.805696264866654, 8.907125256821663 ], [ -75.805192422710917, 8.906559399270197 ] ] ] } },
{ "type": "Feature", "properties": { "objectid": 438.0, "categoria": "1", "codigotram": "2103", "posterefer": 0, "distanciai": 0.0, "posteref_1": 6, "distanciaf": 942.0, "nombreruta": "Alternas a la Transversal del Caribe", "sector": "Montería - Cereté", "administra": "1", "grupoadmin": null, "superficie": "3", "calzada": "2", "ruta": "21", "fuente": "IGAC (Contrato 2932/2008)", "globalid": "{64FFC554-0B15-4536-9E08-413D644BE5AC}", "nombretram": "Por Defnir", "created_us": "SIG_INVIAS", "created_da": "2026/08/09 05:01:08.000", "last_edite": "SIG_INVIAS", "last_edi_1": "2026/08/09 05:01:08.000", "territoria": "11", "revisiones": "No Revisado", "SHAPE_Leng": 15750.759786328694 }, "geometry": { "type": "MultiLineString", "coordinates": [ [ [ -75.832315920096917, 8.834276970753713 ], [ -75.821093999805186, 8.850175020579371 ], [ -75.817950839671269, 8.85296304042434 ] ], [ [ -75.83240844760509, 8.834339673462591 ], [ -75.821609421407729, 8.85036133851021 ], [ -75.818515633422379, 8.853094655358129 ] ], [ [ -75.817950839671269, 8.85296304042434 ], [ -75.816060839288369, 8.85446397076001 ], [ -75.812325839660446, 8.854434000243028 ], [ -75.810993839872367, 8.855063999273076 ], [ -75.808113839850961, 8.858472029522733 ], [ -75.806660879554698, 8.865307980730986 ], [ -75.803214329626485, 8.868117735434119 ] ], [ [ -75.818515633422379, 8.853094655358129 ], [ -75.818004119598811, 8.853346980474488 ], [ -75.817950839671269, 8.85296304042434 ] ], [ [ -75.818515633422379, 8.853094655358129 ], [ -75.816990207188766, 8.854713031294205 ], [ -75.808386384951433, 8.868588199769921 ], [ -75.802726422151366, 8.87226430050395 ] ], [ [ -75.803214329626485, 8.868117735434119 ], [ -75.801566879907739, 8.869149990691218 ] ], [ [ -75.803214329626485, 8.868117735434119 ], [ -75.802641092328471, 8.869197700850473 ], [ -75.802403412497512, 8.871898326307802 ], [ -75.802726422151366, 8.87226430050395 ] ], [ [ -75.801566879907739, 8.869149990691218 ], [ -75.800166119650839, 8.86983002958665 ], [ -75.793959991363266, 8.870801889590895 ] ], [ [ -75.801566879907739, 8.869149990691218 ], [ -75.802450948358512, 8.869514732756359 ], [ -75.802248921176286, 8.871757425198807 ], [ -75.801638035630262, 8.87290351621208 ] ], [ [ -75.793960005930742, 8.870801893097241 ], [ -75.790146056347297, 8.87138557471239 ] ], [ [ -75.802726422151366, 8.87226430050395 ], [ -75.801638035630262, 8.87290351621208 ] ], [ [ -75.801638035630262, 8.87290351621208 ], [ -75.791717578697103, 8.8789058473272 ], [ -75.793685803863553, 8.877187648005568 ], [ -75.792737463481529, 8.872316020733473 ], [ -75.793097548251055, 8.871340279194385 ], [ -75.794031627640663, 8.870790763044299 ] ] ] } },
{ "type": "Feature", "properties": { "objectid": 442.0, "categoria": "2", "codigotram": "9003", "posterefer": 28, "distanciai": 0.0, "posteref_1": 49, "distanciaf": 0.0, "nombreruta": "Transversal del Caribe", "sector": "San Bernardo del Viento - Lorica", "administra": "1", "grupoadmin": "1", "superficie": "3", "calzada": "1", "ruta": "90", "fuente": "IGAC (Contrato 2932/2008)", "globalid": "{757A0295-5946-4DA2-9ED6-92876BC2618E}", "nombretram": "Por Defnir", "created_us": "SIG_INVIAS", "created_da": "2026/08/09 05:01:08.000", "last_edite": "SIG_INVIAS", "last_edi_1": "2026/08/09 05:01:08.000", "territoria": "11", "revisiones": "No Revisado", "SHAPE_Leng": 20780.538855628947 }, "geometry": { "type": "LineString", "coordinates": [ [ -75.954408130115169, 9.349488568186517 ], [ -75.951922210089663, 9.338625592389709 ], [ -75.946400023117732, 9.329357922777318 ], [ -75.943269079515119, 9.32582141979729 ], [ -75.938867292517799, 9.317486311161797 ], [ -75.929242468264107, 9.308198520616509 ], [ -75.918363220373109, 9.301709752954489 ], [ -75.906011636591046, 9.289525071339288 ], [ -75.874193929893693, 9.275075120938174 ], [ -75.872718709766858, 9.27352899908754 ], [ -75.867083742020682, 9.263637891413591 ], [ -75.86532033561376, 9.261986251564004 ], [ -75.861055070648149, 9.260631883190689 ], [ -75.855928267793544, 9.260158244364687 ], [ -75.853514415819248, 9.259473318449496 ], [ -75.816763975927984, 9.240495579660815 ], [ -75.814403700005087, 9.239092239972456 ], [ -75.813622097841346, 9.237539832103783 ] ] } },
{ "type": "Feature", "properties": { "objectid": 484.0, "categoria": "1", "codigotram": "2514", "posterefer": 52, "distanciai": 0.0, "posteref_1": 114, "distanciaf": 595.0, "nombreruta": "Troncal de Occidente", "sector": "La Ye - Sincelejo", "administra": "1", "grupoadmin": null, "superficie": "3", "calzada": "1", "ruta": "25", "fuente": "IGAC (Contrato 2932/2008)", "globalid": "{72372943-72D7-4284-8051-ABFC9EFCAEF7}", "nombretram": "Por Defnir", "created_us": "SIG_INVIAS", "created_da": "2026/08/09 05:01:08.000", "last_edite": "SIG_INVIAS", "last_edi_1": "2026/08/09 05:01:08.000", "territoria": "11", "revisiones": "No Revisado", "SHAPE_Leng": 88545.658796810065 }, "geometry": { "type": "MultiLineString", "coordinates": [ [ [ -75.508401513322454, 8.816039849958713 ], [ -75.507999764793354, 8.816416740999102 ] ], [ [ -75.506425097699235, 8.817626872588955 ], [ -75.505005511549115, 8.818697701913827 ] ], [ [ -75.489417497774355, 8.826986513466979 ], [ -75.489342840352904, 8.827065000752684 ] ], [ [ -75.507748548468328, 8.816715304876741 ], [ -75.502772334209766, 8.822198121493125 ] ], [ [ -75.490264409656135, 8.826659330164111 ], [ -75.489665091139315, 8.827346625027639 ] ], [ [ -75.489342840352904, 8.827065000752684 ], [ -75.489665091139315, 8.827346625027639 ] ], [ [ -75.489342840352904, 8.827065000752684 ], [ -75.489342119578993, 8.827065000111197 ], [ -75.489342119856332, 8.827065990055468 ], [ -75.489341040064843, 8.827065989988192 ], [ -75.489341039710652, 8.827067969882766 ], [ -75.489333839737441, 8.827073999827332 ], [ -75.489333119524218, 8.827075979978387 ], [ -75.489329880710329, 8.827077960569088 ], [ -75.489278039876794, 8.827135019892395 ], [ -75.489182999999755, 8.82724302036655 ], [ -75.489000839559367, 8.827467030248446 ] ], [ [ -75.489665091139315, 8.827346625027639 ], [ -75.48457279723138, 8.833190263290618 ] ], [ [ -75.483388517287423, 8.834546489811892 ], [ -75.481082668078045, 8.83717531751171 ], [ -75.477052172019441, 8.840616718076527 ] ], [ [ -75.471059791469457, 8.847868592732691 ], [ -75.470132141310273, 8.849606238327015 ] ], [ [ -75.489000839559367, 8.827467030248446 ], [ -75.48488553334424, 8.832714534425893 ] ], [ [ -75.482394881577548, 8.835394489675734 ], [ -75.477304526136834, 8.840173618680273 ] ], [ [ -75.470617079793868, 8.848495595577806 ], [ -75.470616309036501, 8.848496687182761 ] ], [ [ -75.470616000305398, 8.848497124431148 ], [ -75.470278868807881, 8.849047757778266 ] ], [ [ -75.489345000271911, 8.827698959650684 ], [ -75.489000839559367, 8.827467030248446 ] ], [ [ -75.464345265956737, 8.862113209208738 ], [ -75.464237549029733, 8.863726433075483 ] ], [ [ -75.463526160167504, 8.874428210494573 ], [ -75.463622738018216, 8.876333965675357 ] ], [ [ -75.464494829955498, 8.862014117376349 ], [ -75.464379368445918, 8.863960381353854 ] ], [ [ -75.463845760103354, 8.87284051166618 ], [ -75.463860960447647, 8.87674840847145 ] ], [ [ -75.444072124959035, 8.925729476953929 ], [ -75.44301885562578, 8.931014815158564 ] ], [ [ -75.443070592438644, 8.936562289209101 ], [ -75.444089997648859, 8.939187789358206 ], [ -75.447539935198961, 8.941783649045252 ], [ -75.454229512511162, 8.952845387516787 ], [ -75.454403024199976, 8.95487768125823 ], [ -75.452941791983349, 8.958224142528268 ] ], [ [ -75.455658505964905, 8.980619914054955 ], [ -75.455944423200719, 8.984730196728899 ] ], [ [ -75.455511378809518, 8.996630388483068 ], [ -75.457314057695314, 8.999769188907806 ], [ -75.456521739948769, 9.002710343910369 ] ], [ [ -75.457368659385239, 9.00678674324922 ], [ -75.457734441438106, 9.008758193749175 ] ], [ [ -75.456426589935234, 9.027777624144212 ], [ -75.455538495604543, 9.03143664807236 ] ], [ [ -75.454863050119371, 9.033035312619011 ], [ -75.452213141237451, 9.039358999199287 ], [ -75.451391294059476, 9.042830051699182 ] ], [ [ -75.439759370181321, 9.053764381155606 ], [ -75.437627249474531, 9.055352381482976 ] ], [ [ -75.437565865820346, 9.055398100707922 ], [ -75.435537223264376, 9.056912145869875 ] ], [ [ -75.435003440127005, 9.057433335410327 ], [ -75.43398963895045, 9.059619893985994 ] ], [ [ -75.392354381369969, 9.177543537417501 ], [ -75.391516719934742, 9.17886133596835 ], [ -75.39038670129095, 9.179389724328939 ] ], [ [ -75.400637405487473, 9.203475765670875 ], [ -75.401347227798112, 9.204889055952481 ] ], [ [ -75.402191701976591, 9.208167628111008 ], [ -75.40536860704168, 9.214011693505331 ] ], [ [ -75.4054191180971, 9.214205444535857 ], [ -75.405717894514424, 9.21730798358894 ] ], [ [ -75.402847713426127, 9.209692411212314 ], [ -75.403242398724089, 9.210400289518688 ] ], [ [ -75.403587380570698, 9.211528720939416 ], [ -75.404805975289776, 9.213440522180399 ] ], [ [ -75.405288349841911, 9.214612967997244 ], [ -75.405328658977197, 9.217385268122362 ] ], [ [ -75.405717894514424, 9.21730798358894 ], [ -75.405651952271967, 9.217729567249227 ], [ -75.405328658977197, 9.217385268122362 ] ], [ [ -75.405717894514424, 9.21730798358894 ], [ -75.406014414062184, 9.218219316628042 ] ], [ [ -75.405328658977197, 9.217385268122362 ], [ -75.405526784458573, 9.218193156571214 ] ], [ [ -75.406014414062184, 9.218219316628042 ], [ -75.405729198459937, 9.217893794696943 ], [ -75.405598011222523, 9.218278404472619 ] ], [ [ -75.406014414062184, 9.218219316628042 ], [ -75.406439803653555, 9.219243574272966 ] ], [ [ -75.409801558521622, 9.22238853201476 ], [ -75.409935478649658, 9.22274088286292 ] ] ] } },
{ "type": "Feature", "properties": { "objectid": 485.0, "categoria": "1", "codigotram": "7402", "posterefer": 0, "distanciai": 0.0, "posteref_1": 35, "distanciaf": 0.0, "nombreruta": "Transversal Puerto rey - Tibú", "sector": "Cereté - Cruce Ruta 25 (La Ye)", "administra": "1", "grupoadmin": null, "superficie": "3", "calzada": "2", "ruta": "74", "fuente": "IGAC (Contrato 2932/2008)", "globalid": "{948364E8-4F35-4C6C-8115-2E8CF14F8FC6}", "nombretram": "Por Defnir", "created_us": "SIG_INVIAS", "created_da": "2026/08/09 05:01:08.000", "last_edite": "SIG_INVIAS", "last_edi_1": "2026/08/09 05:01:08.000", "territoria": "11", "revisiones": "No Revisado", "SHAPE_Leng": 55985.264422987741 }, "geometry": { "type": "MultiLineString", "coordinates": [ [ [ -75.618605979636953, 8.869336945015993 ], [ -75.61306792168206, 8.872572317163154 ], [ -75.611426029823804, 8.872540538300042 ], [ -75.57974358524217, 8.853641763040114 ], [ -75.576049585716333, 8.850354879342115 ], [ -75.574060801692184, 8.850015884950819 ], [ -75.571137785785936, 8.848258632865166 ], [ -75.562165388786752, 8.84127449144272 ], [ -75.5563753991038, 8.837502539447195 ], [ -75.55006675925388, 8.835848137894322 ], [ -75.539407140083071, 8.831709810870334 ], [ -75.521349851073211, 8.821020974442334 ], [ -75.517200300590062, 8.816648705461548 ], [ -75.515207709672211, 8.813159752883355 ], [ -75.513393524030647, 8.811627631052895 ], [ -75.512157689893641, 8.811402108044124 ] ], [ [ -75.624142579352934, 8.870946737568953 ], [ -75.623383854561354, 8.870430580765447 ], [ -75.621855574267997, 8.870092415158609 ], [ -75.619951759247968, 8.868782020588728 ], [ -75.619191184529086, 8.86882664012246 ], [ -75.618605979636953, 8.869336945015993 ] ], [ [ -75.624142579352934, 8.870946737568953 ], [ -75.623519332860042, 8.8708157126124 ], [ -75.623542191026672, 8.871291778598527 ] ], [ [ -75.623542191026672, 8.871291778598527 ], [ -75.620010457984208, 8.868977946617232 ], [ -75.618605979636953, 8.869336945015993 ] ], [ [ -75.790146056347297, 8.87138557471239 ], [ -75.785451839130772, 8.872368030498059 ], [ -75.781911960049271, 8.872157970353765 ], [ -75.774948119655349, 8.877021031241064 ], [ -75.774080880029771, 8.878539960766366 ], [ -75.774511079511939, 8.882322029897894 ], [ -75.773359079665511, 8.884195020025109 ] ], [ [ -75.631571304805163, 8.874808627949722 ], [ -75.629437557720976, 8.873382468936896 ], [ -75.625651320253269, 8.872144886182262 ], [ -75.624142579352934, 8.870946737568953 ] ], [ [ -75.631571304805163, 8.874808627949722 ], [ -75.631214737954551, 8.875140708992353 ] ], [ [ -75.631214737954551, 8.875140708992353 ], [ -75.623542191026672, 8.871291778598527 ] ], [ [ -75.648589239196113, 8.877314782091421 ], [ -75.633625474736775, 8.875704980570873 ], [ -75.631571304805163, 8.874808627949722 ] ], [ [ -75.648589239196113, 8.877314782091421 ], [ -75.648088286103459, 8.877351160833742 ], [ -75.648271299998285, 8.877609476279254 ] ], [ [ -75.648271299998285, 8.877609476279254 ], [ -75.633141703833729, 8.875822920418335 ], [ -75.631214737954551, 8.875140708992353 ] ], [ [ -75.653867294469975, 8.87782840919812 ], [ -75.648589239196113, 8.877314782091421 ] ], [ [ -75.653867294469975, 8.87782840919812 ], [ -75.653846695334522, 8.87822188732839 ] ], [ [ -75.653846695334522, 8.87822188732839 ], [ -75.648271299998285, 8.877609476279254 ] ], [ [ -75.681320577445945, 8.880168762739761 ], [ -75.653867294469975, 8.87782840919812 ] ], [ [ -75.683255527547672, 8.880349792729952 ], [ -75.681320577445945, 8.880168762739761 ] ], [ [ -75.683255527547672, 8.880349792729952 ], [ -75.683216320497635, 8.880742203275449 ] ], [ [ -75.681245029517157, 8.880547004669801 ], [ -75.681320577445945, 8.880168762739761 ] ], [ [ -75.681245029517157, 8.880547004669801 ], [ -75.655995320120837, 8.878034021597699 ], [ -75.653846695334522, 8.87822188732839 ] ], [ [ -75.683216320497635, 8.880742203275449 ], [ -75.681245029517157, 8.880547004669801 ] ], [ [ -75.713912641017359, 8.883385337059002 ], [ -75.708277028665833, 8.883218395286741 ], [ -75.698084478052991, 8.881923611801689 ], [ -75.685326597520017, 8.880943089865942 ], [ -75.683255527547672, 8.880349792729952 ] ], [ [ -75.715272168673351, 8.883436998556558 ], [ -75.713912641017359, 8.883385337059002 ] ], [ [ -75.715272168673351, 8.883436998556558 ], [ -75.714600011019655, 8.883529051653511 ], [ -75.715018817506632, 8.883885352895009 ] ], [ [ -75.71417000440664, 8.883799278951079 ], [ -75.714445519384768, 8.883554883001912 ], [ -75.713912641017359, 8.883385337059002 ] ], [ [ -75.71417000440664, 8.883799278951079 ], [ -75.711844827316952, 8.883845600664845 ], [ -75.6954525321798, 8.881939258198335 ], [ -75.686553802783394, 8.881406195256506 ], [ -75.683216320497635, 8.880742203275449 ] ], [ [ -75.715018817506632, 8.883885352895009 ], [ -75.71417000440664, 8.883799278951079 ] ], [ [ -75.773359079665511, 8.884195020025109 ], [ -75.77240688032181, 8.885148030547185 ] ], [ [ -75.773359079665511, 8.884195020025109 ], [ -75.773274120301707, 8.885052990288564 ], [ -75.773869306835508, 8.885221964978212 ] ], [ [ -75.77240688032181, 8.885148030547185 ], [ -75.76453051468377, 8.886960327060091 ], [ -75.761650835882435, 8.887075962253329 ] ], [ [ -75.773869306835508, 8.885221964978212 ], [ -75.783951818679085, 8.883201538291043 ], [ -75.79230833261316, 8.878410401877767 ] ], [ [ -75.772805856594232, 8.885430792928531 ], [ -75.773869306835508, 8.885221964978212 ] ], [ [ -75.772805856594232, 8.885430792928531 ], [ -75.773082960715527, 8.884871999921653 ], [ -75.77240688032181, 8.885148030547185 ] ], [ [ -75.741025351393091, 8.885946260347568 ], [ -75.715272168673351, 8.883436998556558 ] ], [ [ -75.743438344226973, 8.88619525021922 ], [ -75.741025351393091, 8.885946260347568 ] ], [ [ -75.743438344226973, 8.88619525021922 ], [ -75.74371411376498, 8.886503848216998 ], [ -75.743336199939023, 8.88671797350114 ] ], [ [ -75.74107799986561, 8.886494689892919 ], [ -75.74063913240181, 8.886186832271456 ], [ -75.741025351393091, 8.885946260347568 ] ], [ [ -75.74107799986561, 8.886494689892919 ], [ -75.715018817506632, 8.883885352895009 ] ], [ [ -75.743336199939023, 8.88671797350114 ], [ -75.74107799986561, 8.886494689892919 ] ], [ [ -75.761650835882435, 8.887075962253329 ], [ -75.759159590104957, 8.887571082300289 ] ], [ [ -75.759159590104957, 8.887571082300289 ], [ -75.751376571310303, 8.887535515719279 ], [ -75.746486053926972, 8.887038079414927 ], [ -75.743438344226973, 8.88619525021922 ] ], [ [ -75.76171025453759, 8.887597745832336 ], [ -75.772805856594232, 8.885430792928531 ] ], [ [ -75.76171025453759, 8.887597745832336 ], [ -75.762092698332481, 8.887305193991056 ], [ -75.761650835882435, 8.887075962253329 ] ], [ [ -75.759608079916589, 8.888020086825913 ], [ -75.76171025453759, 8.887597745832336 ] ], [ [ -75.759608079916589, 8.888020086825913 ], [ -75.75933264285564, 8.888021412665784 ], [ -75.759136557396644, 8.888009670953764 ], [ -75.759020688210271, 8.88795977027544 ], [ -75.759159590104957, 8.887571082300289 ] ], [ [ -75.759608079916589, 8.888020086825913 ], [ -75.758089940351908, 8.888203969006554 ], [ -75.750535521499714, 8.887724945429586 ], [ -75.743336199939023, 8.88671797350114 ] ] ] } },
{ "type": "Feature", "properties": { "objectid": 570.0, "categoria": "1", "codigotram": "7401", "posterefer": 0, "distanciai": 0.0, "posteref_1": 63, "distanciaf": 464.0, "nombreruta": "Transversal Puerto rey - Tibú", "sector": "Puerto Rey - Monteria", "administra": "2", "grupoadmin": null, "superficie": "1", "calzada": "2", "ruta": "74", "fuente": "IGAC (Contrato 2932/2008)", "globalid": "{F00473FA-40C8-4C7D-BA6E-57C9D6094D54}", "nombretram": "Por Defnir", "created_us": "SIG_INVIAS", "created_da": "2026/08/09 05:01:08.000", "last_edite": "SIG_INVIAS", "last_edi_1": "2026/08/09 05:01:08.000", "territoria": "28", "revisiones": "No Revisado", "SHAPE_Leng": 64212.854085186984 }, "geometry": { "type": "MultiLineString", "coordinates": [ [ [ -75.890138474762622, 8.77275143398434 ], [ -75.89690409249053, 8.756276573447797 ], [ -75.8967223940125, 8.755013553257289 ], [ -75.895082344663905, 8.752265089656264 ], [ -75.893386360365525, 8.751420613613277 ] ], [ [ -75.890138474762622, 8.77275143398434 ], [ -75.889969387075354, 8.773975597906029 ] ], [ [ -75.889495672429391, 8.773655392979659 ], [ -75.889825043432509, 8.773317528033637 ], [ -75.890094685115272, 8.772802118846556 ], [ -75.890120836838335, 8.772762533716506 ], [ -75.890131317013712, 8.772752644743463 ], [ -75.890135923915395, 8.77275063922027 ], [ -75.890138474762622, 8.77275143398434 ] ], [ [ -75.889495672429391, 8.773655392979659 ], [ -75.888998529888553, 8.774043362936572 ], [ -75.889199853765575, 8.774624390130642 ] ], [ [ -75.889969387075354, 8.773975597906029 ], [ -75.889495672429391, 8.773655392979659 ] ], [ [ -75.890001115528776, 8.774338252209393 ], [ -75.889969387075354, 8.773975597906029 ] ], [ [ -75.890001115528776, 8.774338252209393 ], [ -75.89057921601696, 8.776491655480042 ] ], [ [ -75.889199853765575, 8.774624390130642 ], [ -75.889648504871332, 8.774658300435707 ], [ -75.889831209100876, 8.774545900682323 ], [ -75.88997102870492, 8.774355263136464 ], [ -75.889986187715394, 8.7743409179335 ], [ -75.889992967004204, 8.774337640416526 ], [ -75.890001115528776, 8.774338252209393 ] ], [ [ -75.89057921601696, 8.776491655480042 ], [ -75.889199853765575, 8.774624390130642 ] ], [ [ -76.097996631969906, 8.83879286259446 ], [ -76.086717831081131, 8.839966082874557 ], [ -76.082838625062195, 8.83966608090493 ], [ -75.911071993107697, 8.798983242630282 ], [ -75.907239515305463, 8.797254212633618 ], [ -75.90404860205571, 8.794594676145698 ], [ -75.89057921601696, 8.776491655480042 ] ] ] } },
{ "type": "Feature", "properties": { "objectid": 598.0, "categoria": "4", "codigotram": "74CRA", "posterefer": 0, "distanciai": 0.0, "posteref_1": 5, "distanciaf": 480.0, "nombreruta": "Transversal Puerto rey - Tibú", "sector": "Variante Cereté", "administra": "2", "grupoadmin": null, "superficie": "3", "calzada": "3", "ruta": "74", "fuente": "Por Defnir", "globalid": "{5046EBE5-9D57-4119-8AAC-2AAA21A1A91F}", "nombretram": "Por Defnir", "created_us": "SIG_INVIAS", "created_da": "2026/08/09 05:01:08.000", "last_edite": "SIG_INVIAS", "last_edi_1": "2026/08/09 05:01:08.000", "territoria": "28", "revisiones": "No Revisado", "SHAPE_Leng": 6724.7041793332137 }, "geometry": { "type": "MultiLineString", "coordinates": [ [ [ -75.762107553715836, 8.88698817842112 ], [ -75.762766479401776, 8.886262594235548 ] ], [ [ -75.763451492247611, 8.886994533664145 ], [ -75.762766195025179, 8.886546694831877 ], [ -75.763150015263989, 8.885877903480827 ], [ -75.766194593227482, 8.888298066942133 ] ], [ [ -75.76369710301519, 8.887207368979317 ], [ -75.764735160690321, 8.887295820984424 ], [ -75.766237746529143, 8.888337539245894 ] ], [ [ -75.766194593227482, 8.888298066942133 ], [ -75.765575486968672, 8.887248650850154 ], [ -75.766262584326611, 8.886710961327408 ] ], [ [ -75.766194593227482, 8.888298066942133 ], [ -75.766237746529143, 8.888337539245894 ] ], [ [ -75.766237746529143, 8.888337539245894 ], [ -75.77231679614539, 8.893326881056517 ], [ -75.778860860549443, 8.897734415384347 ], [ -75.783396911160807, 8.901659419181525 ], [ -75.789382397783953, 8.903335558761317 ], [ -75.803554051623365, 8.905963682701188 ] ], [ [ -75.803554051623365, 8.905963682701188 ], [ -75.804603787236914, 8.906178348600001 ] ], [ [ -75.803554051623365, 8.905963682701188 ], [ -75.805273787008076, 8.906799766294048 ], [ -75.807002167698101, 8.908988419423222 ] ], [ [ -75.80497775979471, 8.906058647283778 ], [ -75.804603787236914, 8.906178348600001 ] ], [ [ -75.804603787236914, 8.906178348600001 ], [ -75.80500441001594, 8.906448369499074 ] ] ] } },
{ "type": "Feature", "properties": { "objectid": 599.0, "categoria": "4", "codigotram": "21CR04", "posterefer": 0, "distanciai": 0.0, "posteref_1": 28, "distanciaf": 733.7, "nombreruta": "Alternas a la Transversal del Caribe", "sector": "Santa Lucia - San Pelayo", "administra": "2", "grupoadmin": null, "superficie": "1", "calzada": "1", "ruta": "21", "fuente": "Entrega del Contratista", "globalid": "{0F70DECA-953C-4EC3-882D-04BC3B9811DC}", "nombretram": "Por Defnir", "created_us": "SIG_INVIAS", "created_da": "2026/08/09 05:01:08.000", "last_edite": "SIG_INVIAS", "last_edi_1": "2026/08/09 05:01:08.000", "territoria": "28", "revisiones": "No Revisado", "SHAPE_Leng": 28742.102355387146 }, "geometry": { "type": "LineString", "coordinates": [ [ -76.035809676356251, 8.847374971309483 ], [ -76.026185811081248, 8.84751717316802 ], [ -76.017076874149794, 8.845304371359454 ], [ -76.014601340289957, 8.845347890001555 ], [ -76.007214178340249, 8.848163636966833 ], [ -75.992719272031252, 8.857695955597448 ], [ -75.988483276561055, 8.861409100951786 ], [ -75.986442285092764, 8.868270538668863 ], [ -75.981406189339197, 8.879770835730291 ], [ -75.975631684087674, 8.885080013032766 ], [ -75.973679032441126, 8.889675133303175 ], [ -75.965182309592237, 8.894890201522015 ], [ -75.949413629591064, 8.900735858746472 ], [ -75.9359415582894, 8.915870425586027 ], [ -75.9071582661539, 8.926097907140065 ], [ -75.899854491132189, 8.932708921888699 ], [ -75.89530793994426, 8.944757933838767 ], [ -75.891963069997743, 8.946621295892891 ], [ -75.885726712125802, 8.947281935643288 ], [ -75.883462451024073, 8.948371678614276 ], [ -75.875987742560639, 8.955530658342816 ], [ -75.870945015257135, 8.95742762567761 ], [ -75.866570102861758, 8.957754299772427 ], [ -75.864130721093815, 8.957221066188646 ], [ -75.857926213984115, 8.957231043542572 ], [ -75.852062487840513, 8.954701927392678 ], [ -75.847625540760745, 8.95653983145991 ], [ -75.846408048681383, 8.955912759923828 ], [ -75.837690408187868, 8.946140093030477 ], [ -75.836129323268125, 8.946040319989601 ], [ -75.83051263835668, 8.948588711189677 ] ] } }
]
}
