{
"type": "FeatureCollection",
"name": "infra_plantas_tratamiento",
"crs": { "type": "name", "properties": { "name": "urn:ogc:def:crs:OGC:1.3:CRS84" } },
"features": [
{ "type": "Feature", "properties": { "OBJECTID_1": 27.0, "OBJECTID": 966, "MpCodigo": "23001", "MpNombre": "Montería", "EMPRESA": "VEOLIA Aguas de Montería S.A.", "PTAP": "Sierra Chiquita Nueva", "MUNI_ATEND": "Montería", "MILLONES_H": "Toda la infraestructura PTAP atiende en total 0,4 millones de habitantes.", "N_PTAP": 7.0 }, "geometry": { "type": "Point", "coordinates": [ -75.950505905996266, 8.584688768633127 ] } }
]
}
