{
"type": "FeatureCollection",
"name": "parque_paramillo",
"crs": { "type": "name", "properties": { "name": "urn:ogc:def:crs:OGC:1.3:CRS84" } },
"features": [
{ "type": "Feature", "properties": { "CODIGO": null, "PNCODIGO": 0.0, "NOMBRE": "Parque Paramillo", "NOMENCLAT": null, "REGLAME": 0.0, "PN_RESOL": "0163 (6 julio de 1977)", "AREA_RES": 7681.0953967799996, "SUEL_PROT": null, "TERRIT_PNN": null, "ORDEN": null, "CAR": 0.0, "OBSERV": "Parques", "Shape_Leng": 71320.582992099997, "Shape_Area": 76810953.967800006 }, "geometry": { "type": "MultiPolygon", "coordinates": [ [ [ [ -76.060705797314426, 8.01976789097197 ], [ -76.060638000385183, 8.019785419674085 ], [ -76.054232803405014, 8.021683336378924 ], [ -76.049402609884453, 8.023114490440749 ], [ -76.041154553858831, 8.026528317616268 ], [ -76.035895368776508, 8.030324805583046 ], [ -76.029538885522143, 8.033729458717467 ], [ -76.02237860583449, 8.035649091162384 ], [ -76.010996216746975, 8.029152200893481 ], [ -76.006725348427068, 8.031454987907152 ], [ -76.000061376380643, 8.033074169618896 ], [ -75.994386564015258, 8.033299131956802 ], [ -75.98901230712147, 8.033919626919358 ], [ -75.982850198330212, 8.036429489238069 ], [ -75.976076707119773, 8.035964530181637 ], [ -75.971984875199453, 8.033998335608519 ], [ -75.970687170398364, 8.033309538154343 ], [ -75.965046608969217, 8.040977903871664 ], [ -75.961607158055841, 8.050918969218598 ], [ -75.946699976744071, 8.057537808543611 ], [ -75.944412739923877, 8.05824299451843 ], [ -75.938529143441258, 8.056483135576729 ], [ -75.936314790820006, 8.051331940225946 ], [ -75.931610522055593, 8.046092702824666 ], [ -75.927511048118717, 8.042438741913456 ], [ -75.923026772112692, 8.041764102340512 ], [ -75.917846773678747, 8.041390290387856 ], [ -75.916168291630854, 8.040755444301187 ], [ -75.916156563166112, 8.04070331656701 ], [ -75.915976464455582, 8.040399991831595 ], [ -75.915853239073627, 8.040181979644625 ], [ -75.915843760026178, 8.040049274157672 ], [ -75.915881674581016, 8.039935527683983 ], [ -75.916099690250675, 8.039821780550659 ], [ -75.916412493215205, 8.039679599452132 ], [ -75.917176259001423, 8.039185825928223 ], [ -75.917859991405692, 8.038819186572024 ], [ -75.91846445008882, 8.038422819585016 ], [ -75.919039180709518, 8.038056180858637 ], [ -75.919376092727887, 8.037828272364166 ], [ -75.919431181760345, 8.037784200399575 ], [ -75.919722913296056, 8.037550813293553 ], [ -75.920089552078252, 8.037233720244284 ], [ -75.920406646248495, 8.036966172533907 ], [ -75.920674192693141, 8.036817535861136 ], [ -75.920912013259453, 8.036639170116992 ], [ -75.921091808510198, 8.036459374548228 ], [ -75.921110196112053, 8.036440987741116 ], [ -75.921318289368287, 8.036193259449083 ], [ -75.921447107796055, 8.035915804865795 ], [ -75.921536290289879, 8.035727527397654 ], [ -75.921684928401618, 8.03556898010704 ], [ -75.921853383370362, 8.035380706665743 ], [ -75.922309205234839, 8.035043797270983 ], [ -75.922765026395822, 8.034736612397326 ], [ -75.923121755808253, 8.034459157646797 ], [ -75.923428940424557, 8.034280791377835 ], [ -75.923755942942563, 8.034112334000397 ], [ -75.924063126820016, 8.034003336487938 ], [ -75.924776585658236, 8.033666422943114 ], [ -75.925153133982704, 8.033527693752408 ], [ -75.925450408565624, 8.033468238496866 ], [ -75.925678320095443, 8.03335923745141 ], [ -75.925866594390598, 8.033190782298757 ], [ -75.926015231585481, 8.033032235812913 ], [ -75.926233232577118, 8.032774597214386 ], [ -75.926251307012606, 8.032760630943367 ], [ -75.926451235256422, 8.03260614290769 ], [ -75.926748509681829, 8.032398048439253 ], [ -75.927016057107252, 8.03223950472854 ], [ -75.927224148754036, 8.032150321668853 ], [ -75.927531333375171, 8.032041320275281 ], [ -75.927828608015517, 8.031981867226307 ], [ -75.928165520163816, 8.031971955550917 ], [ -75.928482613205688, 8.031971955508389 ], [ -75.928878979733867, 8.032011591370354 ], [ -75.929295163644511, 8.032100774360302 ], [ -75.929711348718229, 8.032229593802198 ], [ -75.929903527446186, 8.032303508663608 ], [ -75.930226625974555, 8.032427776247264 ], [ -75.930434717728261, 8.032516959118629 ], [ -75.930603174281785, 8.032556595182642 ], [ -75.93078153897541, 8.032556595711519 ], [ -75.930959903734887, 8.032507049821175 ], [ -75.931088722560915, 8.032417867979781 ], [ -75.931281903938753, 8.032131212891112 ], [ -75.931855544767615, 8.03128000410881 ], [ -75.934004916913324, 8.030015664217952 ], [ -75.93640715616516, 8.030647836184023 ], [ -75.937545061138266, 8.031532872815299 ], [ -75.938682965780629, 8.032165034977293 ], [ -75.939392036057427, 8.032652521989757 ], [ -75.940705908922808, 8.033555805371043 ], [ -75.943993186036337, 8.034187980933712 ], [ -75.947280463187923, 8.037475254904598 ], [ -75.950441310811641, 8.039624635719546 ], [ -75.951667786342654, 8.040237871677316 ], [ -75.951958521389002, 8.040383237757961 ], [ -75.953349292262473, 8.040636102134096 ], [ -75.954992930560749, 8.040509664932047 ], [ -75.955338453437221, 8.040304912751303 ], [ -75.958406636791224, 8.03848673392663 ], [ -75.95941811267771, 8.036843093478824 ], [ -75.960478717318523, 8.033509763816465 ], [ -75.961188180294798, 8.031280004282731 ], [ -75.961464508561534, 8.029380260884711 ], [ -75.96219965578662, 8.024326137149178 ], [ -75.962209581841876, 8.02403828241307 ], [ -75.962326084852009, 8.020659565819724 ], [ -75.962370649584358, 8.019456348704253 ], [ -75.962452523170398, 8.017245849620982 ], [ -75.963605593134858, 8.015147274783084 ], [ -75.964010346978924, 8.01441062281614 ], [ -75.964231314585433, 8.014008460514003 ], [ -75.964388294732103, 8.0137227551094 ], [ -75.964624236178381, 8.013293338546465 ], [ -75.965241648777308, 8.012169637803398 ], [ -75.96561336230873, 8.011493110231964 ], [ -75.965992666558932, 8.009470167151816 ], [ -75.966025985029759, 8.009103672615094 ], [ -75.966245534306225, 8.006688624286035 ], [ -75.967889171675978, 8.002769176683818 ], [ -75.968142039303444, 7.99872329822094 ], [ -75.969231238516755, 7.99746653988403 ], [ -75.96978568562777, 7.996826794660271 ], [ -75.972717200566677, 7.991600685089524 ], [ -75.972915654504106, 7.991666783631843 ], [ -75.973031254231074, 7.991705288501863 ], [ -75.974381457385263, 7.991952710858516 ], [ -75.975089080096609, 7.99195544027187 ], [ -75.975587127364108, 7.99202488532032 ], [ -75.975875155547342, 7.99206540604256 ], [ -75.976132731940567, 7.992004445681928 ], [ -75.976398773711949, 7.991935011922797 ], [ -75.976666066882316, 7.991924284704462 ], [ -75.977175885660813, 7.991945852807524 ], [ -75.977391650855537, 7.991920949571769 ], [ -75.977829372562653, 7.991912959820951 ], [ -75.97849468602351, 7.991844144886101 ], [ -75.979142536009732, 7.99188898600541 ], [ -75.979526481462969, 7.991923085585447 ], [ -75.979910620740966, 7.991999026652311 ], [ -75.980198732619641, 7.99205747712657 ], [ -75.980457387173018, 7.992229639661198 ], [ -75.980439052556747, 7.992499824428247 ], [ -75.980423707627637, 7.992725942213248 ], [ -75.980190727383061, 7.992918300945226 ], [ -75.979939508643042, 7.993056944715936 ], [ -75.980674138135626, 7.99371110737497 ], [ -75.980957612340347, 7.994062484667319 ], [ -75.981217267390988, 7.994449837883785 ], [ -75.981428645077045, 7.994771658423189 ], [ -75.981634081626694, 7.995105461346287 ], [ -75.981760648326329, 7.995242364835594 ], [ -75.982463109069755, 7.995424433613513 ], [ -75.982991670078974, 7.995607304187659 ], [ -75.983576931649395, 7.995634256486913 ], [ -75.983698966864125, 7.995539607242189 ], [ -75.983736706411392, 7.995510338156755 ], [ -75.984154593049453, 7.995512272864289 ], [ -75.984628462394241, 7.99553997369843 ], [ -75.985518876549008, 7.995816168686848 ], [ -75.986201635609376, 7.996235282828946 ], [ -75.987067592534643, 7.996757314080257 ], [ -75.987177017187364, 7.997036720763442 ], [ -75.987503048160576, 7.997499943790936 ], [ -75.988008738827048, 7.997972404336154 ], [ -75.988541856562364, 7.997837862565444 ], [ -75.988916103219353, 7.997083511709556 ], [ -75.989438790644385, 7.996005114825077 ], [ -75.989457320114951, 7.994833408662642 ], [ -75.989305273727425, 7.993088637078339 ], [ -75.988702392981608, 7.992398017947079 ], [ -75.988193789469022, 7.991348301789531 ], [ -75.98736325108672, 7.990556065343384 ], [ -75.987210369188844, 7.989697052659075 ], [ -75.987083432602859, 7.989166257826533 ], [ -75.987309917539562, 7.988785480709977 ], [ -75.988080386363734, 7.988288286720837 ], [ -75.988746645460679, 7.986666680160518 ], [ -75.989166261269261, 7.985416416425086 ], [ -75.989585869819749, 7.98416613836198 ], [ -75.990417480067052, 7.983333588129049 ], [ -75.990629559830595, 7.982904508079797 ], [ -75.9911099988079, 7.982280225298759 ], [ -75.991500438445911, 7.981866122347101 ], [ -75.992250270123264, 7.981541870961433 ], [ -75.993416596514464, 7.980752119348442 ], [ -75.994163513965489, 7.980416770449321 ], [ -75.995560510581157, 7.979812544670233 ], [ -75.996364212494626, 7.97949503241356 ], [ -75.997123211191237, 7.979325554905775 ], [ -75.997917170538003, 7.979166508047226 ], [ -75.998703346208131, 7.979009201220688 ], [ -75.998868575333063, 7.978994160271044 ], [ -76.000119534142428, 7.978969530880051 ], [ -76.000886344495257, 7.978812940916614 ], [ -76.001249308077803, 7.97846694305277 ], [ -76.001902374359773, 7.978241306896105 ], [ -76.00276400356249, 7.978211232181544 ], [ -76.003150705744332, 7.97813239841435 ], [ -76.003512671959072, 7.978252824187068 ], [ -76.003753663248858, 7.978333001476877 ], [ -76.00410361569385, 7.97845040997556 ], [ -76.004498104113679, 7.97858276132298 ], [ -76.004870597168946, 7.978707732022519 ], [ -76.004997252418804, 7.978750225207599 ], [ -76.005033425768502, 7.978786130625226 ], [ -76.005153651187797, 7.978905468130094 ], [ -76.005265043035465, 7.979016037466262 ], [ -76.005514189346059, 7.979312640396386 ], [ -76.005523106140686, 7.979317098376672 ], [ -76.005614260472697, 7.979362675633432 ], [ -76.006104534693137, 7.979607813233841 ], [ -76.006324817952787, 7.979717955162704 ], [ -76.006403125008717, 7.979726055150806 ], [ -76.00651780116219, 7.979737918505864 ], [ -76.006912524495277, 7.979778752063922 ], [ -76.007500230368322, 7.979778752712781 ], [ -76.008026551690364, 7.979684766024005 ], [ -76.008067670587721, 7.979677424163304 ], [ -76.008089433539183, 7.979663822305806 ], [ -76.008224689258014, 7.979618771000531 ], [ -76.008290056552838, 7.9795969987192 ], [ -76.008331292280275, 7.979583264437449 ], [ -76.008494790617817, 7.979420882576523 ], [ -76.008681831310028, 7.979322908502394 ], [ -76.008894823526305, 7.979383450997712 ], [ -76.009070374074639, 7.979486701521289 ], [ -76.009347327017565, 7.979764291606987 ], [ -76.009643244831594, 7.980032544441542 ], [ -76.009930218791638, 7.980309224136133 ], [ -76.010307800978566, 7.980675363814206 ], [ -76.010377963532392, 7.980743400740864 ], [ -76.010567484731524, 7.981093284309702 ], [ -76.010617055048414, 7.981184799604118 ], [ -76.010696410905908, 7.98136175938473 ], [ -76.010774984735434, 7.981550337994319 ], [ -76.010812699214071, 7.981640853116918 ], [ -76.010833737504555, 7.981679051653977 ], [ -76.010833737476233, 7.98229559476402 ], [ -76.01089665421469, 7.982500073785221 ], [ -76.010904872566769, 7.982526784785234 ], [ -76.010956800322617, 7.982526758098567 ], [ -76.011208858256282, 7.982506519327256 ], [ -76.012503469126457, 7.982525967817838 ], [ -76.012916558871652, 7.984166627872611 ], [ -76.013336182838643, 7.985416890629281 ], [ -76.013748168418786, 7.986666680183319 ], [ -76.014999387837506, 7.987916950394214 ], [ -76.016670230208007, 7.98833322572876 ], [ -76.018333435390261, 7.988749983002742 ], [ -76.019646841007088, 7.989482467802278 ], [ -76.020725282890865, 7.990299909986733 ], [ -76.021552648309751, 7.990774223407453 ], [ -76.022093457097085, 7.991517676293486 ], [ -76.022657099839535, 7.992054459633171 ], [ -76.023071014217166, 7.99233731065243 ], [ -76.023053568985731, 7.99273693830012 ], [ -76.022800651387854, 7.993067537469253 ], [ -76.021970732489734, 7.99396665635207 ], [ -76.021129151395968, 7.994544460691144 ], [ -76.020513431890521, 7.99489543973615 ], [ -76.020230363968963, 7.995199046592171 ], [ -76.020323160075264, 7.995405060128252 ], [ -76.021325210118306, 7.995828390582102 ], [ -76.022844009120746, 7.996028384031025 ], [ -76.024016150630331, 7.996367168179588 ], [ -76.024785604087896, 7.996765230666511 ], [ -76.025438836383785, 7.996934303696264 ], [ -76.026502027227778, 7.998574303435968 ], [ -76.026582871578299, 7.999434685874295 ], [ -76.026413534147892, 8.000143224334233 ], [ -76.026661476626714, 8.000782153552437 ], [ -76.026679832673551, 8.000803254730664 ], [ -76.026664735990181, 8.000833517302308 ], [ -76.027084351531784, 8.001666075362698 ], [ -76.027496338486046, 8.002082825386928 ], [ -76.029586797160334, 8.002500529759788 ], [ -76.03166962642446, 8.002499581564511 ], [ -76.032081604508051, 8.004166609176307 ], [ -76.032173502664122, 8.004840614208483 ], [ -76.033214179317781, 8.005772955433871 ], [ -76.033618974209602, 8.006153596224543 ], [ -76.03407690018382, 8.006899393247602 ], [ -76.034410290185946, 8.00710624262295 ], [ -76.037529709842985, 8.009348531225882 ], [ -76.038666446232369, 8.010299524464925 ], [ -76.039937145509867, 8.011173362858356 ], [ -76.04058584709874, 8.011584938784804 ], [ -76.042356632520466, 8.011506141574808 ], [ -76.042903373106725, 8.01130756825299 ], [ -76.043973486577215, 8.010918906544218 ], [ -76.044269608133604, 8.011013810732273 ], [ -76.045165662766436, 8.011004408670331 ], [ -76.046001070776512, 8.011137881778362 ], [ -76.046557310140969, 8.011122669866976 ], [ -76.046947600269107, 8.0108530165493 ], [ -76.047262875438861, 8.010571764825102 ], [ -76.047592954944008, 8.010376518264026 ], [ -76.047793957628144, 8.010275136826099 ], [ -76.048059653644572, 8.01015910029013 ], [ -76.048504591140158, 8.009905920849222 ], [ -76.049137276322838, 8.009788129365376 ], [ -76.049720108246063, 8.009778168776798 ], [ -76.050238971100043, 8.009933491862872 ], [ -76.050766066959426, 8.010303961342407 ], [ -76.051011797630011, 8.010525146043948 ], [ -76.051284237319038, 8.010922400127448 ], [ -76.051280693325793, 8.011571106825448 ], [ -76.051531719260623, 8.012782941536774 ], [ -76.051547790872817, 8.012860527198994 ], [ -76.051673878807392, 8.01352025940467 ], [ -76.052003506943507, 8.014226408598301 ], [ -76.052353986611976, 8.015276757736455 ], [ -76.052779748356727, 8.016020700962143 ], [ -76.054609564561147, 8.017427378882497 ], [ -76.055303336813395, 8.018036137156882 ], [ -76.055899407970301, 8.018281935352176 ], [ -76.05646127312616, 8.018272094699441 ], [ -76.057070234330681, 8.018333693466088 ], [ -76.057818803224706, 8.01836835134298 ], [ -76.058682692724545, 8.018440708241103 ], [ -76.060259088096799, 8.019026081887425 ], [ -76.060566617603939, 8.019429132314647 ], [ -76.060705797314426, 8.01976789097197 ] ] ], [ [ [ -76.064727713610594, 8.018728039589657 ], [ -76.064766714540895, 8.018621804342313 ], [ -76.064762256527558, 8.017703698754646 ], [ -76.064721463101037, 8.017206577048338 ], [ -76.064699209363269, 8.016575472295258 ], [ -76.064870333670214, 8.016249476003859 ], [ -76.065519791744165, 8.015634258941539 ], [ -76.065908510696332, 8.015046250103687 ], [ -76.066090261891077, 8.014560358325671 ], [ -76.065798897478928, 8.013834913809005 ], [ -76.065642692077901, 8.013280966241505 ], [ -76.065495001765569, 8.013042990489541 ], [ -76.065556280250931, 8.011292107801255 ], [ -76.065915127373813, 8.010562131517942 ], [ -76.06652915551507, 8.010101501842737 ], [ -76.067219117562189, 8.009926024663379 ], [ -76.067651276456431, 8.009818301489222 ], [ -76.068196352462493, 8.009634393318152 ], [ -76.069057243855994, 8.009166714181468 ], [ -76.069468570357614, 8.008888107655585 ], [ -76.070340750248491, 8.008648528213861 ], [ -76.070588715698008, 8.008341287852369 ], [ -76.070981033007712, 8.007679908776449 ], [ -76.07098707290838, 8.007669726018324 ], [ -76.071291252706544, 8.006807686049797 ], [ -76.071555985126224, 8.006003047745196 ], [ -76.072146735761962, 8.005158578667482 ], [ -76.072430840087847, 8.004392101527905 ], [ -76.072593748932718, 8.003712577087056 ], [ -76.072770899866512, 8.003092550584768 ], [ -76.072984421736848, 8.002526583398804 ], [ -76.07332758487513, 8.001963321162371 ], [ -76.073657690651274, 8.001468162368203 ], [ -76.074125254165864, 8.000884066192098 ], [ -76.074666445178352, 8.000342876419563 ], [ -76.075289091436687, 7.999720229131567 ], [ -76.075678694613075, 7.999495676018896 ], [ -76.076102194153663, 7.999112778966627 ], [ -76.076164360043805, 7.998747350977061 ], [ -76.076094872516293, 7.998269498657419 ], [ -76.07605398021046, 7.99775325318599 ], [ -76.076052023861777, 7.997351584249988 ], [ -76.075992223978375, 7.996892812717781 ], [ -76.075897062925421, 7.996574988244325 ], [ -76.076202878069083, 7.995924984053809 ], [ -76.076455019720441, 7.99538906206038 ], [ -76.076931924427967, 7.994812927325292 ], [ -76.077399468072159, 7.99428465758835 ], [ -76.077829892343033, 7.994014788342276 ], [ -76.078371887444163, 7.993630442254653 ], [ -76.078491075962603, 7.993332471324644 ], [ -76.078491075826051, 7.992562373829202 ], [ -76.078693733922549, 7.99175174446579 ], [ -76.079382767934362, 7.991001912733739 ], [ -76.079889411586464, 7.990535801421821 ], [ -76.081145886365775, 7.990414206495868 ], [ -76.082037578223648, 7.989968360721702 ], [ -76.082483425003645, 7.989056403249322 ], [ -76.082916262123206, 7.988333226095965 ], [ -76.083668969638524, 7.987552686083911 ], [ -76.083777045289466, 7.987210448034659 ], [ -76.084236409915562, 7.98670152545763 ], [ -76.084398536215687, 7.985850364482475 ], [ -76.084585615528113, 7.985225039290364 ], [ -76.084751857797087, 7.983904438327842 ], [ -76.084871630834868, 7.983034258690277 ], [ -76.085050449063758, 7.982181518747786 ], [ -76.085018631094229, 7.981273539182351 ], [ -76.085136953681257, 7.980249226303571 ], [ -76.085533814051047, 7.97900401690133 ], [ -76.085742164643264, 7.978448310644485 ], [ -76.08566521587511, 7.978149782246428 ], [ -76.085585190750038, 7.977549888243948 ], [ -76.085904670899438, 7.97636263020568 ], [ -76.085938731391678, 7.975146007144907 ], [ -76.085932499302928, 7.975113325892615 ], [ -76.086250310280519, 7.974166388447861 ], [ -76.086669918402421, 7.972500323391705 ], [ -76.087081904667357, 7.9708332961469 ], [ -76.087501520890115, 7.969583032840305 ], [ -76.08764849181506, 7.96913718602579 ], [ -76.087748618394556, 7.969102259261555 ], [ -76.088333722319533, 7.96626303856401 ], [ -76.088848629698546, 7.963654429650723 ], [ -76.089414185181695, 7.961595489073444 ], [ -76.089453048992468, 7.959730376659617 ], [ -76.089481519273505, 7.959351497510315 ], [ -76.089584564999242, 7.958666972013536 ], [ -76.089739281466194, 7.957934598642765 ], [ -76.089887046543723, 7.957252467945235 ], [ -76.089927975365256, 7.956793211547716 ], [ -76.090053562387737, 7.955989250999151 ], [ -76.090115165189303, 7.955343401585093 ], [ -76.090221814139795, 7.953607072522273 ], [ -76.090011983860052, 7.951869913446145 ], [ -76.090609270998272, 7.95074564617233 ], [ -76.090813722510489, 7.949638851189357 ], [ -76.091064434447702, 7.948834147261317 ], [ -76.091134149107788, 7.947724557182175 ], [ -76.091518463641592, 7.946616891686584 ], [ -76.092085411556198, 7.946076185041164 ], [ -76.093852366926455, 7.946153681990729 ], [ -76.093975490430793, 7.946620516640802 ], [ -76.094321110624662, 7.946676221286926 ], [ -76.094640244909371, 7.946697542769424 ], [ -76.09526830076112, 7.946734069844555 ], [ -76.095435273495127, 7.946957722785576 ], [ -76.095635903102973, 7.947233919499564 ], [ -76.095969975092686, 7.94781092089764 ], [ -76.096533992113436, 7.948004389495071 ], [ -76.096738990610419, 7.948251761114 ], [ -76.096844329427554, 7.948691465068276 ], [ -76.09684685524644, 7.949207890890448 ], [ -76.096867630666893, 7.949532954649352 ], [ -76.097014528290629, 7.950025659788574 ], [ -76.09735064097913, 7.950219190733975 ], [ -76.098273753860582, 7.950464893613577 ], [ -76.099830276559373, 7.951163489691496 ], [ -76.100394054273238, 7.951540592381864 ], [ -76.100945577586316, 7.951674493937283 ], [ -76.10157870508425, 7.951671408498648 ], [ -76.102431005749949, 7.951836910825794 ], [ -76.102981888289804, 7.952200130563106 ], [ -76.103899467376507, 7.952534708924239 ], [ -76.104749789904972, 7.952765321472473 ], [ -76.105119353986169, 7.952922026669127 ], [ -76.106091280878672, 7.953344449448766 ], [ -76.106497286979661, 7.953081948672819 ], [ -76.10728182885309, 7.952820440187055 ], [ -76.108155539575151, 7.952568191414473 ], [ -76.108605358601665, 7.952593461264456 ], [ -76.109218303120983, 7.952684495877542 ], [ -76.109662923606024, 7.953066466809165 ], [ -76.110363480132023, 7.954238327587686 ], [ -76.110432019660863, 7.954915600693094 ], [ -76.110846161921657, 7.955681097049602 ], [ -76.111255324655502, 7.956401459183103 ], [ -76.111995589837406, 7.95756398497077 ], [ -76.112248938272174, 7.957873559101637 ], [ -76.112286975637716, 7.958291779378172 ], [ -76.112403577744104, 7.958418995383797 ], [ -76.113009219300892, 7.958850096896573 ], [ -76.113455548846616, 7.959385857276187 ], [ -76.11380571340581, 7.959874271764376 ], [ -76.114396353846871, 7.960493003943357 ], [ -76.114710885957123, 7.960808342245143 ], [ -76.114904141056712, 7.960840536858074 ], [ -76.115203271634499, 7.961060363949298 ], [ -76.116067340664642, 7.961276664553995 ], [ -76.116613142860018, 7.961268407133074 ], [ -76.11711208390436, 7.961426928544804 ], [ -76.118509029423748, 7.961500870280875 ], [ -76.11977586993406, 7.961609396646579 ], [ -76.120103182163859, 7.961771558589591 ], [ -76.121539562936775, 7.961825653976408 ], [ -76.121936555240239, 7.962024452221836 ], [ -76.122422571666149, 7.962245783328246 ], [ -76.123078646600547, 7.962086758998669 ], [ -76.123538966695321, 7.962126407180778 ], [ -76.124117831678078, 7.962267479613637 ], [ -76.124922346925047, 7.96252124749474 ], [ -76.126076049364215, 7.963202618778292 ], [ -76.126844646360496, 7.963257705612476 ], [ -76.127421080000616, 7.963426998952258 ], [ -76.127999417348178, 7.963978821236908 ], [ -76.12848068449803, 7.964301600273002 ], [ -76.129012695421309, 7.964697274849439 ], [ -76.129481211368088, 7.964870458278988 ], [ -76.129807468011549, 7.96488797061282 ], [ -76.130268638239144, 7.964909550656095 ], [ -76.130758916325874, 7.965224749915755 ], [ -76.131041088876145, 7.966029477848275 ], [ -76.131195498651806, 7.966710662912599 ], [ -76.131220056900418, 7.967290968975093 ], [ -76.131338892566205, 7.968036329825616 ], [ -76.131344171125832, 7.968743276950734 ], [ -76.131305862174358, 7.969107601864474 ], [ -76.131308246974839, 7.969585763528291 ], [ -76.131771004922228, 7.970042515719965 ], [ -76.132388207424867, 7.970689770227703 ], [ -76.132795877161143, 7.97114236970336 ], [ -76.132989855256895, 7.972063923047572 ], [ -76.133975882435294, 7.97312233263303 ], [ -76.134019437391245, 7.974602689554755 ], [ -76.134214590335446, 7.975049492925004 ], [ -76.134577247953786, 7.975812028344784 ], [ -76.135141141059279, 7.976375917346179 ], [ -76.135308471021688, 7.976859412490001 ], [ -76.136241084243039, 7.977632822542088 ], [ -76.136259926686719, 7.977642720263509 ], [ -76.130729120667823, 7.979050280597657 ], [ -76.120095108479077, 7.982774870909816 ], [ -76.117218838450128, 7.98497242145723 ], [ -76.114241013621182, 7.986773480068218 ], [ -76.108990514421151, 7.992059251160651 ], [ -76.106525087897637, 7.996835106005418 ], [ -76.104762906149404, 8.002897693334825 ], [ -76.094233829142951, 8.007911500129735 ], [ -76.09176084759531, 8.011198678696662 ], [ -76.08869531040277, 8.015481199941702 ], [ -76.086120733542131, 8.018371877639979 ], [ -76.081051618705786, 8.020182968561461 ], [ -76.074378245462384, 8.019719109184638 ], [ -76.066505241232349, 8.018268453060962 ], [ -76.064727713610594, 8.018728039589657 ] ] ] ] } }
]
}
