{
"type": "FeatureCollection",
"name": "reservas_civiles",
"crs": { "type": "name", "properties": { "name": "urn:ogc:def:crs:OGC:1.3:CRS84" } },
"features": [
{ "type": "Feature", "properties": { "CODIGO": null, "IDAP": 0, "NOM_RNSC": "RNSC Horizontes", "NOMENCLAT": null, "AC_ADT": "0202 (21 julio de 2005)", "FECHAACT": null, "ORG": "vectorizado a partir de plano escaneado", "OBSERV": "Local", "AREA_ha": 537.49097619700001, "SHAPE_Leng": 15564.140437599999, "SHAPE_Area": 5374909.7619700003 }, "geometry": { "type": "MultiPolygon", "coordinates": [ [ [ [ -76.257008961855874, 8.357074603175594 ], [ -76.257978808542177, 8.356364468673133 ], [ -76.259102203867087, 8.357019632009068 ], [ -76.263740274676138, 8.354685079928352 ], [ -76.264329349254595, 8.354389566198828 ], [ -76.266514274222132, 8.352666360042859 ], [ -76.266457567288967, 8.352766815863035 ], [ -76.266238038658287, 8.353222116452553 ], [ -76.26615853432196, 8.353300272421016 ], [ -76.265173437429652, 8.354099771239898 ], [ -76.264202617027593, 8.354870716352819 ], [ -76.262903430851452, 8.355755879899094 ], [ -76.261518584605611, 8.356626759484978 ], [ -76.26046210422102, 8.357069340836501 ], [ -76.259879544069477, 8.357315107834994 ], [ -76.259774935770722, 8.357329200096331 ], [ -76.259178577054655, 8.357461244410532 ], [ -76.259011606803796, 8.357516368853872 ], [ -76.25841946402825, 8.357805406251632 ], [ -76.258120715315798, 8.357826008594097 ], [ -76.25770668883294, 8.357854561152323 ], [ -76.257292662140742, 8.357983051890729 ], [ -76.256864358891846, 8.358339972543025 ], [ -76.2561790749225, 8.358682616483398 ], [ -76.255608004023799, 8.358982426819528 ], [ -76.255420117165116, 8.359164050763354 ], [ -76.255387244449807, 8.359178469870198 ], [ -76.25455568181367, 8.359630379935805 ], [ -76.254658364321173, 8.35906521634854 ], [ -76.257008961855874, 8.357074603175594 ] ] ], [ [ [ -76.266286111657578, 8.351908460497974 ], [ -76.268249618686667, 8.349753765750116 ], [ -76.268537583713368, 8.350005410491047 ], [ -76.268388638468792, 8.350179952076269 ], [ -76.267991285236917, 8.350814628196876 ], [ -76.267388925290277, 8.35139394977384 ], [ -76.266816357133735, 8.352131223157533 ], [ -76.266544347160661, 8.352613086271889 ], [ -76.266286111657578, 8.351908460497974 ] ] ], [ [ [ -76.281969671139265, 8.313505750000878 ], [ -76.28349157195224, 8.312277361245538 ], [ -76.287004750389556, 8.309732485356824 ], [ -76.288384226767178, 8.308941476682138 ], [ -76.289100682216983, 8.308223322835978 ], [ -76.290398402345858, 8.307343121145065 ], [ -76.291070162945516, 8.306624873273014 ], [ -76.290415985694253, 8.306007837250887 ], [ -76.291551259149045, 8.304422553420494 ], [ -76.292126488076377, 8.303555742054211 ], [ -76.293269491714483, 8.301822098714085 ], [ -76.294120208679004, 8.300992923115844 ], [ -76.295734220891859, 8.302079220606258 ], [ -76.296838618575592, 8.30102056913743 ], [ -76.298109270590928, 8.298753033797627 ], [ -76.299133247042604, 8.297060739012204 ], [ -76.299289569423962, 8.297390737090486 ], [ -76.299456411524943, 8.297926266123801 ], [ -76.299709472305196, 8.298569746841919 ], [ -76.299767114740121, 8.298713630450123 ], [ -76.299754220380237, 8.298894151537255 ], [ -76.299906506387856, 8.299351006456556 ], [ -76.300096863325493, 8.299979184605307 ], [ -76.300096863092008, 8.300740613177631 ], [ -76.300393019121216, 8.301632397945736 ], [ -76.300782148057579, 8.302168288204236 ], [ -76.301428404215102, 8.302875308238619 ], [ -76.301895698590158, 8.30374972385291 ], [ -76.302065904987998, 8.304146872103509 ], [ -76.302418890938185, 8.304970506573056 ], [ -76.302767686983088, 8.305772735813264 ], [ -76.303025374994931, 8.306368642311064 ], [ -76.303325758881158, 8.307063281399786 ], [ -76.303639675261564, 8.307900387441421 ], [ -76.30374431282327, 8.308702615223183 ], [ -76.30373568308255, 8.308808710732986 ], [ -76.303599612529098, 8.309037939265979 ], [ -76.303355939468332, 8.309461697203409 ], [ -76.303271796541182, 8.309621401028616 ], [ -76.302974289476012, 8.310150493626809 ], [ -76.302714780934579, 8.310681629723916 ], [ -76.302516462875403, 8.311105126658669 ], [ -76.302386714933775, 8.311422087014988 ], [ -76.302073057490972, 8.312005471303939 ], [ -76.301737763685964, 8.312267102094289 ], [ -76.301220189001839, 8.312579449362193 ], [ -76.300776863712898, 8.312786330239767 ], [ -76.300372374379606, 8.313046089207504 ], [ -76.299997880922248, 8.313093358542924 ], [ -76.299479631561368, 8.313083823045417 ], [ -76.298984036041702, 8.312969121113817 ], [ -76.298465763105796, 8.312853425672042 ], [ -76.297877767138218, 8.312842004240455 ], [ -76.297496507340185, 8.312996598100847 ], [ -76.297122650449069, 8.313258438551497 ], [ -76.296913776614872, 8.31344760451014 ], [ -76.296603123221175, 8.313728905311462 ], [ -76.295992610875274, 8.314254080975816 ], [ -76.295652432566442, 8.314552019182115 ], [ -76.295043013283205, 8.314910501757248 ], [ -76.294745397121389, 8.315085569152757 ], [ -76.29359437293158, 8.316620267730515 ], [ -76.293291851460353, 8.317124471705428 ], [ -76.292443347859603, 8.31853864373536 ], [ -76.291466721682966, 8.320457014148509 ], [ -76.291336879573961, 8.320661766984847 ], [ -76.291186329858732, 8.320899171248527 ], [ -76.2905598538742, 8.321887074918459 ], [ -76.290350576831955, 8.322340509320201 ], [ -76.290176180284746, 8.322933460303368 ], [ -76.289932022856732, 8.323456653541589 ], [ -76.289676768376864, 8.323882077161795 ], [ -76.289618106782356, 8.323979845911353 ], [ -76.2894437100083, 8.324537920768369 ], [ -76.289199553293187, 8.325479668610633 ], [ -76.289199552823987, 8.325710951365181 ], [ -76.289199552494281, 8.326064715660019 ], [ -76.288988512890739, 8.326641919197055 ], [ -76.288901556819198, 8.326850143044606 ], [ -76.288397324276133, 8.327502679539791 ], [ -76.288253256937807, 8.327830521704243 ], [ -76.288030656149886, 8.328220073180571 ], [ -76.28802482855933, 8.328230271248035 ], [ -76.288017594672723, 8.328233165781603 ], [ -76.287525142084164, 8.32843014685589 ], [ -76.286939795150417, 8.328501532414315 ], [ -76.286554322071282, 8.328615747219821 ], [ -76.285968975233047, 8.328901281904697 ], [ -76.28561205455992, 8.329286753412948 ], [ -76.285312243074571, 8.329743608650414 ], [ -76.284969600591097, 8.330043422487659 ], [ -76.28469834229368, 8.330314680587183 ], [ -76.284498468226445, 8.33054310994876 ], [ -76.284227209148384, 8.330871473836755 ], [ -76.283955950947217, 8.331428269579908 ], [ -76.283591853061111, 8.331909397451048 ], [ -76.282354984218898, 8.329107478283621 ], [ -76.278633207046255, 8.327935241922136 ], [ -76.276110519665465, 8.326817347031113 ], [ -76.272809759662664, 8.323769060677147 ], [ -76.272852154101557, 8.321269142927656 ], [ -76.273353890563399, 8.316336925362428 ], [ -76.272991242780137, 8.315216004369754 ], [ -76.27380373592932, 8.314898671844471 ], [ -76.27677568896398, 8.314815704215036 ], [ -76.279159171562242, 8.314768613936213 ], [ -76.281969671139265, 8.313505750000878 ] ] ] ] } },
{ "type": "Feature", "properties": { "CODIGO": null, "IDAP": 0, "NOM_RNSC": "RNSC Paraiso de los Deseos", "NOMENCLAT": null, "AC_ADT": "233 (18 octubre de 2007)", "FECHAACT": null, "ORG": "Informacion Suministrada por Catastro IGAC", "OBSERV": "Local", "AREA_ha": 10.882647501099999, "SHAPE_Leng": 1741.85935907, "SHAPE_Area": 108826.475011 }, "geometry": { "type": "Polygon", "coordinates": [ [ [ -76.132553871108101, 8.692883931490467 ], [ -76.126360939077529, 8.690955880611162 ], [ -76.126490944943157, 8.690326887276662 ], [ -76.130223820679163, 8.690563348282843 ], [ -76.131573597347213, 8.690648841654946 ], [ -76.132023419231643, 8.690905208793138 ], [ -76.133078992743606, 8.691487648373045 ], [ -76.133295421430319, 8.691643592447059 ], [ -76.133126880683264, 8.691589947974649 ], [ -76.132965761914747, 8.691953790379143 ], [ -76.132553871108101, 8.692883931490467 ] ] ] } },
{ "type": "Feature", "properties": { "CODIGO": null, "IDAP": 0, "NOM_RNSC": "RNSC Santa Isabel", "NOMENCLAT": null, "AC_ADT": "0026 (31 julio de 2012)", "FECHAACT": null, "ORG": "Información suministrada por Catastro IGAC", "OBSERV": "Local", "AREA_ha": 290.35045561200002, "SHAPE_Leng": 10510.501047, "SHAPE_Area": 2903504.5561199998 }, "geometry": { "type": "MultiPolygon", "coordinates": [ [ [ [ -75.697350328709319, 8.583426299525641 ], [ -75.694464352864372, 8.58319527191615 ], [ -75.693448358743723, 8.583371260603531 ], [ -75.692544363511999, 8.583579250196212 ], [ -75.691553370738418, 8.583587240026448 ], [ -75.691173373799572, 8.583548237106418 ], [ -75.691470393610246, 8.581392256535656 ], [ -75.692086413653939, 8.578950281486307 ], [ -75.694202396251384, 8.579057301686651 ], [ -75.695784384894012, 8.579008317660836 ], [ -75.696206388354057, 8.578357326759606 ], [ -75.697039402359039, 8.576316351218095 ], [ -75.696631417333663, 8.575170355138063 ], [ -75.695952433908531, 8.574014357579996 ], [ -75.695296449821015, 8.572904360124056 ], [ -75.694405465966867, 8.571975358197614 ], [ -75.693388485612076, 8.570766356953103 ], [ -75.693836483618071, 8.570630362988064 ], [ -75.694951479802086, 8.570177377301384 ], [ -75.696360470536604, 8.570088392334247 ], [ -75.697608461022753, 8.570038405193365 ], [ -75.699013449919704, 8.570087418170843 ], [ -75.700249440203379, 8.570184430284657 ], [ -75.701569427140839, 8.570437441140966 ], [ -75.702601418295529, 8.57057745013504 ], [ -75.703648410441303, 8.570523460938215 ], [ -75.704409406430102, 8.570368470323022 ], [ -75.704790392873221, 8.571451465315027 ], [ -75.705461375973456, 8.572630463015827 ], [ -75.706593351685612, 8.574189462543533 ], [ -75.707149340789329, 8.574839462752154 ], [ -75.708134319999715, 8.576209462650079 ], [ -75.708763304730226, 8.57718346059942 ], [ -75.708876299703618, 8.577638458628126 ], [ -75.709150287112365, 8.578638453944622 ], [ -75.70948327491152, 8.579621449664645 ], [ -75.709825265369531, 8.580314447614027 ], [ -75.710041261176954, 8.580599447031632 ], [ -75.70986626168802, 8.580662445117266 ], [ -75.709108264749261, 8.580942435557638 ], [ -75.708824266996331, 8.580956432129698 ], [ -75.708413268864504, 8.581065427751801 ], [ -75.707813271261671, 8.581251419869034 ], [ -75.707560270693619, 8.581454416027967 ], [ -75.707196272543911, 8.581594411575386 ], [ -75.706644277971989, 8.581498406708496 ], [ -75.706297279184952, 8.581638401971922 ], [ -75.705917279424554, 8.581888396053175 ], [ -75.705711277771385, 8.582186391747875 ], [ -75.705583274240425, 8.582657387443144 ], [ -75.705060272489007, 8.583204377679619 ], [ -75.704870270286975, 8.583565373029391 ], [ -75.704805267496013, 8.583926369541212 ], [ -75.704819260801585, 8.584507365010063 ], [ -75.704849257046817, 8.584868362750937 ], [ -75.704848253278016, 8.585308359249687 ], [ -75.704736249446299, 8.585763354960502 ], [ -75.704719246504325, 8.586030352629768 ], [ -75.704448240417193, 8.586814343479727 ], [ -75.704368238072618, 8.587144340081268 ], [ -75.704208233741042, 8.587646335320175 ], [ -75.704193231140877, 8.587981332255168 ], [ -75.702994340731621, 8.589255893850876 ], [ -75.702229224845766, 8.590069296977617 ], [ -75.700763250715184, 8.588624293057027 ], [ -75.700495257546407, 8.588147293907451 ], [ -75.698847207027654, 8.586640412890286 ], [ -75.697787302727733, 8.585671286355666 ], [ -75.697732304623585, 8.585486286959586 ], [ -75.698473314235542, 8.583980305991298 ], [ -75.697350328709319, 8.583426299525641 ] ] ], [ [ [ -75.707275198483501, 8.58884435606088 ], [ -75.705587221575414, 8.587869347009407 ], [ -75.704835221096218, 8.588488334582161 ], [ -75.704267229670819, 8.588040332870348 ], [ -75.704304232554293, 8.587691335154942 ], [ -75.704375234921599, 8.587449337758585 ], [ -75.704472237644666, 8.587128341898755 ], [ -75.704559240968337, 8.586750345684147 ], [ -75.704688242725112, 8.586434349330421 ], [ -75.704840246314831, 8.585957353963988 ], [ -75.70488325021627, 8.585579357318261 ], [ -75.704969252779406, 8.585219361232252 ], [ -75.70496025658548, 8.584812364631549 ], [ -75.70491926034056, 8.584472366522435 ], [ -75.704873265304371, 8.584093369024053 ], [ -75.7049862689409, 8.583572374273423 ], [ -75.705155270855599, 8.583257378686067 ], [ -75.705365271537616, 8.583057381491669 ], [ -75.705655272541634, 8.582731387094004 ], [ -75.705731275023084, 8.582477390329375 ], [ -75.705786276288677, 8.582237391966421 ], [ -75.70601527785611, 8.581957397129086 ], [ -75.706374278232033, 8.581682402618336 ], [ -75.706638276162224, 8.581621405229209 ], [ -75.706962273301855, 8.581676408370159 ], [ -75.707258271118306, 8.581685411454034 ], [ -75.707602269835164, 8.581536416119144 ], [ -75.707844270306481, 8.581339419857317 ], [ -75.708207268829653, 8.581203424680172 ], [ -75.708525267531655, 8.581112427936409 ], [ -75.708894265164332, 8.58103643278041 ], [ -75.709107263273523, 8.581039434475288 ], [ -75.709487262148556, 8.580901439376444 ], [ -75.709840260285688, 8.580787444227221 ], [ -75.710126258823308, 8.580713447795304 ], [ -75.710439251125791, 8.581262446229363 ], [ -75.710717243429599, 8.581820444403792 ], [ -75.710875234067203, 8.582652440053025 ], [ -75.710795227317846, 8.583354434036126 ], [ -75.710609221627053, 8.584090426588334 ], [ -75.710421212601432, 8.585075416635446 ], [ -75.710021207906763, 8.585922406439563 ], [ -75.709671200011243, 8.586890394933958 ], [ -75.709478196011645, 8.587492388740845 ], [ -75.708891188670194, 8.588613374105972 ], [ -75.707275198483501, 8.58884435606088 ] ] ] ] } },
{ "type": "Feature", "properties": { "CODIGO": null, "IDAP": 2070559, "NOM_RNSC": "Santa Rosa", "NOMENCLAT": null, "AC_ADT": "0025", "FECHAACT": "2014-02-21T00:00:00", "ORG": "PNN", "OBSERV": null, "AREA_ha": 13.515638302899999, "SHAPE_Leng": 1618.218552, "SHAPE_Area": 135156.38302899999 }, "geometry": { "type": "Polygon", "coordinates": [ [ [ -75.573756316595734, 9.175551915761075 ], [ -75.57381241067047, 9.175441677642482 ], [ -75.573821976492283, 9.175427289526271 ], [ -75.573833976598422, 9.175419467703099 ], [ -75.573854440319266, 9.17542117713254 ], [ -75.573961630680813, 9.175444049906563 ], [ -75.574064020144519, 9.17546993153263 ], [ -75.574064847834279, 9.175093278279419 ], [ -75.574072645741438, 9.175087865416847 ], [ -75.57447191577171, 9.175085304934713 ], [ -75.57496573759002, 9.175081824543401 ], [ -75.575245795999621, 9.17507045189771 ], [ -75.576199221405787, 9.175040059765267 ], [ -75.576014845839538, 9.175606568366357 ], [ -75.575926114345663, 9.175881597822151 ], [ -75.57586167468574, 9.176153290826788 ], [ -75.575811611655041, 9.1764099791947 ], [ -75.575812073427727, 9.176519982222644 ], [ -75.575847054852005, 9.176827134847199 ], [ -75.575618152056052, 9.177134485570775 ], [ -75.575418510080851, 9.177408177836849 ], [ -75.575166435212125, 9.177991977227 ], [ -75.574662387393545, 9.179233575766247 ], [ -75.574540651969144, 9.179542529348465 ], [ -75.573909655909887, 9.179608438160169 ], [ -75.573821464057588, 9.179603827698717 ], [ -75.573339133243948, 9.179594345809255 ], [ -75.572969661277313, 9.179586805874917 ], [ -75.572709825263317, 9.179558142821364 ], [ -75.572172430785841, 9.179511256533718 ], [ -75.572006913783866, 9.17949699423497 ], [ -75.571999348664392, 9.179486350214924 ], [ -75.572038685071561, 9.179386900209842 ], [ -75.572261042413857, 9.178863922687999 ], [ -75.572418431279345, 9.178476799555352 ], [ -75.572553074304196, 9.178154087152468 ], [ -75.57281006527721, 9.177600603392483 ], [ -75.572824297953787, 9.177570720359848 ], [ -75.572957213604298, 9.177316080845372 ], [ -75.573139947290798, 9.176988297659108 ], [ -75.573237281449352, 9.176837229500594 ], [ -75.5732670664203, 9.176622475804187 ], [ -75.57328404867836, 9.176456930649667 ], [ -75.573475529185146, 9.176093112898876 ], [ -75.573629206390081, 9.175800552447141 ], [ -75.573697260558887, 9.175672927301513 ], [ -75.573756316595734, 9.175551915761075 ] ] ] } }
]
}
