{
"type": "FeatureCollection",
"name": "sinap_pnn_recorte",
"crs": { "type": "name", "properties": { "name": "urn:ogc:def:crs:OGC:1.3:CRS84" } },
"features": [
{ "type": "Feature", "properties": { "OBJECTID_1": 3, "NOM": "PARAMILLO", "NUM_RES_VI": "RESOLUCION 0163 DE 06/06/1977", "AREA_RES": 460000.0, "OBSERVACIO": null, "PN_CAT": "PNN", "NOM_DT": "DTCA", "Shape_Leng": 672989.80051299999, "Shape_Area": 5329630849.0699997 }, "geometry": { "type": "Polygon", "coordinates": [ [ [ -75.712944958918456, 7.534549767424768 ], [ -75.725067329187652, 7.51319310342735 ], [ -75.728670588333202, 7.511683313375332 ], [ -75.731027498388528, 7.508897880068039 ], [ -75.736812639841844, 7.506112437690192 ], [ -75.743669103050365, 7.504826859164077 ], [ -75.749454243646881, 7.502041416882778 ], [ -75.754810852958641, 7.500755829262604 ], [ -75.756953497428128, 7.496684808126065 ], [ -75.76466701630261, 7.495613485876857 ], [ -75.768952312405858, 7.491542456245398 ], [ -75.783038255109787, 7.487749975402175 ], [ -75.782389303385031, 7.484467441936311 ], [ -75.786999483884173, 7.479766477417902 ], [ -75.787756736789547, 7.477949409588214 ], [ -75.788852358029217, 7.471477137598869 ], [ -75.787777973349137, 7.467870707250298 ], [ -75.788079017222742, 7.459727191573285 ], [ -75.792558186822575, 7.454898550294916 ], [ -75.795263931137782, 7.453706754892974 ], [ -75.79742972379016, 7.450453362218739 ], [ -75.801530101747318, 7.446533267291456 ], [ -75.806960803902001, 7.44595834518118 ], [ -75.809564750695657, 7.447351748907417 ], [ -75.811375430777289, 7.447203141370989 ], [ -75.815489491180657, 7.444574921901085 ], [ -75.820924216688951, 7.444387425411174 ], [ -75.825306747441786, 7.442660719554963 ], [ -75.825675540626875, 7.440847891919467 ], [ -75.824623407680619, 7.439308736607799 ], [ -75.824603923368912, 7.43750007790843 ], [ -75.828037239111765, 7.4317782497275 ], [ -75.828137455220983, 7.429063891065654 ], [ -75.826033295285541, 7.425985554447556 ], [ -75.823560054101819, 7.424694163281681 ], [ -75.81868952322921, 7.417123161296223 ], [ -75.818677053580728, 7.415960445323337 ], [ -75.823922371099982, 7.410219348250571 ], [ -75.829594639241165, 7.408091418849685 ], [ -75.833007069647024, 7.400431906418906 ], [ -75.836101037561818, 7.387220132293121 ], [ -75.835849832931174, 7.375852984786765 ], [ -75.834402153123847, 7.373607376788851 ], [ -75.834250635205251, 7.371541745653354 ], [ -75.836930856565331, 7.368024697069873 ], [ -75.842597484370856, 7.357175312748447 ], [ -75.845910866188461, 7.353445956976162 ], [ -75.845570045427408, 7.3453491543348 ], [ -75.851768591214167, 7.336991847827269 ], [ -75.850336586717916, 7.330855132923565 ], [ -75.850690334262907, 7.32450198673908 ], [ -75.853214509875244, 7.310772109091229 ], [ -75.855554450887169, 7.307502025886856 ], [ -75.858597574853263, 7.305452708106354 ], [ -75.861824232677819, 7.296819216325417 ], [ -75.868719333219587, 7.29147694425993 ], [ -75.870874176050052, 7.28655271201252 ], [ -75.870405803121685, 7.279749159149024 ], [ -75.871393510342415, 7.266059193787823 ], [ -75.870368595443381, 7.263759946752335 ], [ -75.874987722612872, 7.262648398111823 ], [ -75.881748605848315, 7.256035728934031 ], [ -75.884206280331497, 7.246687482774842 ], [ -75.883833048398131, 7.243315018130652 ], [ -75.881019497348689, 7.239721874197527 ], [ -75.880270993819309, 7.233574307045761 ], [ -75.885686666694852, 7.222268155850503 ], [ -75.884483140824756, 7.220312172549521 ], [ -75.883856196880103, 7.21073782104503 ], [ -75.881206589151063, 7.196276112814472 ], [ -75.879333772872542, 7.193145870987744 ], [ -75.877953457268262, 7.186860501649214 ], [ -75.873923201731017, 7.178502900314578 ], [ -75.874552642155805, 7.175871349034502 ], [ -75.881931988385759, 7.165294305602863 ], [ -75.885331661917633, 7.163683743248518 ], [ -75.887794474254775, 7.160455539644081 ], [ -75.893958768391997, 7.159340964107105 ], [ -75.894732954418018, 7.15631450368499 ], [ -75.893413598308655, 7.151500684447576 ], [ -75.896689404006409, 7.144638911379944 ], [ -75.898225235022977, 7.143024019124137 ], [ -75.897281034252075, 7.140351657234777 ], [ -75.898257430709279, 7.137354751020551 ], [ -75.901418700890787, 7.134416658133674 ], [ -75.904040002875718, 7.134796556353554 ], [ -75.905786785799549, 7.137443693245165 ], [ -75.90758173723826, 7.138563847578306 ], [ -75.909906837396107, 7.13806274092553 ], [ -75.908859329594847, 7.140470172093655 ], [ -75.909422439036589, 7.14215317366833 ], [ -75.914249051243786, 7.143779052694188 ], [ -75.918828688852514, 7.142220089806487 ], [ -75.920729110928889, 7.139893794818503 ], [ -75.92163000523044, 7.136686341601346 ], [ -75.922569749792814, 7.136318212220195 ], [ -75.923125134223028, 7.138893296360948 ], [ -75.924739083139244, 7.141371775414462 ], [ -75.926340643610374, 7.141269995689162 ], [ -75.9277285049032, 7.142986055958019 ], [ -75.929412073555355, 7.140905602632959 ], [ -75.933683617224958, 7.142489008665533 ], [ -75.933183615210737, 7.145447340982011 ], [ -75.934913769858625, 7.145829421745341 ], [ -75.936117907937074, 7.147560610220777 ], [ -75.935334388224589, 7.1494791333471 ], [ -75.938925969051667, 7.150423182244516 ], [ -75.941693005102024, 7.149075843041687 ], [ -75.940640431339929, 7.147233183008278 ], [ -75.941041394046408, 7.143866853578001 ], [ -75.950545417406502, 7.13894411356714 ], [ -75.948006732845158, 7.136992118649223 ], [ -75.94287886240204, 7.136830926180801 ], [ -75.940357946690369, 7.134783548334216 ], [ -75.941632827260079, 7.131379832285271 ], [ -75.942657516663616, 7.130780987632378 ], [ -75.945655788235754, 7.13125009701688 ], [ -75.955033930108087, 7.12707284966386 ], [ -75.956584090364061, 7.12518288495184 ], [ -75.955842871747379, 7.122338378050848 ], [ -75.951676260907206, 7.125288004610456 ], [ -75.949445691323817, 7.123591330359923 ], [ -75.947533231049974, 7.123479507822099 ], [ -75.947521489836006, 7.122067581302626 ], [ -75.948949712798949, 7.121533145640409 ], [ -75.949012729341163, 7.118057411927064 ], [ -75.949846311660409, 7.116555302843735 ], [ -75.954865729680918, 7.113885635776731 ], [ -75.954742858340566, 7.109348990617788 ], [ -75.953790509165444, 7.109452971288857 ], [ -75.951942396424997, 7.112111786018541 ], [ -75.949740832174314, 7.112433050620155 ], [ -75.946545829727754, 7.11156291635854 ], [ -75.941681911010193, 7.116095662261625 ], [ -75.940304030341679, 7.115831889827766 ], [ -75.941845799080127, 7.111839327189339 ], [ -75.939388907008976, 7.106888415020256 ], [ -75.943522487304548, 7.10432201023121 ], [ -75.948112581701551, 7.103929886327933 ], [ -75.948658138270318, 7.102130362765462 ], [ -75.946304731399124, 7.102308534898695 ], [ -75.942726678184385, 7.100502903087284 ], [ -75.940282192280932, 7.101690341098022 ], [ -75.939491818280857, 7.102943967411728 ], [ -75.933271120307083, 7.103604193054902 ], [ -75.9285008861536, 7.106552751348404 ], [ -75.925947082582766, 7.106473878736608 ], [ -75.927481370370941, 7.109036529570969 ], [ -75.92701989587701, 7.110081181426919 ], [ -75.925492069211387, 7.108354591663264 ], [ -75.923048894088524, 7.107880604776791 ], [ -75.922244164702136, 7.105630019417327 ], [ -75.92026251707135, 7.104613144636688 ], [ -75.917930509107677, 7.10463916880543 ], [ -75.914403533930738, 7.103105754208875 ], [ -75.913617157625154, 7.105481078559626 ], [ -75.912386546740194, 7.106009791117252 ], [ -75.910347110772662, 7.104466341662536 ], [ -75.911403295829416, 7.101368376132298 ], [ -75.911149630191659, 7.099206516994943 ], [ -75.913264523679061, 7.097739253587358 ], [ -75.914659581303184, 7.098217211794476 ], [ -75.91846400861759, 7.10222213542747 ], [ -75.924966150246334, 7.101561325073706 ], [ -75.926053093190518, 7.103218321123218 ], [ -75.928099510246298, 7.10360323240074 ], [ -75.929747074375172, 7.102714357636203 ], [ -75.931716889569458, 7.099775213973088 ], [ -75.93374591486608, 7.098908726363684 ], [ -75.934118914157963, 7.093370082111134 ], [ -75.936879364673658, 7.094623743888413 ], [ -75.939789178985109, 7.092331063591723 ], [ -75.940955452311826, 7.089335550441632 ], [ -75.945611168953107, 7.089891185181318 ], [ -75.947164490697617, 7.088576204663521 ], [ -75.947160510765485, 7.085952576113568 ], [ -75.948184303140224, 7.085665627417557 ], [ -75.949205625300308, 7.083848659179257 ], [ -75.947582863302515, 7.080401194234889 ], [ -75.949132924028135, 7.077438127787977 ], [ -75.946733102005183, 7.073055661421063 ], [ -75.946954869312634, 7.064182344948607 ], [ -75.945888578023414, 7.061838325606138 ], [ -75.943828057616699, 7.060235363246561 ], [ -75.94468973087973, 7.058251110821589 ], [ -75.943055426414773, 7.056145315726053 ], [ -75.945661106222801, 7.053990869236949 ], [ -75.94567067319818, 7.050965540169969 ], [ -75.946834243355781, 7.050825088715322 ], [ -75.947634579436297, 7.051980187317341 ], [ -75.948426722977047, 7.061027525373941 ], [ -75.950522214392038, 7.065338620896653 ], [ -75.950527064248249, 7.069270107225124 ], [ -75.952327755078116, 7.070663959410235 ], [ -75.954151371037355, 7.076906360855973 ], [ -75.956599082547683, 7.076789094854673 ], [ -75.957000513201862, 7.074660573408454 ], [ -75.958269859235372, 7.073417798665537 ], [ -75.959794443565258, 7.073880539379624 ], [ -75.960673337701522, 7.076200653969057 ], [ -75.963080365003734, 7.075211608945185 ], [ -75.962693145744808, 7.07339032816791 ], [ -75.964380038379474, 7.07078674985231 ], [ -75.962947100009913, 7.067020725298542 ], [ -75.966376257238153, 7.063781993114581 ], [ -75.964403188023866, 7.061729927346047 ], [ -75.964286667282423, 7.059308068792433 ], [ -75.96532330515582, 7.058342622269119 ], [ -75.968200285844205, 7.057777725560381 ], [ -75.969644479663344, 7.053347350922054 ], [ -75.970643362338322, 7.053227327014058 ], [ -75.97158184059397, 7.055498143338703 ], [ -75.97363549693182, 7.054737207085746 ], [ -75.975250040081377, 7.055464114551116 ], [ -75.975583386208058, 7.058664515092748 ], [ -75.973977145018438, 7.060693710950996 ], [ -75.975153056906038, 7.061967208383584 ], [ -75.978379258397794, 7.063090945565344 ], [ -75.978724660098408, 7.063994930088819 ], [ -75.975895829400173, 7.066834952811185 ], [ -75.974513178310914, 7.070741267839234 ], [ -75.976792293563989, 7.071849923601751 ], [ -75.978887857384152, 7.07134721760849 ], [ -75.980252460632656, 7.073012883311013 ], [ -75.9794427551209, 7.07463306714696 ], [ -75.975951946851893, 7.07712341203441 ], [ -75.976045883619676, 7.078000356638351 ], [ -75.978458560675506, 7.078513385251817 ], [ -75.978997649146308, 7.079609437392374 ], [ -75.978191151389012, 7.081165804334645 ], [ -75.975501531922589, 7.082211245314486 ], [ -75.975626263347493, 7.083550768132577 ], [ -75.974352182016219, 7.084286083958702 ], [ -75.975822733930443, 7.085926712907641 ], [ -75.976206951688312, 7.088679061997168 ], [ -75.978379571838403, 7.086520895001109 ], [ -75.97992670522315, 7.087159345667428 ], [ -75.984075421277311, 7.086181583238312 ], [ -75.985240725145644, 7.086884892401405 ], [ -75.985433394696599, 7.089587178106685 ], [ -75.986986097959189, 7.089975285948169 ], [ -75.987479102294685, 7.088047832964846 ], [ -75.988841990410052, 7.086929287106988 ], [ -75.987834645800064, 7.085898372144847 ], [ -75.988555454250758, 7.082461938151409 ], [ -75.990390855753304, 7.08338261335054 ], [ -75.993181606742695, 7.081591668285465 ], [ -75.995342738386924, 7.083603436636303 ], [ -75.996361967295101, 7.083280779779346 ], [ -75.997350635286693, 7.084433040350848 ], [ -75.998245932425164, 7.084002620807754 ], [ -75.9975248626602, 7.080789769053588 ], [ -75.998439024398209, 7.079526720342174 ], [ -75.997946254086216, 7.077017357126969 ], [ -75.99930853118471, 7.075134282131298 ], [ -75.998895845115669, 7.072806683550312 ], [ -75.999723677693055, 7.070750350226356 ], [ -75.998894568610609, 7.068817543950683 ], [ -76.009811884605057, 7.07029045843215 ], [ -76.019191697635421, 7.075451539590799 ], [ -76.030013315032861, 7.075375730674966 ], [ -76.027354230396838, 7.076012483559483 ], [ -76.024808314954726, 7.078227908723603 ], [ -76.022413263076317, 7.078516565220013 ], [ -76.019110686684655, 7.081582308370519 ], [ -76.024915681891898, 7.082431440838377 ], [ -76.027153250147535, 7.084232051236409 ], [ -76.028945048237404, 7.082856235982669 ], [ -76.030634626105723, 7.084453080689971 ], [ -76.032728150258819, 7.083520737770204 ], [ -76.034142924639099, 7.084590415771491 ], [ -76.034989739652048, 7.083302600217221 ], [ -76.036561585284971, 7.082935153336337 ], [ -76.040529659306983, 7.085235864029413 ], [ -76.041795152227394, 7.084038787399301 ], [ -76.043882423257571, 7.083661755217626 ], [ -76.044707714209395, 7.085358852202722 ], [ -76.047194034780375, 7.085567261793951 ], [ -76.04909694610798, 7.089111581599442 ], [ -76.048728132842328, 7.09124227024205 ], [ -76.046781519751875, 7.091956816442469 ], [ -76.042435075129802, 7.091162059418622 ], [ -76.041791118244745, 7.091689037862554 ], [ -76.043443011866131, 7.095045700162053 ], [ -76.041839105794608, 7.09842476669997 ], [ -76.043809326730653, 7.102075466913726 ], [ -76.043241618556735, 7.103926166672962 ], [ -76.040756959764835, 7.10382474663196 ], [ -76.035794729216363, 7.101006650949398 ], [ -76.034691426597945, 7.097729300922595 ], [ -76.03677440523299, 7.093931905941051 ], [ -76.034682560912017, 7.093338335555072 ], [ -76.034020781216967, 7.090990821890977 ], [ -76.032350506998981, 7.090503046203428 ], [ -76.028266837629275, 7.091147119950274 ], [ -76.027558840022124, 7.093548937277376 ], [ -76.025752129961461, 7.094830616661937 ], [ -76.021979726932116, 7.094388779726343 ], [ -76.022995461282648, 7.097957804583809 ], [ -76.019054633126942, 7.098957675016347 ], [ -76.022373682862678, 7.10220985474381 ], [ -76.019386991440612, 7.10680556381641 ], [ -76.018205769988825, 7.106962804720582 ], [ -76.013538797189014, 7.104343424789292 ], [ -76.011237646288592, 7.10417089520043 ], [ -76.01220972192624, 7.106500010947427 ], [ -76.010455437553631, 7.109926769431879 ], [ -76.013424145146445, 7.109687295818518 ], [ -76.014720674904808, 7.11203003075118 ], [ -76.018725364160431, 7.11370327837759 ], [ -76.016874286978776, 7.116560073074965 ], [ -76.018148367141933, 7.119676543859793 ], [ -76.017488968376284, 7.120961620072818 ], [ -76.014345690737116, 7.122075503926722 ], [ -76.01643046458048, 7.125148749325329 ], [ -76.015887281338067, 7.126946628287415 ], [ -76.012633628371361, 7.128092311800983 ], [ -76.010021559570262, 7.125199324274671 ], [ -76.008562354806344, 7.126359353557368 ], [ -76.006361338766183, 7.125984909963906 ], [ -76.006477580927097, 7.127261496194622 ], [ -76.008869245707118, 7.129245245978398 ], [ -76.00999685657375, 7.132309210733935 ], [ -76.014200369582255, 7.134066162696653 ], [ -76.014160512019771, 7.135604572730802 ], [ -76.011593144555547, 7.13917035368945 ], [ -76.017568908663065, 7.136436349974458 ], [ -76.020204782195393, 7.137070425830293 ], [ -76.021233999097646, 7.138959411768922 ], [ -76.020211563862944, 7.141779592158969 ], [ -76.020688614097054, 7.146477736220081 ], [ -76.020034344011478, 7.148021813581771 ], [ -76.022087282325671, 7.150035648038221 ], [ -76.02329952337891, 7.144740276847671 ], [ -76.024493904778296, 7.143656450550993 ], [ -76.025909730246454, 7.145546749013925 ], [ -76.026382298050436, 7.14828811137224 ], [ -76.029180667046887, 7.151552686839913 ], [ -76.029586202063825, 7.149596291105031 ], [ -76.031350054246232, 7.149157778808846 ], [ -76.031322348934765, 7.147067273073029 ], [ -76.032961254324846, 7.144705538630059 ], [ -76.029792383678839, 7.141832304819232 ], [ -76.033476544965325, 7.138502044212357 ], [ -76.030695002390104, 7.135842231389274 ], [ -76.032640806855497, 7.134457630997245 ], [ -76.03313153831931, 7.126883772549117 ], [ -76.038828483247357, 7.130052014176136 ], [ -76.041266321881309, 7.130238181231394 ], [ -76.045555759689677, 7.128510846241928 ], [ -76.046371987384347, 7.134146742398601 ], [ -76.04446452240893, 7.138178866170976 ], [ -76.045845961103254, 7.141125717063476 ], [ -76.045086470787098, 7.143579087820796 ], [ -76.045736609392591, 7.146884070706029 ], [ -76.044453876598055, 7.149378296662677 ], [ -76.040903851988162, 7.151629466161284 ], [ -76.041424641293204, 7.154509636048458 ], [ -76.042425597959593, 7.154898094138872 ], [ -76.050799360905359, 7.147795195885381 ], [ -76.055295823821339, 7.153368864565119 ], [ -76.055289428239334, 7.156243896151655 ], [ -76.057308455428114, 7.158806682361578 ], [ -76.060491141262276, 7.153648384952467 ], [ -76.064420407823363, 7.152828636337103 ], [ -76.063208570557023, 7.147582618870773 ], [ -76.060077143251789, 7.144663004306979 ], [ -76.061552490923916, 7.141921678377023 ], [ -76.064564560425211, 7.142627744999562 ], [ -76.066777596344025, 7.141106664256164 ], [ -76.066635742786872, 7.13834702112595 ], [ -76.064714569578243, 7.134665338856167 ], [ -76.065453146819721, 7.131242569447021 ], [ -76.066589524738035, 7.131014360581577 ], [ -76.070124358885948, 7.133960727997382 ], [ -76.073220905680969, 7.133941449680872 ], [ -76.075339143267669, 7.136576190201513 ], [ -76.076813969957882, 7.136196966589954 ], [ -76.079522992276523, 7.133205890876563 ], [ -76.079297999632971, 7.127087896724793 ], [ -76.076434530154131, 7.125564470744274 ], [ -76.077300021271398, 7.124391118708582 ], [ -76.076669699694961, 7.123248353696745 ], [ -76.077772562299131, 7.122301259848046 ], [ -76.07761592322143, 7.121088130330734 ], [ -76.076131644900784, 7.118806454104521 ], [ -76.072921830432989, 7.117058215635431 ], [ -76.074824658728389, 7.115000688301953 ], [ -76.076377298998807, 7.115250113908633 ], [ -76.077343544361014, 7.116573277913863 ], [ -76.079528355084605, 7.115490682895937 ], [ -76.08170588887252, 7.115495622759269 ], [ -76.084132346822926, 7.118262694895719 ], [ -76.08593696267026, 7.117079909844073 ], [ -76.087971485556949, 7.117684547909989 ], [ -76.089971055419269, 7.11387948235754 ], [ -76.091208915255422, 7.11475622871259 ], [ -76.090017002950646, 7.117884118330721 ], [ -76.091038963104921, 7.119435104401183 ], [ -76.090771345909999, 7.121733040403507 ], [ -76.088643146706389, 7.124179251209726 ], [ -76.090161911138225, 7.127111226388063 ], [ -76.090416197094143, 7.130454458987542 ], [ -76.088589840764257, 7.134479370027866 ], [ -76.088522853803525, 7.14130900876386 ], [ -76.090376213223578, 7.139226858208129 ], [ -76.091344263805382, 7.134851496834075 ], [ -76.092873889249375, 7.132516982034738 ], [ -76.094743623850562, 7.130651782701516 ], [ -76.096993329256549, 7.129783884972697 ], [ -76.094983519203609, 7.126553282919957 ], [ -76.095497292586941, 7.124424966702679 ], [ -76.099137130614153, 7.121665163415727 ], [ -76.0995343213349, 7.118520116066414 ], [ -76.103794627019226, 7.115403428889854 ], [ -76.105619931272145, 7.110172583746888 ], [ -76.10721947168966, 7.110215577973504 ], [ -76.108688647928972, 7.11129452581095 ], [ -76.11316338139325, 7.116239635309595 ], [ -76.11611994293655, 7.12137282432345 ], [ -76.117116857886302, 7.126274723596236 ], [ -76.118733888304291, 7.129146385835789 ], [ -76.119540997879653, 7.129189406879288 ], [ -76.121251560767362, 7.126888506919781 ], [ -76.120267106430788, 7.125484117171244 ], [ -76.121360302153818, 7.124029735360019 ], [ -76.121559395256142, 7.121607876828153 ], [ -76.12332440505034, 7.120318292381375 ], [ -76.121454077389515, 7.117211494813233 ], [ -76.121177926080946, 7.11221937801135 ], [ -76.116865903964353, 7.105524953004903 ], [ -76.11633255744556, 7.10271945963776 ], [ -76.117105098631484, 7.102259737781047 ], [ -76.118236967180707, 7.103050103149547 ], [ -76.118481911142098, 7.098330776842196 ], [ -76.123309070628949, 7.094082006335499 ], [ -76.124144199000611, 7.094309377844008 ], [ -76.125331097743214, 7.09903106695059 ], [ -76.127721451828819, 7.102524704684515 ], [ -76.129236784019895, 7.103187258181058 ], [ -76.13597050061658, 7.10338860587439 ], [ -76.137782134227137, 7.104627230406296 ], [ -76.138553777724468, 7.106590840406461 ], [ -76.140452932663209, 7.104191834640376 ], [ -76.140572156741101, 7.09896342367048 ], [ -76.143904718189006, 7.094233137810584 ], [ -76.145481540349536, 7.093766552768664 ], [ -76.150696638108045, 7.096403746739884 ], [ -76.15535521985683, 7.094515245029096 ], [ -76.156043455244728, 7.095557137777792 ], [ -76.154818404635492, 7.100176797358316 ], [ -76.151617294195219, 7.107700924401351 ], [ -76.155074712401543, 7.106683401620213 ], [ -76.159595788756192, 7.107026810362907 ], [ -76.162541103964841, 7.105432991633386 ], [ -76.163162882160705, 7.107548012129041 ], [ -76.165151294018571, 7.10993669557214 ], [ -76.165342347892718, 7.112542124176271 ], [ -76.167806929752317, 7.10960812789293 ], [ -76.168346115963018, 7.106186400011441 ], [ -76.170073029079475, 7.103796880995189 ], [ -76.173726064065519, 7.104348724971423 ], [ -76.174564990774144, 7.102505651762739 ], [ -76.176671468694252, 7.102024999270097 ], [ -76.181234282375897, 7.106274839387317 ], [ -76.181048096547258, 7.111505108632691 ], [ -76.182808264567257, 7.110600614234611 ], [ -76.189675158250566, 7.110899806083265 ], [ -76.190079677909139, 7.115960744237588 ], [ -76.18584067242908, 7.120255329385587 ], [ -76.188641062048902, 7.123043707873605 ], [ -76.188307552972745, 7.125653611438872 ], [ -76.191366828814836, 7.124385594181421 ], [ -76.194127055252522, 7.121599397122843 ], [ -76.197448584972193, 7.121493009903435 ], [ -76.200486930424418, 7.118884554433626 ], [ -76.202258308775725, 7.120923559328213 ], [ -76.209623695175438, 7.12022167800306 ], [ -76.211209795617734, 7.121557212120866 ], [ -76.209413875055461, 7.128932839072069 ], [ -76.210077720707602, 7.130392988442091 ], [ -76.211567954144385, 7.130995136769693 ], [ -76.212773142892331, 7.128058921600475 ], [ -76.217266246780198, 7.126902395366279 ], [ -76.218584524236093, 7.125714472003359 ], [ -76.220015783412336, 7.125793425317945 ], [ -76.220682648316156, 7.128542646924672 ], [ -76.223766950415524, 7.132942963305437 ], [ -76.229594347737773, 7.134417476378809 ], [ -76.231317101602201, 7.135751860034281 ], [ -76.234751810200947, 7.141149828029845 ], [ -76.236696931895196, 7.141400116910678 ], [ -76.240497947397898, 7.143595949373513 ], [ -76.240795953918777, 7.144631383790626 ], [ -76.239841493940844, 7.14534868807694 ], [ -76.234964584756526, 7.146305340432352 ], [ -76.233511442870025, 7.145191222667436 ], [ -76.231510428275968, 7.147210986173469 ], [ -76.227369688736573, 7.149084314151236 ], [ -76.232270286357874, 7.152940710375378 ], [ -76.232948378605641, 7.156589836615072 ], [ -76.235915082579211, 7.157022762853862 ], [ -76.237886131351019, 7.15889294684499 ], [ -76.237846623388961, 7.162646637742756 ], [ -76.238682415195527, 7.16387254212189 ], [ -76.242908135091525, 7.166137186202596 ], [ -76.242660191206411, 7.173110888871308 ], [ -76.246235180930498, 7.176757868757271 ], [ -76.246578570617103, 7.180179407589862 ], [ -76.247745535594149, 7.180837037840673 ], [ -76.259513556110591, 7.17450489423574 ], [ -76.266038154562068, 7.176483101450737 ], [ -76.27852889718784, 7.175676450162005 ], [ -76.278168421111701, 7.180633057394161 ], [ -76.273932773797867, 7.1844180997304 ], [ -76.271283174693437, 7.188843686240748 ], [ -76.269241699699037, 7.210078242085524 ], [ -76.269030828694582, 7.223536613425845 ], [ -76.271117579980753, 7.226482288367093 ], [ -76.271007410674457, 7.238546508850219 ], [ -76.269607009116143, 7.243536874824906 ], [ -76.273684281946956, 7.247463536678864 ], [ -76.275645053373268, 7.25281923931511 ], [ -76.273698844232996, 7.257563628406068 ], [ -76.272891473625108, 7.263013635362896 ], [ -76.278979500999327, 7.267508814243271 ], [ -76.281094243192427, 7.272226218373674 ], [ -76.281322621229634, 7.276340583327561 ], [ -76.294277720080345, 7.270919726244362 ], [ -76.298960646625119, 7.270444041090331 ], [ -76.302626580933037, 7.272077276722466 ], [ -76.304393360937055, 7.277872622886305 ], [ -76.303638209880845, 7.28180129737228 ], [ -76.314596516162126, 7.297513470262653 ], [ -76.31821863119238, 7.30585563907054 ], [ -76.323386135438881, 7.313351576701721 ], [ -76.326995351397443, 7.32055503173958 ], [ -76.331167414014956, 7.325473702652268 ], [ -76.341027251131393, 7.327768045626694 ], [ -76.352096659881866, 7.335995166902587 ], [ -76.354283105919507, 7.346470645886056 ], [ -76.35482807827394, 7.35980870559781 ], [ -76.355916484566791, 7.364163702099103 ], [ -76.362603733170729, 7.368535209994371 ], [ -76.36669211924692, 7.372316335568044 ], [ -76.370923695987855, 7.37940771759179 ], [ -76.373601725885749, 7.386620946846864 ], [ -76.375176482196295, 7.388258216398327 ], [ -76.377689177726865, 7.390298298687549 ], [ -76.383933825051685, 7.39229384440504 ], [ -76.387906544168175, 7.395040892198103 ], [ -76.401876748391416, 7.41008776328161 ], [ -76.403049480243425, 7.412764580282181 ], [ -76.41282150683152, 7.414924032197981 ], [ -76.416286210084209, 7.418504609163964 ], [ -76.419072901107768, 7.426026050341125 ], [ -76.421486062561769, 7.428377272756099 ], [ -76.424136694598474, 7.433209409876882 ], [ -76.422986860152463, 7.440985263450329 ], [ -76.42668708369628, 7.446849886679746 ], [ -76.426953577963005, 7.451710778691949 ], [ -76.43118215506145, 7.466872724272586 ], [ -76.433811900998975, 7.469945474166683 ], [ -76.442595196776878, 7.475944405556864 ], [ -76.446120445864835, 7.484387483101502 ], [ -76.453564524035556, 7.49134928230186 ], [ -76.452793384243805, 7.501405985049514 ], [ -76.453783749320152, 7.50310558788247 ], [ -76.460477501312624, 7.507712104178752 ], [ -76.461388770245378, 7.509040523715705 ], [ -76.462579782989678, 7.514905292426097 ], [ -76.464096777035763, 7.516970465015032 ], [ -76.469762585761728, 7.5180362256927 ], [ -76.473882197152705, 7.52218536465887 ], [ -76.475231358559768, 7.529168598005563 ], [ -76.47724718797015, 7.533343608381283 ], [ -76.48277147628832, 7.53761512397983 ], [ -76.489092103358075, 7.538236759098427 ], [ -76.490787476307432, 7.539195692161779 ], [ -76.491951459160177, 7.54254109903756 ], [ -76.491884524546705, 7.548421678057297 ], [ -76.493029364944519, 7.550227371874862 ], [ -76.501778390148743, 7.554318281816985 ], [ -76.509109918885301, 7.579593083027893 ], [ -76.510407579681186, 7.582376639140203 ], [ -76.514530128361685, 7.586664648177175 ], [ -76.514411002559314, 7.588346007080103 ], [ -76.510336757410883, 7.59903630905499 ], [ -76.508271377384546, 7.602142009156018 ], [ -76.508322554234212, 7.606201083107391 ], [ -76.511879065024559, 7.610076119005955 ], [ -76.511219548568334, 7.613402157990532 ], [ -76.50998705195299, 7.615797480227212 ], [ -76.504709017788372, 7.617598296425871 ], [ -76.503773646974253, 7.618855730903596 ], [ -76.502504813035941, 7.621956229953524 ], [ -76.502449592790498, 7.626998994855965 ], [ -76.500830613728297, 7.630253457360358 ], [ -76.498749837336263, 7.633703419281495 ], [ -76.492298685290791, 7.640469142645911 ], [ -76.492182667202314, 7.64422051702885 ], [ -76.494680981047196, 7.647938976391645 ], [ -76.49556191410511, 7.652982082072595 ], [ -76.493975425785663, 7.65675197003007 ], [ -76.491873943383695, 7.658571893796958 ], [ -76.490452888790529, 7.662502759950322 ], [ -76.488628384069216, 7.673286423861995 ], [ -76.487937704570982, 7.68325693285923 ], [ -76.485563117382753, 7.689319446888415 ], [ -76.487232456300603, 7.6920700442629 ], [ -76.488008411641246, 7.701679627761957 ], [ -76.489346875159896, 7.704108286001213 ], [ -76.487999662341494, 7.713826270306806 ], [ -76.49131174199475, 7.717208094145087 ], [ -76.490404021191438, 7.722926015379657 ], [ -76.490987997998801, 7.730255395636178 ], [ -76.495682432347195, 7.739456265266903 ], [ -76.496932985188863, 7.747755287698222 ], [ -76.496631204750116, 7.749715599855294 ], [ -76.492901499377268, 7.752045721979593 ], [ -76.487895573834521, 7.756837721569492 ], [ -76.483497341583245, 7.758035068710105 ], [ -76.482916679741095, 7.763748938226524 ], [ -76.479645302747741, 7.776344934810129 ], [ -76.48003287212218, 7.781068222599917 ], [ -76.482956726929459, 7.792329682682218 ], [ -76.481691044795596, 7.795606719295489 ], [ -76.481643021717602, 7.804574653695417 ], [ -76.479138995292089, 7.813248004921002 ], [ -76.480872456217568, 7.820888770006332 ], [ -76.479468603615487, 7.826124160303268 ], [ -76.472452753258295, 7.839909940110746 ], [ -76.464445862267809, 7.846209833889848 ], [ -76.459086289203114, 7.848992024245802 ], [ -76.450905007756305, 7.84882751599127 ], [ -76.446208130659301, 7.849943026258921 ], [ -76.440066240622869, 7.846456016855606 ], [ -76.421244326173138, 7.845425765910715 ], [ -76.408485042189511, 7.843642629189274 ], [ -76.403773971672919, 7.841907946024734 ], [ -76.401646941100111, 7.839381066001026 ], [ -76.396637135349096, 7.839046120231775 ], [ -76.389227246888751, 7.841938757940763 ], [ -76.38238207518198, 7.841783106642417 ], [ -76.380628599723892, 7.84023487923694 ], [ -76.377537838035892, 7.834845857946298 ], [ -76.374724458775631, 7.832309851390364 ], [ -76.374803708409701, 7.826722717385016 ], [ -76.373297951901591, 7.825613215680205 ], [ -76.369929827297085, 7.82533583437817 ], [ -76.366091128281809, 7.82351942336993 ], [ -76.363443657867663, 7.820647903956186 ], [ -76.349126650416977, 7.816222067072508 ], [ -76.338031620804458, 7.81162555815008 ], [ -76.333618296554548, 7.812032368973949 ], [ -76.330409748202811, 7.815649903136035 ], [ -76.330214912571577, 7.820031902776639 ], [ -76.329371008048852, 7.821382402995966 ], [ -76.328247692316211, 7.822126333977695 ], [ -76.325115661604826, 7.822027483249515 ], [ -76.323006049419874, 7.825287145944761 ], [ -76.320246398237103, 7.826074725960662 ], [ -76.320914806785098, 7.827901513261048 ], [ -76.318851223657205, 7.831505310833185 ], [ -76.320745924129284, 7.829763917974934 ], [ -76.319062822641826, 7.832165895698382 ], [ -76.32081476154498, 7.830919394066857 ], [ -76.321102419652547, 7.828750680721488 ], [ -76.323014636663913, 7.830381051738791 ], [ -76.321732821602978, 7.833161022895328 ], [ -76.319770514579005, 7.833063170311078 ], [ -76.320642572969234, 7.834597348216973 ], [ -76.31974335864534, 7.834996560272383 ], [ -76.319389934951104, 7.834312141693588 ], [ -76.318395894789958, 7.834852649198198 ], [ -76.318682458295882, 7.833296982996806 ], [ -76.31740786491568, 7.83209216254959 ], [ -76.315162490240454, 7.833597702841265 ], [ -76.312813638381328, 7.83384434430069 ], [ -76.312541942796187, 7.833362928086963 ], [ -76.313611638923859, 7.833176690347671 ], [ -76.312775613171013, 7.83171150126494 ], [ -76.310241222867674, 7.830243204790329 ], [ -76.308318800785855, 7.826664155310264 ], [ -76.309599457227705, 7.824747446983441 ], [ -76.303485334559184, 7.826140751688268 ], [ -76.301023267884162, 7.824706583313461 ], [ -76.299309777078506, 7.826459079376085 ], [ -76.296774335690202, 7.823921194835076 ], [ -76.292874182831781, 7.822560876188756 ], [ -76.292814122250277, 7.824315545576003 ], [ -76.294740315825933, 7.826300337627808 ], [ -76.295721348978802, 7.829086461607132 ], [ -76.295007700282483, 7.831278611846368 ], [ -76.292382678622943, 7.831132186792657 ], [ -76.291935919812673, 7.832073593677136 ], [ -76.294424279718058, 7.83541448325931 ], [ -76.298020963570977, 7.835556173574798 ], [ -76.298499919136049, 7.837967638710529 ], [ -76.3038989464482, 7.843671032870099 ], [ -76.303775949096817, 7.845950625383293 ], [ -76.302376759836591, 7.847931770044492 ], [ -76.300273372751136, 7.845411187400622 ], [ -76.294473911776237, 7.846423515859439 ], [ -76.287743141342858, 7.84986251919345 ], [ -76.285457198401787, 7.853163845406007 ], [ -76.281223564133924, 7.848324961668693 ], [ -76.275622407049639, 7.847256425194632 ], [ -76.269746992893175, 7.849292923718936 ], [ -76.265830455999478, 7.853299086837685 ], [ -76.257226184829165, 7.857252742562618 ], [ -76.254574987292372, 7.856327900428824 ], [ -76.251563107331791, 7.850505335011349 ], [ -76.239779690303905, 7.843469388181891 ], [ -76.228004142412743, 7.844318350108716 ], [ -76.221795848988236, 7.847826998927592 ], [ -76.217579831143425, 7.851325469890847 ], [ -76.208866056196271, 7.85194917039878 ], [ -76.20422508896192, 7.853545593416207 ], [ -76.202651968865197, 7.854381413438246 ], [ -76.199601720850509, 7.858618955392741 ], [ -76.198517858935958, 7.857713757883056 ], [ -76.197162310224897, 7.852339407088781 ], [ -76.194344734665705, 7.853347030229793 ], [ -76.193751479325584, 7.850949175162518 ], [ -76.19234435790581, 7.851784113946722 ], [ -76.192101578633626, 7.853027148979181 ], [ -76.187868905987315, 7.85329675085218 ], [ -76.183240291985797, 7.857376548945124 ], [ -76.180421377654582, 7.858135741907967 ], [ -76.178342973284131, 7.857566605227575 ], [ -76.173034270692639, 7.85850375502688 ], [ -76.172117738320097, 7.857846007814569 ], [ -76.169711394298886, 7.858106348937278 ], [ -76.168726328077099, 7.860346540843028 ], [ -76.169309541785523, 7.860757591682553 ], [ -76.170964570711845, 7.859673101162866 ], [ -76.171966200732555, 7.860744368857596 ], [ -76.170817174693312, 7.863399329613236 ], [ -76.172244301746801, 7.866538187955196 ], [ -76.171822722449363, 7.868255838729844 ], [ -76.1732299329027, 7.871027545273334 ], [ -76.173248860794757, 7.874798583139876 ], [ -76.166601274145492, 7.878900568666315 ], [ -76.165219376830166, 7.881189980163842 ], [ -76.162381330265703, 7.890830448051432 ], [ -76.160392792106876, 7.891237303672076 ], [ -76.160308152790904, 7.894214949035341 ], [ -76.159017282745467, 7.894816812014343 ], [ -76.157217364858965, 7.893138659650647 ], [ -76.154931214724641, 7.893745444746942 ], [ -76.151882458560252, 7.901104416648655 ], [ -76.152091910152507, 7.903187447614036 ], [ -76.157890436027472, 7.908319181626844 ], [ -76.160305530451978, 7.913566924398182 ], [ -76.176354524695071, 7.937998844991511 ], [ -76.177824106109867, 7.952976618414913 ], [ -76.172018177976966, 7.966204804304032 ], [ -76.159402642326441, 7.9715280051256 ], [ -76.152641525716106, 7.97314973439658 ], [ -76.140829740330645, 7.980056332047971 ], [ -76.123435221194256, 7.985501657674066 ], [ -76.117581367745103, 7.989500248169797 ], [ -76.112331091770557, 7.994785989398006 ], [ -76.109865782978474, 7.999561793404361 ], [ -76.108103710268836, 8.005624297793471 ], [ -76.097575051343796, 8.010638109606726 ], [ -76.089462321193594, 8.021098398734331 ], [ -76.084393397145988, 8.022909500897162 ], [ -76.069847525913133, 8.020995118642253 ], [ -76.06398050265507, 8.02251210380757 ], [ -76.052745534353221, 8.025841216204089 ], [ -76.044497795568475, 8.029255057193307 ], [ -76.032882596812442, 8.036456175834758 ], [ -76.025722583905619, 8.038375831113401 ], [ -76.01434055182186, 8.031879125216481 ], [ -76.010069854239049, 8.034181903016762 ], [ -76.003406132854195, 8.035801116002329 ], [ -75.992357466154374, 8.036646637069873 ], [ -75.986195589004396, 8.039156512328235 ], [ -75.979422337426669, 8.038691606945324 ], [ -75.974032974935596, 8.036036698674218 ], [ -75.968392668549853, 8.04370499685704 ], [ -75.964953414622812, 8.053645942076459 ], [ -75.947759661168078, 8.060969988090505 ], [ -75.94187626125202, 8.059210196778906 ], [ -75.939661950425403, 8.054059095987514 ], [ -75.930858450724216, 8.045166089343184 ], [ -75.921194510171546, 8.044117727991285 ], [ -75.918601019774428, 8.043136793943283 ], [ -75.91469475935483, 8.038092287063778 ], [ -75.911002422626964, 8.036322166323536 ], [ -75.908781105014256, 8.029483479797438 ], [ -75.910047602875153, 8.023224810091357 ], [ -75.910123214989525, 8.017864714867603 ], [ -75.908307450238823, 8.01261227524979 ], [ -75.905089406054273, 8.00837895511167 ], [ -75.898517780618107, 8.008793411079667 ], [ -75.895417613890956, 8.007265278352179 ], [ -75.891145550310938, 8.003044139354461 ], [ -75.894918537027195, 7.981828033572022 ], [ -75.900280400703309, 7.970241141450915 ], [ -75.919249316075678, 7.975553589306999 ], [ -75.926985391848163, 7.976290054639382 ], [ -75.932779641552997, 7.975107863042632 ], [ -75.944738905112558, 7.969272668255067 ], [ -75.951617610258552, 7.951511681068935 ], [ -75.953458069946862, 7.931075350041395 ], [ -75.935975489079638, 7.911881675601315 ], [ -75.937851440988652, 7.899153868686629 ], [ -75.944761066073866, 7.888330867400051 ], [ -75.949493679209397, 7.875154415171764 ], [ -75.949373709286434, 7.871990242945055 ], [ -75.948092431921523, 7.869358699858563 ], [ -75.94827096413303, 7.861973595812778 ], [ -75.9424315460993, 7.857252445680238 ], [ -75.942020036566518, 7.855641480340788 ], [ -75.945797847909432, 7.853017904759055 ], [ -75.947571229546725, 7.847419056103564 ], [ -75.950630443328151, 7.845506651319964 ], [ -75.950833048768857, 7.843501430978733 ], [ -75.949345510328328, 7.842031176594076 ], [ -75.947124101772957, 7.842041031427345 ], [ -75.946177709306696, 7.843311114214687 ], [ -75.940685958413241, 7.845339735378125 ], [ -75.938882500173492, 7.844187304058551 ], [ -75.936041334621223, 7.847575551993228 ], [ -75.934768656322362, 7.846842724343055 ], [ -75.933501124402213, 7.847270268240568 ], [ -75.932748965367139, 7.84463630926242 ], [ -75.931582089027813, 7.843903004789664 ], [ -75.929892824565457, 7.844648866866711 ], [ -75.929466897878171, 7.84401779186081 ], [ -75.932502413144036, 7.836725555877631 ], [ -75.932065778293691, 7.833668229928009 ], [ -75.933009404214374, 7.831765238777741 ], [ -75.934387339313631, 7.832392127888214 ], [ -75.934798326716162, 7.829647549696544 ], [ -75.936702351872981, 7.829639178395335 ], [ -75.937870126233108, 7.830583450965728 ], [ -75.938620865729078, 7.832900943114296 ], [ -75.940311467688758, 7.832471521377537 ], [ -75.942118618319753, 7.834467874327111 ], [ -75.945618265995265, 7.836456716614075 ], [ -75.94750726988795, 7.833072655633954 ], [ -75.948234563829502, 7.830115706925334 ], [ -75.945902753003182, 7.829071127878301 ], [ -75.945770709664217, 7.823164246571706 ], [ -75.94492074213035, 7.822324079973201 ], [ -75.944089053673153, 7.825597953925918 ], [ -75.944635283563855, 7.829498690380984 ], [ -75.943479690687369, 7.83129713612253 ], [ -75.942727522709745, 7.828663193865173 ], [ -75.94279679235494, 7.820434616900708 ], [ -75.941192850350504, 7.816538533742796 ], [ -75.939075476284202, 7.816125892873051 ], [ -75.939165387765698, 7.812538811693785 ], [ -75.939473384809943, 7.810427637249971 ], [ -75.945006845042599, 7.817893094550912 ], [ -75.94677176501034, 7.810395476726631 ], [ -75.949116602244828, 7.814393752010279 ], [ -75.950389181565455, 7.815126552861203 ], [ -75.952394194742197, 7.814062767685939 ], [ -75.951532503751451, 7.810585408064515 ], [ -75.952997359896699, 7.806992254095102 ], [ -75.951489815872009, 7.800985992766524 ], [ -75.951359200678837, 7.795395579175285 ], [ -75.952512350229767, 7.793069705886137 ], [ -75.953128216696555, 7.788847372675885 ], [ -75.95108027437638, 7.780206207718093 ], [ -75.95199103079365, 7.770919047885366 ], [ -75.952828251656427, 7.768911034889421 ], [ -75.95186051456831, 7.765328625427613 ], [ -75.954048810974044, 7.757934673055736 ], [ -75.954180603326293, 7.754240082318024 ], [ -75.960447725900735, 7.746091572213716 ], [ -75.967014752120434, 7.72454266817348 ], [ -75.96700647945022, 7.698803213373728 ], [ -75.964426705951226, 7.689320462252414 ], [ -75.963979560144864, 7.683836948270502 ], [ -75.960766977650209, 7.674673369192968 ], [ -75.962341931985989, 7.672134712401772 ], [ -75.964531341757052, 7.665057299001591 ], [ -75.964308739236387, 7.662526511254339 ], [ -75.963127121938115, 7.658312064739673 ], [ -75.955183175761476, 7.655181983732191 ], [ -75.950508793110259, 7.650138724926111 ], [ -75.950922997302015, 7.648132599248308 ], [ -75.952506232819374, 7.647492792396644 ], [ -75.951224578958247, 7.644544602342839 ], [ -75.953117635049097, 7.642215594167437 ], [ -75.953632046076763, 7.638943147693475 ], [ -75.95319809699204, 7.636413249771703 ], [ -75.948645292126798, 7.634956082779986 ], [ -75.949793661693079, 7.631575399184883 ], [ -75.948934549400207, 7.628519870332877 ], [ -75.946181958260723, 7.627687822848734 ], [ -75.945331567892183, 7.626636578972393 ], [ -75.941656623382144, 7.63255992560302 ], [ -75.939438126261564, 7.632991440745887 ], [ -75.939878820573654, 7.637103722294326 ], [ -75.937230543401796, 7.635954695068943 ], [ -75.935540668185126, 7.636383920252656 ], [ -75.934157981313859, 7.634490998749882 ], [ -75.932040652186728, 7.63386712767657 ], [ -75.929298005674497, 7.635355752872019 ], [ -75.929195445014244, 7.636094644319828 ], [ -75.926024858776159, 7.63642466722493 ], [ -75.926776309255672, 7.639058770395827 ], [ -75.925196657717137, 7.640542418599356 ], [ -75.923078394031464, 7.63970751502244 ], [ -75.920547130157871, 7.641195205652572 ], [ -75.91810715295604, 7.639306723116878 ], [ -75.919465442094875, 7.635503201844096 ], [ -75.919141032716567, 7.633816695550141 ], [ -75.917654034444695, 7.632240629271438 ], [ -75.914161321298323, 7.631411510815474 ], [ -75.913414461604091, 7.629832281638968 ], [ -75.915517381948916, 7.627080535130239 ], [ -75.922698424731792, 7.625045661747091 ], [ -75.927435869775181, 7.620278302768794 ], [ -75.931871436982746, 7.619098950338865 ], [ -75.935542833065043, 7.612331752351341 ], [ -75.938083413135132, 7.61305931600479 ], [ -75.939455562014814, 7.61252596838249 ], [ -75.940291364335494, 7.610201568320323 ], [ -75.94335326184229, 7.609238997323923 ], [ -75.942580899864495, 7.601752409897212 ], [ -75.943736114775362, 7.599954091071849 ], [ -75.94383183124954, 7.597632871280449 ], [ -75.946779723982317, 7.594771942634945 ], [ -75.946977047695356, 7.591500862856688 ], [ -75.946232471300902, 7.59044914197941 ], [ -75.943906652160123, 7.590459122990762 ], [ -75.943162531935485, 7.589512882303807 ], [ -75.94505365591192, 7.586761997812689 ], [ -75.943778677969178, 7.585290575889466 ], [ -75.945346282611808, 7.581064199769079 ], [ -75.945129401780264, 7.579799229361728 ], [ -75.94311398732826, 7.578225478980983 ], [ -75.939421156587642, 7.579929133871874 ], [ -75.937296424724451, 7.577511893363117 ], [ -75.938346358133572, 7.575819538835123 ], [ -75.939164058869707, 7.569275545773054 ], [ -75.940536083435973, 7.56874223406497 ], [ -75.941375009740241, 7.567156275961703 ], [ -75.939882819292478, 7.564314357382765 ], [ -75.9372332294503, 7.562743267400449 ], [ -75.937955636238982, 7.558625999830432 ], [ -75.941331631002328, 7.55702924462293 ], [ -75.941520024879679, 7.551648354437067 ], [ -75.944482157400898, 7.552163178766432 ], [ -75.945325126552149, 7.551526632277431 ], [ -75.947736070843007, 7.546769209362988 ], [ -75.952083261099375, 7.549809871048729 ], [ -75.955470484035089, 7.5508502545733 ], [ -75.958296863164264, 7.544403171958076 ], [ -75.960832456638215, 7.54407579881095 ], [ -75.962619896906517, 7.541852801437939 ], [ -75.964944979816565, 7.541737305126836 ], [ -75.966820284811249, 7.535399788872838 ], [ -75.9632122199625, 7.53214511190781 ], [ -75.959079771995221, 7.52984205634178 ], [ -75.957796349196855, 7.526366348831981 ], [ -75.959137362689589, 7.518659764576975 ], [ -75.959872273858764, 7.517496213131439 ], [ -75.961562571237096, 7.517277985246442 ], [ -75.963669758296959, 7.515686583984758 ], [ -75.966419771140323, 7.516096744578133 ], [ -75.968132831279675, 7.515034470029001 ], [ -75.977871673750926, 7.50615769544935 ], [ -75.97824459994186, 7.500749720194877 ], [ -75.98007939985628, 7.497313376894978 ], [ -75.984281970572326, 7.491493281964871 ], [ -75.99089194530309, 7.485205550590026 ], [ -75.996056584833042, 7.481698249822404 ], [ -75.999767229091788, 7.470942253677689 ], [ -75.998215963804185, 7.467709989766653 ], [ -75.99632907989583, 7.46584295811254 ], [ -75.994255121108196, 7.460226296036216 ], [ -75.988241286591375, 7.451899012219737 ], [ -75.98344819108577, 7.44936251100618 ], [ -75.974237387336245, 7.452129635817931 ], [ -75.96945162959139, 7.451297706582571 ], [ -75.96416589788528, 7.453365961324696 ], [ -75.958385895353871, 7.459698220571791 ], [ -75.955166225288451, 7.465678620411621 ], [ -75.950063335647215, 7.470644129992157 ], [ -75.943250163122471, 7.475105388212669 ], [ -75.940193779603348, 7.479380272794678 ], [ -75.938021141060176, 7.484886172688351 ], [ -75.92067006512039, 7.488301272049523 ], [ -75.919115791384883, 7.489567841963414 ], [ -75.918249159434595, 7.495427121741239 ], [ -75.919671713013429, 7.498163704378868 ], [ -75.913442650590852, 7.500413381944753 ], [ -75.912262750009603, 7.502419607682391 ], [ -75.910772139627568, 7.501165729975266 ], [ -75.908914846050351, 7.501025215762541 ], [ -75.907284052668842, 7.501773224959952 ], [ -75.90482983827529, 7.50096805571812 ], [ -75.902681327712429, 7.502237061111094 ], [ -75.902838497763327, 7.504311854914842 ], [ -75.90707115316755, 7.504146035216466 ], [ -75.910131928437778, 7.507913559704352 ], [ -75.913920223024121, 7.508046016669739 ], [ -75.914295601684344, 7.50900804057917 ], [ -75.914455941766604, 7.511824025334257 ], [ -75.913125941418457, 7.513460270833886 ], [ -75.912088037170619, 7.513909338828118 ], [ -75.911119742903225, 7.513246273698955 ], [ -75.910087426087998, 7.51502951984362 ], [ -75.905706754630415, 7.515344253912661 ], [ -75.904896285828485, 7.516904204891904 ], [ -75.905202648032144, 7.519126609778791 ], [ -75.910485775012205, 7.521476530705697 ], [ -75.912850617259565, 7.518650000237911 ], [ -75.915596110736416, 7.518045541760555 ], [ -75.916118176147137, 7.51856221679826 ], [ -75.915533363410006, 7.520788331775311 ], [ -75.912567836037454, 7.522060813076588 ], [ -75.912285989855548, 7.525693995090033 ], [ -75.909909928260106, 7.525852161635943 ], [ -75.908656939809006, 7.528155200427604 ], [ -75.907319743001707, 7.528086649270977 ], [ -75.906358546027306, 7.529128372368481 ], [ -75.907406116223143, 7.530977078401293 ], [ -75.911271692868425, 7.531776281857525 ], [ -75.909277531860127, 7.534453027820059 ], [ -75.909729699166533, 7.536007715055333 ], [ -75.910846592399224, 7.536670151338871 ], [ -75.909594529166085, 7.539195548030035 ], [ -75.910348466837476, 7.541860813651696 ], [ -75.909161639637233, 7.542236391053261 ], [ -75.909982394727848, 7.543122426434928 ], [ -75.909772341864723, 7.546162333685991 ], [ -75.910739468366074, 7.546528890549839 ], [ -75.910747571000343, 7.548456047034165 ], [ -75.908829497232077, 7.551577226204463 ], [ -75.908549527561931, 7.55565513673417 ], [ -75.906045922739978, 7.560854198751578 ], [ -75.903015789380603, 7.564498880210115 ], [ -75.900865131886178, 7.56532321903151 ], [ -75.899673265919503, 7.56451284001161 ], [ -75.897526948014658, 7.566374859306796 ], [ -75.896727249858799, 7.570529082116028 ], [ -75.897621397115316, 7.571192460746003 ], [ -75.900071067212366, 7.5708116294168 ], [ -75.900446813584352, 7.571847772708781 ], [ -75.898304817031445, 7.574747516694708 ], [ -75.895258090578864, 7.574463729864876 ], [ -75.894369207986614, 7.575060418254914 ], [ -75.893645937711554, 7.579733183679896 ], [ -75.892095949425055, 7.582111572732036 ], [ -75.889305467718586, 7.572042420133475 ], [ -75.888337972841427, 7.571601697402584 ], [ -75.88726689372487, 7.56411967426792 ], [ -75.888289517648957, 7.559964525984377 ], [ -75.889476112108198, 7.559514874440866 ], [ -75.88857060115167, 7.556108948304981 ], [ -75.88981634860734, 7.552027002701979 ], [ -75.889727281311849, 7.548469449803122 ], [ -75.888170563294423, 7.549217126705615 ], [ -75.881706070559872, 7.548650837689929 ], [ -75.881179693750951, 7.54709640182242 ], [ -75.880363269286462, 7.547248020098984 ], [ -75.88014994562046, 7.549546728120668 ], [ -75.884607143936037, 7.549676597068929 ], [ -75.885131077443248, 7.550638036552225 ], [ -75.884097045351794, 7.552050655629806 ], [ -75.885143681425589, 7.553677056164771 ], [ -75.883519732659366, 7.556129834057208 ], [ -75.881222346113503, 7.557399422778458 ], [ -75.881303994070535, 7.559178050846005 ], [ -75.879753968953054, 7.561556403067675 ], [ -75.878824885835471, 7.570380958600003 ], [ -75.877172615285204, 7.566014472798153 ], [ -75.872107536300106, 7.562625604985435 ], [ -75.870250250704018, 7.56255911160273 ], [ -75.868611535172491, 7.561453969245599 ], [ -75.869141865077495, 7.563972008912466 ], [ -75.867729029699589, 7.563607185444329 ], [ -75.866913476764211, 7.563981144597906 ], [ -75.867065086309424, 7.564721770417229 ], [ -75.870933123361212, 7.566040138402462 ], [ -75.873242835863351, 7.567735491910962 ], [ -75.872803586892218, 7.569293907201309 ], [ -75.869539530664554, 7.570345052739614 ], [ -75.869619309565749, 7.571678960860631 ], [ -75.871183186668532, 7.572636143203995 ], [ -75.873335488404209, 7.572182547942435 ], [ -75.872454843209752, 7.574780512425123 ], [ -75.87335233955082, 7.576259299599601 ], [ -75.867556249250185, 7.575764257098021 ], [ -75.867264618669793, 7.577099682774227 ], [ -75.868681784144044, 7.578502223259629 ], [ -75.868395967320794, 7.581245991871145 ], [ -75.871812035252617, 7.581009573752437 ], [ -75.872483336998741, 7.581673923037766 ], [ -75.871377987076599, 7.583828064980485 ], [ -75.871315653179806, 7.586719157717946 ], [ -75.868049333764162, 7.587251463088433 ], [ -75.866106340549166, 7.58444272772855 ], [ -75.864990570135362, 7.584076691366568 ], [ -75.86381578034937, 7.587417094707257 ], [ -75.864788494433313, 7.589117964605571 ], [ -75.864200026225816, 7.590528742385841 ], [ -75.864875002347233, 7.592082575761117 ], [ -75.863540016122428, 7.592606931686267 ], [ -75.863398476941811, 7.594312365018812 ], [ -75.8621426498419, 7.596022380044777 ], [ -75.862160985339173, 7.600469759997814 ], [ -75.86024053085589, 7.603146109689015 ], [ -75.859950411218065, 7.604852163665214 ], [ -75.858912839223379, 7.60544940897378 ], [ -75.85796480237569, 7.609752518816036 ], [ -75.855673765169044, 7.612652756372476 ], [ -75.854428547174621, 7.616957079114313 ], [ -75.852725683184232, 7.618372411321466 ], [ -75.851695980134494, 7.620896864576014 ], [ -75.848954852071685, 7.622761183675231 ], [ -75.849336043029965, 7.625131622066815 ], [ -75.850974398751333, 7.62608854441092 ], [ -75.852322312710243, 7.628677380102588 ], [ -75.852177997988775, 7.629715716417016 ], [ -75.850992384251299, 7.630461821443855 ], [ -75.849425560282427, 7.628837486815209 ], [ -75.847714727808906, 7.628325608557536 ], [ -75.845613299024237, 7.623145447312242 ], [ -75.843082870212498, 7.622043888368819 ], [ -75.843819407607313, 7.62048426883065 ], [ -75.845377679647854, 7.620033171092195 ], [ -75.844773957668636, 7.617737750947141 ], [ -75.839118264037012, 7.615388755135466 ], [ -75.838740162994526, 7.61375953532127 ], [ -75.840510104101682, 7.610564973426226 ], [ -75.84043007317679, 7.609156917814333 ], [ -75.839982235558864, 7.608639855668298 ], [ -75.838796037570773, 7.609237667000497 ], [ -75.837749662345871, 7.607685278619114 ], [ -75.837820026679921, 7.606721368599919 ], [ -75.839448934365961, 7.605380517084258 ], [ -75.83929642680387, 7.604417504713909 ], [ -75.836914400358523, 7.603241152043899 ], [ -75.836008799169988, 7.59976092609036 ], [ -75.834366670200893, 7.597840301203456 ], [ -75.831702850865952, 7.600445450750196 ], [ -75.83021140467531, 7.599043072581707 ], [ -75.830938375022342, 7.595111497847421 ], [ -75.833034082348547, 7.594089502351653 ], [ -75.833803219876501, 7.592694814179572 ], [ -75.833220859678363, 7.589192435071508 ], [ -75.832085578110011, 7.589454716091253 ], [ -75.829102919613376, 7.592713750258897 ], [ -75.822646234100134, 7.592688147633283 ], [ -75.824002232075358, 7.583096207447012 ], [ -75.822964856755931, 7.582018013052546 ], [ -75.821239480818178, 7.576819337330277 ], [ -75.82090538783919, 7.570790437911694 ], [ -75.817341366689902, 7.570753121884775 ], [ -75.818718979098236, 7.566521302231926 ], [ -75.818509087710112, 7.565697493144592 ], [ -75.816653024424227, 7.566529531372194 ], [ -75.815978290736425, 7.565707571565063 ], [ -75.815322700259941, 7.55674211641848 ], [ -75.813087053596519, 7.55304006028187 ], [ -75.815815317921675, 7.550761438828436 ], [ -75.817854664832268, 7.544104599345351 ], [ -75.819554673288053, 7.543015490240943 ], [ -75.819704673218808, 7.541777926446678 ], [ -75.818561261677132, 7.539978546694566 ], [ -75.816029799784275, 7.539782435808639 ], [ -75.81240949112771, 7.541863635258041 ], [ -75.811521623165703, 7.540432069990455 ], [ -75.812645981030627, 7.537522796071929 ], [ -75.812553876622275, 7.532209475977599 ], [ -75.81544738564034, 7.527876219373961 ], [ -75.81664016131019, 7.524329041089704 ], [ -75.816627198093542, 7.521070033576953 ], [ -75.815061470044469, 7.520084340241401 ], [ -75.814558351196752, 7.518527648848059 ], [ -75.815395051128704, 7.514698481992259 ], [ -75.814463758154446, 7.512576688363496 ], [ -75.817652643238475, 7.511147100006141 ], [ -75.818216047637662, 7.51001128823059 ], [ -75.817785053865791, 7.508737711366812 ], [ -75.813531629716067, 7.510242343751392 ], [ -75.81063005435405, 7.51252096486921 ], [ -75.811423274726494, 7.515635208952301 ], [ -75.810876398571139, 7.52095106130755 ], [ -75.809048022425586, 7.525350937941414 ], [ -75.807205603956319, 7.526208388972142 ], [ -75.803083881873164, 7.525161860139153 ], [ -75.802305770763468, 7.525873415895787 ], [ -75.806217322626978, 7.527629272407936 ], [ -75.806861288767863, 7.528902023220809 ], [ -75.806383691262681, 7.533792522649676 ], [ -75.807669422417632, 7.53577123309768 ], [ -75.806043867439271, 7.537619732564911 ], [ -75.804837537405717, 7.537766184624489 ], [ -75.802929381191845, 7.539970030894735 ], [ -75.803150205347649, 7.541952953901877 ], [ -75.801944145016961, 7.542170248017517 ], [ -75.803016068112626, 7.543937270044546 ], [ -75.805421469126031, 7.541802298289915 ], [ -75.806639602700244, 7.544631469808861 ], [ -75.808777036279508, 7.546535961051037 ], [ -75.808721232849393, 7.550362048246625 ], [ -75.806050101411429, 7.557103292575177 ], [ -75.807900244763815, 7.558158715431463 ], [ -75.805924984358271, 7.561354749927752 ], [ -75.805004264821889, 7.561925189013557 ], [ -75.803152711237502, 7.56051551723993 ], [ -75.801667940214173, 7.56208006719493 ], [ -75.801463644973168, 7.564277203368614 ], [ -75.804381319020052, 7.565966071316826 ], [ -75.80191856959776, 7.571572905576197 ], [ -75.800999791342491, 7.572639277919627 ], [ -75.797376848656839, 7.572157629050135 ], [ -75.796246185142266, 7.573508227764226 ], [ -75.793826590581006, 7.572100747157349 ], [ -75.7933337840593, 7.573165439990116 ], [ -75.795970312420636, 7.575563949770255 ], [ -75.791863197225027, 7.578343257184806 ], [ -75.794137740168765, 7.578971951830749 ], [ -75.797677677225664, 7.576407423725339 ], [ -75.803715226729778, 7.577021214975616 ], [ -75.803234844331172, 7.581203232027574 ], [ -75.807281602392123, 7.58111634719442 ], [ -75.811486498967085, 7.585067191600319 ], [ -75.811284539571972, 7.587831109899509 ], [ -75.809184924624446, 7.587448132444488 ], [ -75.805397574083315, 7.588489152584934 ], [ -75.806241667042329, 7.59066600514115 ], [ -75.804578005387683, 7.592468078570345 ], [ -75.803537810205796, 7.589458382003504 ], [ -75.802312740948111, 7.588437258401853 ], [ -75.801413582420992, 7.588569067303476 ], [ -75.801033872930077, 7.590045413366161 ], [ -75.797365574676263, 7.588713319342598 ], [ -75.796854533163398, 7.589484818868963 ], [ -75.797891889344186, 7.591789185922265 ], [ -75.80124323358649, 7.594212634307313 ], [ -75.800541704004544, 7.595562021340205 ], [ -75.798997347026784, 7.595055137075833 ], [ -75.797018422402545, 7.598397408964655 ], [ -75.797727363037438, 7.598907597594473 ], [ -75.800294595208584, 7.598063828793538 ], [ -75.802356641548741, 7.599466377303849 ], [ -75.802551990025094, 7.600106839741854 ], [ -75.801075195210601, 7.600433315308234 ], [ -75.801534495247409, 7.602804076875057 ], [ -75.803910224293332, 7.602281662323246 ], [ -75.805209072168623, 7.605675055832136 ], [ -75.805085410147925, 7.606893900238339 ], [ -75.80360833714542, 7.607156271035819 ], [ -75.805047266915523, 7.613434668334967 ], [ -75.804034901868334, 7.617414365712303 ], [ -75.806224833195088, 7.618624001947001 ], [ -75.807721201445005, 7.623170806766468 ], [ -75.8077283971176, 7.624966241998852 ], [ -75.806001655309501, 7.627089204231087 ], [ -75.806717854700452, 7.629394802192479 ], [ -75.803185167098761, 7.629921871024042 ], [ -75.802352760840265, 7.630694673076651 ], [ -75.80223678913714, 7.633837196438845 ], [ -75.798701495976985, 7.633723019881902 ], [ -75.795353375740319, 7.632197339270045 ], [ -75.793747673965157, 7.632460194974004 ], [ -75.794474050557014, 7.637330743566675 ], [ -75.796342726614796, 7.638541682290421 ], [ -75.796418509103248, 7.641426953664783 ], [ -75.793022669978285, 7.644069519448189 ], [ -75.792006595274188, 7.647151503730848 ], [ -75.790336311619768, 7.647350499117603 ], [ -75.7898915203793, 7.648634738839425 ], [ -75.786880447931765, 7.651083376257107 ], [ -75.785068870182073, 7.648076697049087 ], [ -75.783594689815004, 7.649108511186814 ], [ -75.783667353919427, 7.651224322287799 ], [ -75.780264742979782, 7.652199613313242 ], [ -75.778957666928974, 7.653575149881506 ], [ -75.770119142772543, 7.644003744158738 ], [ -75.760278475702705, 7.628379238787046 ], [ -75.756402291211216, 7.624285957274607 ], [ -75.748932314173757, 7.622517425780376 ], [ -75.746112439654738, 7.625352769834823 ], [ -75.742032542575615, 7.635125757268932 ], [ -75.740004435033711, 7.643093472244317 ], [ -75.737185369277242, 7.646185553717566 ], [ -75.733073518574614, 7.647741956649274 ], [ -75.72895276717901, 7.646987399789262 ], [ -75.725335933656339, 7.643406373182757 ], [ -75.719167113150192, 7.645484023913529 ], [ -75.71634492957952, 7.647805693386467 ], [ -75.712098495429728, 7.656767088572192 ], [ -75.709123005003093, 7.676784903875195 ], [ -75.701761258233276, 7.689860520168462 ], [ -75.697015008923032, 7.702926238294677 ], [ -75.689647628698836, 7.714697033774748 ], [ -75.676605205124531, 7.724749297949676 ], [ -75.662250817977267, 7.733936279295489 ], [ -75.649609339196047, 7.734852811757295 ], [ -75.642193684289524, 7.734010138151896 ], [ -75.639537625788961, 7.723146389846117 ], [ -75.642131377407694, 7.717047789639945 ], [ -75.647781878976573, 7.712242818201005 ], [ -75.64817789176935, 7.701367939000669 ], [ -75.651638597564371, 7.693961347642309 ], [ -75.651624197916789, 7.690046974787956 ], [ -75.655964748740814, 7.684811836246269 ], [ -75.66115303189089, 7.673049529294675 ], [ -75.665919609653699, 7.665203176219869 ], [ -75.670697326444582, 7.660401295385687 ], [ -75.67237176825779, 7.641692990064487 ], [ -75.677922674068697, 7.61035735441082 ], [ -75.680819560755651, 7.568593149731966 ], [ -75.683284070990624, 7.557605414954865 ], [ -75.682521257772166, 7.55727865264839 ], [ -75.693846579024765, 7.555497222142959 ], [ -75.699927212171758, 7.549820641881318 ], [ -75.712944958918456, 7.534549767424768 ] ] ] } }
]
}
